
##########################################################
# Query made at 07/09/2023 14:48:50 UTC
# Time interval: from 08/01/2020 00:00  to 08/31/2020 23:59  UTC
##########################################################

##########################################################
# VIDP, New Delhi / Palam (India)
# WMO index: 42181
# Latitude 28-34-00N. Longitude 077-07-00E. Altitude 225 m.
##########################################################

###################################
#  METAR/SPECI from VIDP
###################################
202008312330 METAR VIDP 312330Z 19004KT 3500 BR FEW100 26/24 Q1004 NOSIG=
202008312300 METAR VIDP 312300Z 18004KT 3500 BR FEW100 26/24 Q1004 NOSIG=
202008312230 METAR VIDP 312230Z 17005KT 3500 BR FEW100 27/24 Q1003 NOSIG=
202008312200 METAR VIDP 312200Z 16005KT 3500 BR FEW100 27/24 Q1003 NOSIG=
202008312130 METAR VIDP 312130Z 13004KT 3500 BR FEW100 27/24 Q1004 NOSIG=
202008312100 METAR VIDP 312100Z 12004KT 3500 BR FEW100 27/24 Q1004 NOSIG=
202008312030 METAR VIDP 312030Z 12004KT 3500 BR FEW100 27/24 Q1004 NOSIG=
202008312000 METAR VIDP 312000Z 11005KT 3500 BR FEW100 27/24 Q1005 NOSIG=
202008311930 METAR VIDP 311930Z 12004KT 3500 BR FEW100 27/24 Q1005 NOSIG=
202008311900 METAR VIDP 311900Z 14004KT 3500 BR FEW100 27/24 Q1005 NOSIG=
202008311830 METAR VIDP 311830Z 13003KT 3500 BR FEW100 27/24 Q1005 NOSIG=
202008311800 METAR VIDP 311800Z 13004KT 3500 BR FEW100 27/24 Q1005 NOSIG=
202008311730 METAR VIDP 311730Z 12004KT 3500 BR FEW100 27/24 Q1005 NOSIG=
202008311700 METAR VIDP 311700Z 14004KT 3500 BR FEW100 28/24 Q1005 NOSIG=
202008311630 METAR VIDP 311630Z 13005KT 3500 BR FEW100 28/24 Q1005 NOSIG=
202008311600 METAR VIDP 311600Z 14005KT 3500 HZ FEW100 29/24 Q1005 NOSIG=
202008311530 METAR VIDP 311530Z 13005KT 3500 HZ FEW100 29/24 Q1005 NOSIG=
202008311500 METAR VIDP 311500Z 13005KT 3500 HZ FEW100 29/24 Q1004 NOSIG=
202008311430 METAR VIDP 311430Z 13006KT 3500 HZ FEW040 SCT100 29/24 Q1004 NOSIG=
202008311400 METAR VIDP 311400Z 13005KT 3500 HZ FEW040 SCT100 30/24 Q1003 NOSIG=
202008311330 METAR VIDP 311330Z 12005KT 3500 HZ FEW040 SCT100 30/24 Q1003 NOSIG=
202008311300 METAR VIDP 311300Z 13005KT 4000 HZ FEW040 SCT100 30/24 Q1003 NOSIG=
202008311230 METAR VIDP 311230Z 13006KT 4000 HZ SCT030 BKN100 30/24 Q1003 NOSIG=
202008311200 METAR VIDP 311200Z 13007KT 4000 HZ SCT030 BKN100 31/24 Q1003 NOSIG=
202008311130 METAR VIDP 311130Z 13008KT 4000 HZ SCT030 BKN100 31/24 Q1003 NOSIG=
202008311100 METAR VIDP 311100Z 13009KT 5000 HZ SCT030 BKN100 31/24 Q1003 NOSIG=
202008311030 METAR VIDP 311030Z 14009KT 5000 HZ SCT030 BKN100 31/24 Q1003 NOSIG=
202008311000 METAR VIDP 311000Z 13009KT 5000 HZ SCT030 BKN100 31/24 Q1003 NOSIG=
202008310930 METAR VIDP 310930Z 13008KT 5000 HZ SCT030 BKN100 31/24 Q1003 NOSIG=
202008310900 METAR VIDP 310900Z 14008KT 5000 HZ SCT030 BKN100 31/24 Q1004 NOSIG=
202008310830 METAR COR VIDP 310830Z 13008KT 6000 SCT030 BKN100 31/24 Q1004 BECMG 5000 HZ=
202008310800 METAR VIDP 310800Z 12008KT 6000 FEW020 SCT030 BKN100 31/24 Q1004 NOSIG=
202008310730 METAR VIDP 310730Z 13008KT 6000 FEW020 SCT030 BKN100 31/24 Q1004 NOSIG=
202008310700 METAR VIDP 310700Z 13008KT 6000 FEW020 SCT030 BKN100 30/24 Q1005 NOSIG=
202008310630 METAR VIDP 310630Z 14006KT 6000 FEW020 SCT030 BKN100 29/24 Q1005 NOSIG=
202008310600 METAR VIDP 310600Z 14007KT 6000 FEW020 SCT030 BKN100 29/24 Q1005 NOSIG=
202008310530 METAR VIDP 310530Z 13008KT 6000 FEW020 SCT030 BKN100 29/24 Q1005 NOSIG=
202008310500 METAR VIDP 310500Z 13006KT 6000 FEW020 SCT030 BKN100 29/24 Q1005 NOSIG=
202008310430 METAR VIDP 310430Z 14006KT 6000 FEW020 SCT030 BKN100 28/23 Q1005 NOSIG=
202008310400 METAR VIDP 310400Z 13008KT 5000 HZ FEW020 SCT030 BKN100 28/23 Q1005 NOSIG=
202008310330 METAR VIDP 310330Z 13008KT 4000 BR FEW020 SCT030 BKN100 27/24 Q1005 BECMG 5000 HZ=
202008310300 METAR VIDP 310300Z 14009KT 3500 BR FEW020 SCT030 BKN100 27/24 Q1004 NOSIG=
202008310230 METAR VIDP 310230Z 13008KT 2800 BR SCT030 BKN100 27/24 Q1004 BECMG 3000 BR=
202008310200 METAR VIDP 310200Z 13008KT 2500 BR SCT030 BKN100 27/24 Q1003 NOSIG=
202008310130 METAR VIDP 310130Z 12008KT 3000 BR SCT030 BKN100 27/24 Q1003 NOSIG=
202008310100 METAR COR VIDP 310100Z 12008KT 3000 BR SCT030 BKN100 27/24 Q1003 NOSIG=
202008310030 METAR VIDP 310030Z 12007KT 3000 BR SCT030 BKN100 26/24 Q1002 NOSIG=
202008310000 METAR VIDP 310000Z 12007KT 3000 BR SCT030 BKN100 26/24 Q1002 NOSIG=
202008302330 METAR VIDP 302330Z 11008KT 3200 BR SCT030 BKN100 26/24 Q1002 BECMG 3000 BR=
202008302300 METAR VIDP 302300Z 12008KT 3200 BR SCT030 BKN090 27/24 Q1002 NOSIG=
202008302230 METAR COR VIDP 302230Z 12010KT 3200 BR SCT030 BKN090 27/24 Q1002 NOSIG=
202008302200 METAR VIDP 302200Z 11010KT 3200 BR SCT030 BKN090 27/24 Q1002 NOSIG=
202008302130 METAR VIDP 302130Z 12010KT 3200 BR SCT030 BKN090 27/24 Q1001 NOSIG=
202008302100 METAR VIDP 302100Z 12010KT 3200 BR SCT030 BKN090 27/24 Q1002 NOSIG=
202008302030 METAR VIDP 302030Z 12010KT 3200 BR SCT030 BKN090 27/24 Q1002 NOSIG=
202008302000 METAR VIDP 302000Z 12010KT 3200 BR SCT030 BKN090 27/24 Q1002 NOSIG=
202008301930 METAR VIDP 301930Z 11008KT 3200 BR SCT030 BKN090 27/24 Q1002 NOSIG=
202008301900 METAR VIDP 301900Z 11009KT 3200 BR SCT030 BKN080 27/24 Q1003 NOSIG=
202008301830 METAR VIDP 301830Z 12009KT 3200 BR SCT030 BKN080 27/24 Q1003 NOSIG=
202008301800 METAR VIDP 301800Z 11010KT 3200 BR SCT030 BKN090 27/24 Q1002 NOSIG=
202008301730 METAR VIDP 301730Z 10010KT 3200 BR SCT030 BKN090 27/24 Q1003 NOSIG=
202008301700 METAR VIDP 301700Z 11009KT 3200 -RA SCT030 BKN090 27/24 Q1003 NOSIG=
202008301630 METAR VIDP 301630Z 10009KT 3200 BR SCT030 BKN090 27/24 Q1003 NOSIG=
202008301600 METAR VIDP 301600Z 10010KT 3200 BR SCT030 BKN090 27/24 Q1002 NOSIG=
202008301530 METAR VIDP 301530Z 10010KT 3200 BR SCT030 BKN090 27/24 Q1002 NOSIG=
202008301500 METAR VIDP 301500Z 11010KT 3200 BR SCT030 BKN090 28/24 Q1001 NOSIG=
202008301430 METAR VIDP 301430Z 10009KT 3200 BR SCT030 BKN090 28/24 Q1001 NOSIG=
202008301400 METAR VIDP 301400Z 10010G20KT 3200 BR SCT030 BKN090 28/25 Q1000 NOSIG=
202008301330 METAR VIDP 301330Z 12008G18KT 3500 BR SCT030 BKN090 28/25 Q1000 NOSIG=
202008301300 METAR VIDP 301300Z 10012G24KT 4000 BR SCT030 BKN090 28/25 Q1000 NOSIG=
202008301230 METAR VIDP 301230Z 10010G20KT 4000 BR SCT030 FEW035CB BKN090 28/25 Q0999 NOSIG=
202008301200 METAR VIDP 301200Z 09010G20KT 4000 BR SCT030 FEW035CB BKN090 28/25 Q0999 NOSIG=
202008301130 METAR VIDP 301130Z 11011G21KT 4000 BR SCT030 FEW035CB BKN090 29/25 Q0999 NOSIG=
202008301100 METAR VIDP 301100Z 10010G20KT 4000 BR SCT030 FEW035CB BKN090 29/25 Q0999 NOSIG=
202008301030 METAR VIDP 301030Z 09008G18KT 3500 BR SCT030 BKN090 29/25 Q1000 TEMPO 12010G20KT 1500 TSRA=
202008301000 METAR VIDP 301000Z 09011G21KT 3500 BR BKN025 OVC080 28/25 Q1000 TEMPO 12010G20KT 1500 TSRA=
202008300930 METAR VIDP 300930Z 11007KT 2800 BR BKN025 OVC080 27/25 Q1000 TEMPO 12010G20KT 1500 TSRA=
202008300900 METAR VIDP 300900Z 12008KT 1800 R28/P2000 R29/P2000 DZ BKN025 FEW030CB OVC080 27/25 Q1001 TEMPO 12010G20KT 1500 TSRA=
202008300830 METAR COR VIDP 300830Z 13007KT 2500 -RA BKN025 FEW030CB OVC080 28/25 Q1001 TEMPO 12010G20KT 1500 TSRA=
202008300800 METAR VIDP 300800Z 10008KT 4000 DZ BKN025 OVC080 29/23 Q1001 NOSIG=
202008300730 METAR VIDP 300730Z 09009KT 4000 HZ BKN025 OVC080 29/23 Q1002 NOSIG=
202008300700 METAR VIDP 300700Z 10010KT 4000 HZ BKN025 OVC080 29/23 Q1002 NOSIG=
202008300630 METAR VIDP 300630Z 10010KT 4000 HZ BKN025 OVC080 29/23 Q1002 NOSIG=
202008300600 METAR VIDP 300600Z 09010G20KT 4000 HZ SCT035 BKN100 30/23 Q1002 NOSIG=
202008300530 METAR VIDP 300530Z 10015G25KT 4000 HZ SCT035 BKN100 30/24 Q1002 NOSIG=
202008300500 METAR VIDP 300500Z 09010G20KT 4000 HZ SCT035 BKN100 29/23 Q1002 NOSIG=
202008300430 METAR VIDP 300430Z 09010G20KT 4000 HZ SCT035 BKN100 29/24 Q1002 NOSIG=
202008300400 METAR VIDP 300400Z 08008G18KT 3000 HZ SCT035 BKN100 29/24 Q1002 NOSIG=
202008300330 METAR VIDP 300330Z 07007G17KT 3000 BR SCT035 BKN100 28/24 Q1002 NOSIG=
202008300300 METAR VIDP 300300Z 07007G17KT 2800 BR SCT035 BKN100 29/25 Q1002 BECMG 3000 BR=
202008300230 METAR VIDP 300230Z 06008G18KT 2500 BR SCT035 BKN100 28/25 Q1002 NOSIG=
202008300200 METAR VIDP 300200Z 06010KT 2500 BR SCT035 BKN100 28/26 Q1002 NOSIG=
202008300130 METAR VIDP 300130Z 07011KT 2500 BR SCT035 BKN100 28/26 Q1002 NOSIG=
202008300100 METAR VIDP 300100Z 06010KT 2500 BR SCT035 BKN100 28/26 Q1001 NOSIG=
202008300030 METAR VIDP 300030Z 06007KT 2500 BR SCT035 BKN100 28/26 Q1001 NOSIG=
202008300000 METAR VIDP 300000Z 07005KT 2500 BR SCT040 SCT100 28/26 Q1000 NOSIG=
202008292330 METAR VIDP 292330Z 06005KT 2500 BR SCT040 SCT100 28/26 Q1000 NOSIG=
202008292300 METAR VIDP 292300Z 06005KT 2500 BR SCT040 SCT100 28/26 Q1000 NOSIG=
202008292230 METAR VIDP 292230Z 06004KT 2800 BR SCT040 SCT100 28/26 Q1000 NOSIG=
202008292200 METAR VIDP 292200Z 06004KT 2800 BR SCT040 SCT100 28/26 Q1000 NOSIG=
202008292130 METAR VIDP 292130Z 07005KT 2800 BR SCT040 SCT100 28/26 Q1000 NOSIG=
202008292100 METAR VIDP 292100Z 07004KT 3000 BR SCT040 SCT100 28/26 Q1001 NOSIG=
202008292030 METAR VIDP 292030Z 00000KT 3000 BR SCT040 SCT100 29/26 Q1001 NOSIG=
202008292000 METAR VIDP 292000Z 00000KT 3000 BR SCT040 SCT100 29/26 Q1001 NOSIG=
202008291930 METAR VIDP 291930Z 00000KT 3000 BR SCT040 SCT100 29/26 Q1001 NOSIG=
202008291900 METAR VIDP 291900Z 07003KT 3000 BR SCT040 SCT100 29/26 Q1001 NOSIG=
202008291830 METAR VIDP 291830Z 05003KT 3000 BR SCT040 SCT100 29/26 Q1001 NOSIG=
202008291800 METAR VIDP 291800Z 00000KT 3000 BR SCT040 SCT100 30/26 Q1002 NOSIG=
202008291730 METAR VIDP 291730Z 00000KT 3000 BR SCT040 SCT100 30/26 Q1002 NOSIG=
202008291700 METAR VIDP 291700Z 00000KT 3000 BR SCT040 SCT100 30/26 Q1002 NOSIG=
202008291630 METAR VIDP 291630Z 00000KT 3000 BR SCT040 SCT100 30/26 Q1002 NOSIG=
202008291600 METAR VIDP 291600Z 00000KT 3000 HZ SCT040 SCT100 30/25 Q1002 NOSIG=
202008291530 METAR VIDP 291530Z 00000KT 3000 HZ SCT040 SCT100 30/25 Q1002 NOSIG=
202008291500 METAR VIDP 291500Z 00000KT 3500 HZ SCT040 SCT100 30/25 Q1001 BECMG 3000 HZ=
202008291430 METAR VIDP 291430Z 08004KT 3500 HZ SCT040 SCT100 32/25 Q1001 NOSIG=
202008291400 METAR COR VIDP 291400Z 08005KT 3500 HZ SCT035 FEW040CB SCT100 32/25 Q1000 NOSIG=
202008291330 METAR VIDP 291330Z 09005KT 3500 HZ SCT035 FEW040CB SCT100 32/25 Q1000 NOSIG=
202008291300 METAR VIDP 291300Z 09005KT 4000 HZ SCT035 FEW040CB SCT100 32/24 Q1000 NOSIG=
202008291230 METAR VIDP 291230Z 07005KT 4000 HZ SCT035 FEW040CB SCT100 33/24 Q1000 NOSIG=
202008291200 METAR VIDP 291200Z 07007KT 4000 HZ SCT035 FEW040CB SCT100 33/24 Q1000 NOSIG=
202008291130 METAR VIDP 291130Z 08006KT 4000 HZ SCT035 FEW040CB SCT100 33/24 Q0999 NOSIG=
202008291100 METAR VIDP 291100Z 07007KT 4000 HZ SCT035 FEW040CB SCT100 33/24 Q1000 NOSIG=
202008291030 METAR VIDP 291030Z 08006KT 4000 HZ SCT035 FEW040CB SCT100 33/24 Q1000 NOSIG=
202008291000 METAR VIDP 291000Z 10006KT 3500 HZ SCT035 FEW040CB SCT100 33/25 Q1000 NOSIG=
202008290930 METAR VIDP 290930Z 08008KT 3500 HZ SCT035 FEW040CB SCT100 33/25 Q1000 NOSIG=
202008290900 METAR VIDP 290900Z 10006KT 3500 HZ SCT035 SCT100 33/25 Q1001 NOSIG=
202008290830 METAR VIDP 290830Z 10007KT 3500 HZ SCT035 SCT100 33/25 Q1001 NOSIG=
202008290800 METAR VIDP 290800Z 10006KT 3500 HZ FEW035 SCT100 33/25 Q1001 NOSIG=
202008290730 METAR VIDP 290730Z 10005KT 2800 HZ FEW035 SCT100 32/25 Q1002 BECMG 3000 HZ=
202008290700 METAR VIDP 290700Z 09004KT 2800 HZ FEW035 SCT100 32/25 Q1003 NOSIG=
202008290630 METAR VIDP 290630Z 11004KT 2800 HZ FEW035 SCT100 32/25 Q1003 NOSIG=
202008290600 METAR VIDP 290600Z 12004KT 2800 HZ FEW035 SCT100 31/25 Q1003 NOSIG=
202008290530 METAR VIDP 290530Z 12004KT 2500 HZ FEW035 SCT100 31/26 Q1003 NOSIG=
202008290500 METAR VIDP 290500Z 10004KT 2200 BR FEW035 SCT100 30/26 Q1003 NOSIG=
202008290430 METAR VIDP 290430Z 11004KT 2000 BR SCT100 30/26 Q1003 NOSIG=
202008290400 METAR VIDP 290400Z 10003KT 1800 R28/P2000 R29/P2000 BR SCT100 29/26 Q1003 NOSIG=
202008290330 METAR VIDP 290330Z 05003KT 1500 R28/P2000 R29/P2000 BR SCT100 29/26 Q1003 NOSIG=
202008290300 METAR VIDP 290300Z 00000KT 1400 R28/1600 R29/2000 BR SCT100 28/26 Q1003 BECMG 1500 BR=
202008290230 METAR VIDP 290230Z 07003KT 1200 R28/1500 R29/P2000 BR SCT100 28/26 Q1002 NOSIG=
202008290200 METAR VIDP 290200Z 08004KT 1200 R28/1500 R29/P2000 BR SCT100 27/26 Q1002 NOSIG=
202008290130 METAR VIDP 290130Z 08003KT 1200 R28/1300 R29/P2000 BR SCT100 27/26 Q1002 NOSIG=
202008290100 METAR VIDP 290100Z 00000KT 1200 R28/P2000 R29/P2000 BR SCT100 26/26 Q1002 NOSIG=
202008290030 METAR COR VIDP 290030Z 00000KT 1200 R28/P2000 R29/P2000 BR SCT030 BKN100 26/26 Q1002 NOSIG=
202008290000 METAR VIDP 290000Z 09003KT 1200 R28/P2000 R29/P2000 BR SCT030 BKN100 26/25 Q1001 NOSIG=
202008282330 METAR VIDP 282330Z 09003KT 1200 R28/P2000 R29/P2000 BR SCT030 BKN100 26/25 Q1001 NOSIG=
202008282300 METAR VIDP 282300Z 10004KT 1200 R28/P2000 R29/P2000 BR SCT030 BKN100 26/25 Q1001 NOSIG=
202008282230 METAR VIDP 282230Z 00000KT 1200 R28/P2000 R29/P2000 BR SCT030 BKN100 26/25 Q1001 NOSIG=
202008282200 METAR VIDP 282200Z 00000KT 1300 R28/P2000 R29/P2000 BR SCT030 BKN100 26/25 Q1001 NOSIG=
202008282130 METAR VIDP 282130Z 00000KT 1300 R28/P2000 R29/P2000 BR SCT030 BKN100 26/25 Q1001 NOSIG=
202008282100 METAR VIDP 282100Z 00000KT 1300 R28/P2000 R29/P2000 BR SCT030 BKN100 26/25 Q1001 NOSIG=
202008282030 METAR VIDP 282030Z 00000KT 1300 R28/P2000 R29/P2000 BR SCT030 BKN100 26/25 Q1002 NOSIG=
202008282000 METAR VIDP 282000Z 00000KT 1300 R28/P2000 R29/P2000 BR SCT030 BKN100 26/25 Q1002 NOSIG=
202008281930 METAR VIDP 281930Z 00000KT 1300 R28/P2000 R29/P2000 BR SCT030 BKN100 26/25 Q1002 NOSIG=
202008281900 METAR VIDP 281900Z 00000KT 1500 R28/P2000 R29/P2000 BR SCT030 BKN100 26/25 Q1002 NOSIG=
202008281830 METAR VIDP 281830Z 00000KT 1600 R28/P2000 R29/P2000 BR SCT030 BKN100 26/25 Q1003 BECMG 1500 BR=
202008281800 METAR VIDP 281800Z 00000KT 1800 R28/P2000 R29/P2000 BR SCT030 BKN100 26/25 Q1003 NOSIG=
202008281730 METAR VIDP 281730Z 12003KT 1800 R28/P2000 R29/P2000 BR SCT030 BKN100 27/26 Q1003 NOSIG=
202008281700 METAR VIDP 281700Z 10004KT 2100 BR SCT030 BKN100 27/25 Q1003 NOSIG=
202008281630 METAR VIDP 281630Z 00000KT 2500 BR SCT030 BKN100 27/25 Q1003 NOSIG=
202008281600 METAR VIDP 281600Z 00000KT 2500 BR SCT030 BKN100 27/25 Q1003 NOSIG=
202008281530 METAR VIDP 281530Z 00000KT 2500 BR SCT030 BKN100 27/25 Q1002 NOSIG=
202008281500 METAR VIDP 281500Z 08004KT 2500 BR SCT030 BKN100 27/25 Q1002 NOSIG=
202008281430 METAR VIDP 281430Z 08003KT 2500 BR SCT030 BKN100 27/25 Q1002 NOSIG=
202008281400 METAR VIDP 281400Z 00000KT 2500 BR SCT030 BKN100 27/25 Q1001 NOSIG=
202008281330 METAR VIDP 281330Z 00000KT 2500 BR SCT030 BKN100 28/26 Q1001 NOSIG=
202008281300 METAR VIDP 281300Z 00000KT 2500 BR SCT030 BKN100 28/26 Q1001 NOSIG=
202008281230 METAR VIDP 281230Z 10003KT 2500 BR SCT030 BKN100 28/26 Q1001 NOSIG=
202008281200 METAR VIDP 281200Z 11003KT 2200 BR BKN030 OVC080 28/26 Q1001 NOSIG=
202008281130 METAR VIDP 281130Z 05004KT 2200 BR BKN030 OVC080 27/26 Q1001 NOSIG=
202008281100 METAR VIDP 281100Z 05004KT 2000 BR BKN030 FEW035CB OVC080 27/26 Q1001 NOSIG=
202008281030 METAR VIDP 281030Z 04003KT 1200 R28/P2000 R29/P2000 BR BKN030 FEW035CB OVC080 27/26 Q1001 BECMG 1500 BR=
202008281000 METAR VIDP 281000Z 02003KT 0500 R28/P2000 R29/P2000 BR BKN030 FEW035CB OVC080 26/26 Q1002 BECMG 0600 BR=
202008280930 METAR VIDP 280930Z 04008KT 0500 R28/P2000 R29/P2000 TSRA BKN020 FEW025CB OVC080 26/26 Q1002 BECMG 0600 RA=
202008280900 METAR COR VIDP 280900Z 05010KT 0600 R28/P2000 R29/P2000 TSRA BKN020 FEW025CB OVC080 27/26 Q1002 BECMG 0800 RA=
202008280830 METAR COR VIDP 280830Z 08008KT 0300 R28/P2000 R29/P2000 TSRA BKN020 FEW025CB OVC080 27/26 Q1002 BECMG 0350 RA=
202008280800 METAR VIDP 280800Z 10010KT 2500 BR SCT025 FEW030CB BKN080 29/25 Q1002 TEMPO 23015G25KT 1500 TSRA=
202008280730 METAR VIDP 280730Z 28006KT 2500 HZ SCT025 FEW030CB BKN080 33/25 Q1002 TEMPO 23015G25KT 1500 TSRA=
202008280700 METAR VIDP 280700Z 28010G20KT 2500 HZ SCT025 FEW035CB BKN080 33/25 Q1003 NOSIG=
202008280630 METAR VIDP 280630Z 28009KT 2500 HZ SCT025 FEW030CB BKN080 33/26 Q1002 NOSIG=
202008280600 METAR VIDP 280600Z 29008KT 2500 HZ SCT025 FEW030CB BKN080 32/25 Q1003 NOSIG=
202008280530 METAR VIDP 280530Z 28008KT 2500 HZ SCT030 FEW040CB BKN100 33/26 Q1003 NOSIG=
202008280500 METAR VIDP 280500Z 27008KT 2500 HZ SCT030 FEW040CB BKN100 32/26 Q1003 NOSIG=
202008280430 METAR VIDP 280430Z 27006KT 2500 HZ SCT030 FEW040CB BKN100 31/25 Q1003 NOSIG=
202008280400 METAR COR VIDP 280400Z 26005KT 2500 BR SCT030 FEW040CB BKN100 31/26 Q1003 NOSIG=
202008280330 METAR VIDP 280330Z 28006KT 2500 BR FEW030 FEW040CB SCT100 30/26 Q1003 NOSIG=
202008280300 METAR VIDP 280300Z 27005KT 2500 BR FEW035 FEW040CB SCT100 30/25 Q1003 NOSIG=
202008280230 METAR VIDP 280230Z 27005KT 2500 BR FEW030 FEW040CB SCT100 29/25 Q1003 NOSIG=
202008280200 METAR VIDP 280200Z 25004KT 2200 BR FEW035 FEW040CB SCT100 28/25 Q1002 NOSIG=
202008280130 METAR VIDP 280130Z 25004KT 2500 BR FEW035 SCT100 28/26 Q1002 NOSIG=
202008280100 METAR VIDP 280100Z 25003KT 3200 BR FEW035 SCT100 28/26 Q1002 BECMG 3000 BR=
202008280030 METAR VIDP 280030Z 27003KT 3500 BR FEW035 SCT100 28/25 Q1001 NOSIG=
202008280000 METAR VIDP 280000Z 00000KT 3500 BR FEW035 SCT100 28/25 Q1001 NOSIG=
202008272330 METAR VIDP 272330Z 00000KT 3500 BR FEW035 SCT100 29/26 Q1001 NOSIG=
202008272300 METAR VIDP 272300Z 00000KT 3500 BR FEW035 SCT100 29/26 Q1001 NOSIG=
202008272230 METAR VIDP 272230Z 00000KT 3500 BR FEW035 SCT100 29/26 Q1001 NOSIG=
202008272200 METAR VIDP 272200Z 00000KT 3500 BR FEW035 FEW040CB SCT100 29/26 Q1001 NOSIG=
202008272130 METAR VIDP 272130Z 26004KT 3500 BR FEW035 FEW040CB SCT100 29/26 Q1002 NOSIG=
202008272100 METAR VIDP 272100Z 27004KT 3500 BR FEW035 FEW040CB SCT100 29/26 Q1002 NOSIG=
202008272030 METAR VIDP 272030Z 27006KT 3500 BR FEW035 FEW040CB SCT100 29/26 Q1002 NOSIG=
202008272000 METAR VIDP 272000Z 00000KT 3500 BR FEW035 FEW040CB SCT100 29/26 Q1002 NOSIG=
202008271930 METAR VIDP 271930Z 00000KT 3500 BR FEW035 FEW040CB SCT100 29/26 Q1003 NOSIG=
202008271900 METAR VIDP 271900Z 00000KT 3500 BR FEW035 FEW040CB SCT100 29/26 Q1003 NOSIG=
202008271830 METAR VIDP 271830Z 00000KT 3500 BR FEW035 FEW040CB SCT100 29/26 Q1003 NOSIG=
202008271800 METAR VIDP 271800Z 00000KT 3500 HZ FEW035 FEW040CB SCT100 30/25 Q1003 NOSIG=
202008271730 METAR VIDP 271730Z 00000KT 3500 HZ FEW035 FEW040CB SCT100 30/25 Q1004 NOSIG=
202008271700 METAR VIDP 271700Z 00000KT 3500 HZ FEW035 FEW040CB SCT100 30/25 Q1004 NOSIG=
202008271630 METAR VIDP 271630Z 00000KT 3500 HZ FEW035 FEW040CB SCT100 30/25 Q1004 NOSIG=
202008271600 METAR VIDP 271600Z 14003KT 3500 HZ FEW035 FEW040CB SCT100 30/25 Q1003 NOSIG=
202008271530 METAR VIDP 271530Z 12004KT 3500 HZ FEW035 FEW040CB SCT100 31/25 Q1003 NOSIG=
202008271500 METAR VIDP 271500Z 11004KT 3500 HZ FEW035 FEW040CB SCT100 31/25 Q1003 NOSIG=
202008271430 METAR VIDP 271430Z 09003KT 3500 HZ FEW035 FEW040CB SCT100 31/25 Q1002 NOSIG=
202008271400 METAR VIDP 271400Z 04005KT 3500 HZ SCT020 FEW030CB BKN080 32/24 Q1002 NOSIG=
202008271330 METAR VIDP 271330Z 03004KT 3500 HZ SCT025 FEW035CB BKN080 32/24 Q1002 NOSIG=
202008271300 METAR COR VIDP 271300Z 27004KT 3500 HZ SCT030 FEW040CB BKN100 32/24 Q1001 NOSIG=
202008271230 METAR VIDP 271230Z 27005KT 3500 HZ SCT030 FEW040CB BKN100 33/25 Q1001 NOSIG=
202008271200 METAR VIDP 271200Z 25005KT 3500 HZ SCT030 FEW040CB BKN100 33/25 Q1001 NOSIG=
202008271130 METAR VIDP 271130Z 28005KT 3500 HZ SCT030 FEW040CB BKN100 33/24 Q1001 NOSIG=
202008271100 METAR VIDP 271100Z 28004KT 4000 HZ SCT030 FEW040CB BKN100 34/25 Q1001 NOSIG=
202008271030 METAR VIDP 271030Z 29005KT 4000 HZ SCT030 FEW040CB BKN100 33/24 Q1002 NOSIG=
202008271000 METAR VIDP 271000Z 29005KT 4000 HZ SCT030 FEW040CB BKN100 34/25 Q1002 NOSIG=
202008270930 METAR VIDP 270930Z 27005KT 4000 HZ SCT030 FEW040CB BKN100 34/25 Q1002 NOSIG=
202008270900 METAR VIDP 270900Z 25005KT 4000 HZ SCT030 FEW040CB BKN100 33/25 Q1003 NOSIG=
202008270830 METAR VIDP 270830Z 27006KT 4500 HZ SCT030 BKN100 32/25 Q1003 NOSIG=
202008270800 METAR VIDP 270800Z 31004KT 5000 HZ SCT030 BKN100 33/25 Q1004 NOSIG=
202008270730 METAR VIDP 270730Z 30005KT 4500 HZ SCT030 BKN100 33/25 Q1005 BECMG 5000 HZ=
202008270700 METAR VIDP 270700Z 27003KT 4500 HZ SCT030 BKN100 32/25 Q1005 NOSIG=
202008270630 METAR VIDP 270630Z 28006KT 4000 HZ SCT030 BKN100 32/25 Q1005 NOSIG=
202008270600 METAR VIDP 270600Z 30006KT 4000 HZ SCT030 BKN100 32/25 Q1005 NOSIG=
202008270530 METAR VIDP 270530Z 29008KT 4000 HZ SCT030 BKN100 31/24 Q1006 NOSIG=
202008270500 METAR VIDP 270500Z 29008KT 4000 HZ SCT030 BKN100 31/24 Q1006 NOSIG=
202008270430 METAR VIDP 270430Z 28008KT 4000 HZ SCT030 BKN100 31/24 Q1006 NOSIG=
202008270400 METAR VIDP 270400Z 29011KT 4000 HZ SCT030 BKN100 30/24 Q1006 NOSIG=
202008270330 METAR VIDP 270330Z 28009KT 4000 HZ SCT030 BKN100 30/24 Q1006 NOSIG=
202008270300 METAR VIDP 270300Z 26008KT 4000 BR SCT030 BKN100 29/25 Q1006 NOSIG=
202008270230 METAR VIDP 270230Z 26008KT 4000 BR SCT030 BKN100 28/25 Q1006 NOSIG=
202008270200 METAR VIDP 270200Z 26003KT 3500 BR FEW030 SCT100 28/25 Q1005 NOSIG=
202008270130 METAR VIDP 270130Z 27004KT 3500 BR FEW030 SCT100 28/25 Q1005 NOSIG=
202008270100 METAR VIDP 270100Z 26003KT 4000 BR FEW030 SCT100 27/25 Q1004 NOSIG=
202008270030 METAR VIDP 270030Z 27004KT 4000 BR FEW030 SCT100 27/25 Q1004 NOSIG=
202008270000 METAR VIDP 270000Z 25004KT 4000 BR FEW030 SCT100 27/25 Q1004 NOSIG=
202008262330 METAR VIDP 262330Z 23003KT 4000 BR FEW030 SCT100 27/25 Q1004 NOSIG=
202008262300 METAR VIDP 262300Z 00000KT 4000 BR FEW030 SCT100 27/25 Q1004 NOSIG=
202008262230 METAR VIDP 262230Z 00000KT 4000 BR FEW030 SCT100 28/25 Q1004 NOSIG=
202008262200 METAR VIDP 262200Z 25003KT 4000 BR FEW030 SCT100 28/26 Q1004 NOSIG=
202008262130 METAR VIDP 262130Z 27003KT 4000 BR FEW030 SCT100 28/26 Q1004 NOSIG=
202008262100 METAR VIDP 262100Z 28003KT 4000 BR FEW030 SCT100 28/26 Q1005 NOSIG=
202008262030 METAR VIDP 262030Z 00000KT 4000 BR FEW030 SCT100 28/26 Q1005 NOSIG=
202008262000 METAR VIDP 262000Z 00000KT 4000 BR FEW030 SCT100 28/26 Q1005 NOSIG=
202008261930 METAR VIDP 261930Z 26003KT 4000 BR FEW030 SCT100 28/26 Q1005 NOSIG=
202008261900 METAR VIDP 261900Z 27003KT 4000 BR FEW030 SCT100 28/26 Q1006 NOSIG=
202008261830 METAR VIDP 261830Z 24003KT 4000 BR FEW030 SCT100 28/26 Q1006 NOSIG=
202008261800 METAR VIDP 261800Z 26003KT 4000 BR FEW030 SCT100 28/26 Q1006 NOSIG=
202008261730 METAR VIDP 261730Z 23003KT 4000 BR FEW030 SCT100 29/26 Q1006 NOSIG=
202008261700 METAR VIDP 261700Z 24003KT 4000 BR FEW030 SCT100 29/26 Q1006 NOSIG=
202008261630 METAR VIDP 261630Z 24003KT 4000 BR FEW030 SCT100 29/26 Q1006 NOSIG=
202008261600 METAR VIDP 261600Z 00000KT 4000 BR FEW030 SCT100 30/26 Q1006 NOSIG=
202008261530 METAR VIDP 261530Z 00000KT 4000 BR FEW030 SCT100 30/26 Q1006 NOSIG=
202008261500 METAR VIDP 261500Z 25003KT 4000 BR FEW030 SCT100 30/26 Q1005 NOSIG=
202008261430 METAR VIDP 261430Z 26003KT 4000 BR FEW030 SCT100 30/25 Q1004 NOSIG=
202008261400 METAR VIDP 261400Z 00000KT 4000 BR FEW030 SCT100 30/25 Q1004 NOSIG=
202008261330 METAR VIDP 261330Z 00000KT 4000 HZ FEW030 SCT100 31/25 Q1003 NOSIG=
202008261300 METAR VIDP 261300Z 26004KT 4500 HZ FEW030 SCT100 31/25 Q1003 NOSIG=
202008261230 METAR VIDP 261230Z 25005KT 4500 HZ SCT030 SCT100 31/25 Q1003 NOSIG=
202008261200 METAR VIDP 261200Z 24006KT 4500 HZ SCT025 SCT090 31/24 Q1002 NOSIG=
202008261130 METAR VIDP 261130Z 26006KT 4500 HZ SCT025 SCT090 32/24 Q1002 NOSIG=
202008261100 METAR VIDP 261100Z 27006KT 5000 HZ SCT025 BKN090 32/24 Q1002 NOSIG=
202008261030 METAR VIDP 261030Z 25007KT 5000 HZ SCT025 BKN090 32/24 Q1003 NOSIG=
202008261000 METAR VIDP 261000Z 25007KT 5000 HZ SCT030 BKN100 32/24 Q1003 NOSIG=
202008260930 METAR VIDP 260930Z 25007KT 5000 HZ SCT030 BKN100 32/25 Q1004 NOSIG=
202008260900 METAR VIDP 260900Z 25005KT 5000 HZ SCT030 BKN100 32/25 Q1004 NOSIG=
202008260830 METAR VIDP 260830Z 27005KT 4500 HZ SCT030 BKN100 32/24 Q1004 BECMG 5000 HZ=
202008260800 METAR VIDP 260800Z 27006KT 4000 HZ SCT030 BKN080 31/24 Q1005 NOSIG=
202008260730 METAR VIDP 260730Z 26007KT 4000 HZ SCT030 BKN080 31/24 Q1005 NOSIG=
202008260700 METAR VIDP 260700Z 25006KT 3000 HZ SCT030 BKN080 31/24 Q1005 NOSIG=
202008260630 METAR VIDP 260630Z 28005KT 3000 HZ SCT030 BKN080 31/24 Q1005 NOSIG=
202008260600 METAR VIDP 260600Z 27005KT 3000 HZ SCT030 BKN080 31/25 Q1005 NOSIG=
202008260530 METAR VIDP 260530Z 27004KT 3000 HZ SCT030 BKN080 30/25 Q1006 NOSIG=
202008260500 METAR VIDP 260500Z 25005KT 3000 HZ SCT030 BKN080 30/24 Q1006 NOSIG=
202008260430 METAR VIDP 260430Z 26006KT 3000 HZ SCT030 BKN080 30/24 Q1006 NOSIG=
202008260400 METAR VIDP 260400Z 26006KT 3000 BR SCT030 BKN080 29/25 Q1006 NOSIG=
202008260330 METAR VIDP 260330Z 26005KT 3000 BR SCT030 BKN080 29/25 Q1006 NOSIG=
202008260300 METAR VIDP 260300Z 24004KT 3000 BR SCT030 BKN080 29/25 Q1006 NOSIG=
202008260230 METAR VIDP 260230Z 26004KT 2500 BR SCT030 BKN080 28/25 Q1006 BECMG 3000 BR=
202008260200 METAR VIDP 260200Z 25005KT 2100 BR SCT030 BKN080 28/24 Q1005 NOSIG=
202008260130 METAR VIDP 260130Z 24004KT 2100 BR SCT030 BKN080 28/25 Q1005 NOSIG=
202008260100 METAR VIDP 260100Z 25005KT 2300 BR BKN025 OVC080 28/24 Q1005 NOSIG=
202008260030 METAR VIDP 260030Z 23004KT 2300 BR BKN025 OVC080 27/25 Q1005 NOSIG=
202008260000 METAR VIDP 260000Z 23005KT 2500 BR SCT030 BKN080 27/25 Q1005 NOSIG=
202008252330 METAR VIDP 252330Z 23005KT 2500 BR SCT030 BKN080 27/25 Q1005 NOSIG=
202008252300 METAR VIDP 252300Z 22004KT 2500 BR SCT030 BKN080 27/25 Q1005 NOSIG=
202008252230 METAR VIDP 252230Z 23005KT 2500 BR SCT030 BKN080 27/25 Q1004 NOSIG=
202008252200 METAR VIDP 252200Z 00000KT 2500 BR SCT030 BKN100 28/25 Q1004 NOSIG=
202008252130 METAR VIDP 252130Z 00000KT 3000 BR SCT040 SCT100 28/26 Q1004 NOSIG=
202008252100 METAR VIDP 252100Z 00000KT 3000 BR SCT040 SCT100 28/26 Q1004 NOSIG=
202008252030 METAR VIDP 252030Z 00000KT 3500 BR SCT040 BKN100 28/26 Q1004 BECMG 3000 BR=
202008252000 METAR VIDP 252000Z 00000KT 3500 BR SCT040 BKN100 28/26 Q1005 NOSIG=
202008251930 METAR VIDP 251930Z 00000KT 3500 BR SCT040 BKN100 28/26 Q1005 NOSIG=
202008251900 METAR VIDP 251900Z 00000KT 3500 BR SCT040 BKN100 28/26 Q1005 NOSIG=
202008251830 METAR VIDP 251830Z 00000KT 3500 BR SCT040 BKN100 29/26 Q1005 NOSIG=
202008251800 METAR VIDP 251800Z 18003KT 3500 BR SCT040 BKN100 29/26 Q1005 NOSIG=
202008251730 METAR VIDP 251730Z 18003KT 3500 BR SCT040 BKN100 29/26 Q1005 NOSIG=
202008251700 METAR COR VIDP 251700Z 16003KT 3500 BR SCT040 BKN100 29/26 Q1005 NOSIG=
202008251630 METAR VIDP 251630Z 16005KT 3500 BR SCT035 FEW040CB BKN090 29/26 Q1005 NOSIG=
202008251600 METAR VIDP 251600Z 15005KT 3500 BR SCT030 FEW040CB BKN090 29/26 Q1005 NOSIG=
202008251530 METAR VIDP 251530Z 15005KT 3500 BR SCT030 FEW040CB BKN080 30/26 Q1004 NOSIG=
202008251500 METAR VIDP 251500Z 18004KT 3500 BR SCT035 FEW040CB BKN080 29/26 Q1004 NOSIG=
202008251430 METAR COR VIDP 251430Z 17005KT 3500 BR SCT030 BKN080 29/26 Q1003 NOSIG=
202008251400 METAR VIDP 251400Z 13004KT 4000 HZ SCT035 BKN090 30/25 Q1003 NOSIG=
202008251330 METAR VIDP 251330Z 12004KT 4000 HZ SCT035 BKN090 30/25 Q1002 NOSIG=
202008251300 METAR VIDP 251300Z 15005KT 4000 HZ SCT035 BKN090 30/25 Q1002 NOSIG=
202008251230 METAR VIDP 251230Z 15005KT 4000 HZ SCT035 FEW040CB BKN090 30/25 Q1002 NOSIG=
202008251200 METAR VIDP 251200Z 15007KT 4500 HZ SCT035 FEW040CB BKN090 31/25 Q1002 NOSIG=
202008251130 METAR VIDP 251130Z 15007KT 4500 HZ SCT035 FEW040CB BKN090 31/25 Q1002 NOSIG=
202008251100 METAR VIDP 251100Z 16007KT 4500 HZ SCT035 FEW040CB BKN090 31/25 Q1002 NOSIG=
202008251030 METAR VIDP 251030Z 15007KT 4500 HZ SCT035 FEW040CB BKN090 31/25 Q1002 NOSIG=
202008251000 METAR VIDP 251000Z 15007KT 4500 HZ SCT035 BKN090 31/25 Q1002 NOSIG=
202008250930 METAR VIDP 250930Z 13007KT 4500 HZ SCT035 BKN090 31/25 Q1003 NOSIG=
202008250900 METAR VIDP 250900Z 14007KT 4500 HZ SCT035 BKN090 31/26 Q1003 NOSIG=
202008250830 METAR VIDP 250830Z 12007KT 4500 HZ SCT035 BKN090 31/26 Q1003 NOSIG=
202008250800 METAR VIDP 250800Z 14008KT 4500 HZ SCT025 BKN080 31/26 Q1004 NOSIG=
202008250730 METAR VIDP 250730Z 14008KT 4500 HZ SCT025 BKN080 31/26 Q1004 NOSIG=
202008250700 METAR VIDP 250700Z 14005KT 4500 HZ SCT025 BKN080 30/25 Q1004 NOSIG=
202008250630 METAR VIDP 250630Z 14005KT 4500 HZ SCT030 BKN100 30/25 Q1004 NOSIG=
202008250600 METAR VIDP 250600Z 15005KT 4500 HZ SCT030 BKN100 30/25 Q1004 NOSIG=
202008250530 METAR VIDP 250530Z 14005KT 4500 HZ SCT030 BKN100 30/25 Q1004 NOSIG=
202008250500 METAR VIDP 250500Z 16005KT 4500 HZ SCT030 BKN100 30/25 Q1004 NOSIG=
202008250430 METAR VIDP 250430Z 14005KT 3500 HZ SCT030 BKN100 30/25 Q1004 NOSIG=
202008250400 METAR VIDP 250400Z 15005KT 3000 BR SCT030 BKN100 29/25 Q1004 NOSIG=
202008250330 METAR VIDP 250330Z 14005KT 2800 BR SCT030 SCT100 29/26 Q1004 BECMG 3000 BR=
202008250300 METAR VIDP 250300Z 13005KT 2500 BR SCT030 SCT100 28/26 Q1004 NOSIG=
202008250230 METAR VIDP 250230Z 13005KT 2500 BR SCT030 SCT100 28/26 Q1004 NOSIG=
202008250200 METAR VIDP 250200Z 12005KT 2500 BR SCT030 BKN100 27/26 Q1004 NOSIG=
202008250130 METAR COR VIDP 250130Z 11005KT 2500 BR SCT030 BKN100 27/26 Q1003 NOSIG=
202008250100 METAR VIDP 250100Z 11005KT 2800 BR FEW035 SCT100 27/25 Q1003 NOSIG=
202008250030 METAR VIDP 250030Z 10004KT 2800 BR FEW035 SCT100 26/25 Q1003 NOSIG=
202008250000 METAR VIDP 250000Z 11004KT 2800 BR FEW035 SCT100 26/25 Q1003 NOSIG=
202008242330 METAR VIDP 242330Z 10004KT 2800 BR FEW035 SCT100 26/25 Q1003 NOSIG=
202008242300 METAR VIDP 242300Z 11005KT 2800 BR FEW035 SCT100 27/25 Q1003 NOSIG=
202008242230 METAR VIDP 242230Z 11005KT 2800 BR FEW035 SCT100 27/25 Q1002 NOSIG=
202008242200 METAR VIDP 242200Z 10005KT 2800 BR FEW035 SCT090 27/25 Q1002 NOSIG=
202008242130 METAR VIDP 242130Z 09004KT 2800 BR FEW035 SCT090 27/25 Q1002 NOSIG=
202008242100 METAR VIDP 242100Z 10004KT 2800 BR FEW035 SCT090 27/25 Q1002 NOSIG=
202008242030 METAR VIDP 242030Z 10004KT 2800 BR FEW035 SCT090 27/25 Q1002 NOSIG=
202008242000 METAR VIDP 242000Z 10004KT 2800 BR FEW035 SCT090 27/25 Q1002 NOSIG=
202008241930 METAR VIDP 241930Z 11004KT 2800 BR FEW035 SCT090 27/25 Q1003 NOSIG=
202008241900 METAR VIDP 241900Z 10005KT 2800 BR FEW035 SCT090 27/25 Q1003 NOSIG=
202008241830 METAR VIDP 241830Z 11005KT 2800 BR FEW035 SCT090 27/25 Q1003 NOSIG=
202008241800 METAR VIDP 241800Z 12004KT 3000 BR FEW030 SCT100 28/25 Q1003 NOSIG=
202008241730 METAR VIDP 241730Z 12003KT 3000 BR FEW030 SCT100 28/26 Q1003 NOSIG=
202008241700 METAR VIDP 241700Z 13005KT 3000 BR FEW030 SCT100 28/26 Q1003 NOSIG=
202008241630 METAR VIDP 241630Z 12004KT 3000 BR FEW030 SCT100 28/26 Q1002 NOSIG=
202008241600 METAR VIDP 241600Z 12005KT 3000 BR FEW030 SCT100 28/26 Q1002 NOSIG=
202008241530 METAR VIDP 241530Z 12005KT 3000 BR FEW030 SCT100 28/26 Q1002 NOSIG=
202008241500 METAR VIDP 241500Z 11005KT 3000 BR FEW030 SCT100 28/26 Q1002 NOSIG=
202008241430 METAR VIDP 241430Z 11005KT 3000 BR FEW030 SCT100 28/26 Q1001 NOSIG=
202008241400 METAR VIDP 241400Z 12004KT 3000 BR FEW030 SCT100 29/25 Q1001 NOSIG=
202008241330 METAR VIDP 241330Z 13004KT 3000 HZ FEW030 SCT100 30/25 Q1001 NOSIG=
202008241300 METAR VIDP 241300Z 12006KT 3000 HZ FEW030 SCT100 30/25 Q1001 NOSIG=
202008241230 METAR VIDP 241230Z 12006KT 3000 HZ FEW030 SCT100 30/25 Q1000 NOSIG=
202008241200 METAR VIDP 241200Z 13008KT 3000 HZ SCT025 BKN080 30/25 Q1000 NOSIG=
202008241130 METAR VIDP 241130Z 12008KT 3000 HZ SCT025 BKN080 30/25 Q1000 NOSIG=
202008241100 METAR VIDP 241100Z 13008KT 3000 HZ SCT025 BKN080 30/25 Q1000 NOSIG=
202008241030 METAR VIDP 241030Z 12008KT 3000 HZ SCT025 BKN080 31/25 Q1001 NOSIG=
202008241000 METAR VIDP 241000Z 12008KT 3000 HZ SCT025 BKN080 31/26 Q1000 NOSIG=
202008240930 METAR VIDP 240930Z 10008KT 3000 HZ SCT025 BKN080 31/25 Q1001 NOSIG=
202008240900 METAR VIDP 240900Z 10010KT 3000 HZ SCT025 BKN080 31/25 Q1001 NOSIG=
202008240830 METAR VIDP 240830Z 12011KT 2500 BR SCT025 BKN080 31/25 Q1001 BECMG 3000=
202008240800 METAR VIDP 240800Z 12011KT 2500 HZ SCT025 BKN080 31/25 Q1001 NOSIG=
202008240730 METAR VIDP 240730Z 12010KT 2500 BR SCT025 BKN080 30/25 Q1001 NOSIG=
202008240700 METAR VIDP 240700Z 12010KT 2500 BR SCT025 BKN080 29/25 Q0999 NOSIG=
202008240630 METAR VIDP 240630Z 12007KT 2500 BR SCT025 BKN080 30/25 Q1002 NOSIG=
202008240600 METAR VIDP 240600Z 11008G18KT 2500 BR SCT025 BKN080 29/25 Q1002 NOSIG=
202008240530 METAR VIDP 240530Z 11010KT 2500 BR SCT030 BKN080 29/26 Q1002 NOSIG=
202008240500 METAR VIDP 240500Z 11008G18KT 2500 BR SCT025 OVC080 28/26 Q1002 NOSIG=
202008240430 METAR VIDP 240430Z 12010KT 2500 BR SCT025 OVC080 28/25 Q1002 NOSIG=
202008240400 METAR VIDP 240400Z 11010KT 2500 BR SCT020 OVC080 29/25 Q1002 NOSIG=
202008240330 METAR VIDP 240330Z 10009KT 2500 BR SCT020 OVC080 28/25 Q1002 NOSIG=
202008240300 METAR VIDP 240300Z 11007KT 2500 BR SCT020 OVC080 27/25 Q1002 NOSIG=
202008240230 METAR VIDP 240230Z 10007KT 2500 BR SCT030 OVC080 27/25 Q1002 NOSIG=
202008240200 METAR VIDP 240200Z 10009KT 3000 BR FEW020 SCT030 OVC080 27/25 Q1001 NOSIG=
202008240130 METAR VIDP 240130Z 10008KT 3000 BR FEW020 SCT030 OVC080 27/25 Q1001 NOSIG=
202008240100 METAR VIDP 240100Z 10009KT 3000 BR FEW020 SCT030 OVC080 27/25 Q1001 NOSIG=
202008240030 METAR VIDP 240030Z 09008KT 3000 BR FEW020 SCT030 OVC080 27/25 Q1000 NOSIG=
202008240000 METAR VIDP 240000Z 09008KT 3000 BR SCT025 BKN090 27/25 Q1000 NOSIG=
202008232330 METAR VIDP 232330Z 09009KT 3000 BR SCT025 BKN090 27/25 Q1000 NOSIG=
202008232300 METAR VIDP 232300Z 09009KT 3000 BR SCT025 BKN090 27/25 Q1000 NOSIG=
202008232230 METAR VIDP 232230Z 09007KT 3000 BR SCT025 BKN090 27/25 Q1000 NOSIG=
202008232200 METAR VIDP 232200Z 10007KT 3000 BR SCT025 BKN090 27/25 Q1000 NOSIG=
202008232130 METAR VIDP 232130Z 09009KT 3000 BR SCT025 SCT100 27/25 Q1000 NOSIG=
202008232100 METAR VIDP 232100Z 09008KT 3000 BR SCT030 SCT100 27/25 Q1000 NOSIG=
202008232030 METAR VIDP 232030Z 09009KT 3000 BR SCT030 SCT100 27/25 Q1000 NOSIG=
202008232000 METAR VIDP 232000Z 10008KT 3000 BR SCT030 SCT100 27/25 Q1001 NOSIG=
202008231930 METAR VIDP 231930Z 11008KT 3000 BR SCT030 SCT100 28/25 Q1001 NOSIG=
202008231900 METAR VIDP 231900Z 10007KT 3000 BR SCT030 SCT100 28/25 Q1001 NOSIG=
202008231830 METAR VIDP 231830Z 09007KT 3000 BR SCT030 SCT100 28/25 Q1001 NOSIG=
202008231800 METAR VIDP 231800Z 10007KT 3000 BR SCT030 SCT100 28/25 Q1001 NOSIG=
202008231730 METAR VIDP 231730Z 10007KT 3000 BR SCT030 SCT100 28/25 Q1001 NOSIG=
202008231700 METAR VIDP 231700Z 09007KT 3000 BR SCT030 SCT100 28/25 Q1001 NOSIG=
202008231630 METAR VIDP 231630Z 10009KT 2800 BR SCT030 SCT100 28/26 Q1001 BECMG 3000 BR=
202008231600 METAR VIDP 231600Z 10008KT 2500 BR SCT030 SCT100 28/26 Q1000 NOSIG=
202008231530 METAR VIDP 231530Z 10008KT 2500 BR SCT030 SCT100 28/25 Q1000 NOSIG=
202008231500 METAR VIDP 231500Z 10008KT 2500 BR SCT030 SCT100 28/25 Q1000 NOSIG=
202008231430 METAR VIDP 231430Z 11008KT 2500 BR SCT030 SCT100 28/25 Q1000 NOSIG=
202008231400 METAR VIDP 231400Z 10008KT 2500 BR SCT030 BKN100 28/26 Q0999 NOSIG=
202008231330 METAR COR VIDP 231330Z 09008KT 2500 BR SCT035 BKN100 29/26 Q0999 NOSIG=
202008231300 METAR VIDP 231300Z 10009KT 3000 BR SCT030 FEW040CB BKN080 28/26 Q0999 NOSIG=
202008231230 METAR VIDP 231230Z 09009KT 3000 BR SCT030 BKN100 29/26 Q0999 NOSIG=
202008231200 METAR VIDP 231200Z 09011KT 3000 HZ SCT035 BKN100 31/25 Q0999 NOSIG=
202008231130 METAR VIDP 231130Z 08008G18KT 3200 HZ SCT030 FEW040CB BKN100 30/25 Q0999 BECMG 3000 HZ=
202008231100 METAR COR VIDP 231100Z 10010G20KT 3500 BR SCT025 FEW035CB BKN080 31/26 Q0999 NOSIG=
202008231030 METAR VIDP 231030Z 09009KT 3500 BR SCT020 FEW030CB BKN080 31/26 Q0999 NOSIG=
202008231000 METAR COR VIDP 231000Z 11007KT 3500 BR SCT020 FEW035CB BKN080 30/26 Q0999 NOSIG=
202008230930 METAR VIDP 230930Z 08010KT 3500 HZ SCT025 FEW035CB BKN080 31/25 Q0999 NOSIG=
202008230900 METAR VIDP 230900Z 08010KT 3500 HZ SCT030 FEW040CB BKN080 32/25 Q1000 NOSIG=
202008230830 METAR VIDP 230830Z 08010G20KT 4000 HZ SCT030 FEW040CB BKN080 32/25 Q1000 NOSIG=
202008230800 METAR VIDP 230800Z 07008G18KT 5000 HZ FEW020 SCT030 FEW035CB BKN100 32/25 Q1001 NOSIG=
202008230730 METAR VIDP 230730Z 08008G18KT 4500 HZ FEW020 SCT030 BKN100 32/25 Q1001 BECMG 5000 HZ=
202008230700 METAR VIDP 230700Z 08007G17KT 4500 HZ FEW020 SCT030 BKN100 31/25 Q1001 NOSIG=
202008230630 METAR VIDP 230630Z 08008G18KT 4000 HZ FEW020 SCT030 BKN100 31/25 Q1002 NOSIG=
202008230600 METAR VIDP 230600Z 09010G20KT 4000 HZ FEW020 SCT030 BKN100 31/25 Q1002 NOSIG=
202008230530 METAR VIDP 230530Z 10007G17KT 3500 HZ FEW020 SCT030 BKN100 30/25 Q1002 NOSIG=
202008230500 METAR VIDP 230500Z 10007G17KT 2800 BR FEW020 SCT030 BKN100 29/25 Q1002 BECMG 3000 BR=
202008230430 METAR VIDP 230430Z 09008G18KT 2500 BR FEW020 SCT030 BKN100 29/25 Q1002 NOSIG=
202008230400 METAR VIDP 230400Z 08008G18KT 2200 BR FEW020 BKN030 OVC100 29/25 Q1002 TEMPO 1000 RA=
202008230330 METAR VIDP 230330Z 08007KT 2200 BR FEW020 BKN030 OVC100 28/25 Q1002 TEMPO 1000 RA=
202008230300 METAR VIDP 230300Z 07008KT 2200 BR FEW020 BKN030 OVC100 28/25 Q1002 NOSIG=
202008230230 METAR VIDP 230230Z 08008KT 2500 BR BKN030 OVC100 28/25 Q1002 NOSIG=
202008230200 METAR VIDP 230200Z 07007KT 2500 BR SCT030 BKN100 28/25 Q1002 NOSIG=
202008230130 METAR VIDP 230130Z 08007KT 2500 BR SCT030 BKN100 28/25 Q1002 NOSIG=
202008230100 METAR VIDP 230100Z 07007KT 2500 BR SCT030 SCT100 28/25 Q1001=
202008230030 METAR VIDP 230030Z 07008KT 2500 BR SCT030 SCT100 27/25 Q1001 NOSIG=
202008230000 METAR VIDP 230000Z 07007KT 3000 BR SCT030 SCT100 27/25 Q1001 NOSIG=
202008222330 METAR VIDP 222330Z 06006KT 3200 BR SCT030 SCT100 27/25 Q1001 BECMG 3000 BR=
202008222300 METAR VIDP 222300Z 07007KT 3500 BR SCT030 SCT100 27/24 Q1001 NOSIG=
202008222230 METAR VIDP 222230Z 08007KT 4000 BR FEW030 SCT100 27/24 Q1001 NOSIG=
202008222200 METAR VIDP 222200Z 09007KT 4000 BR FEW030 SCT100 27/24 Q1001 NOSIG=
202008222130 METAR VIDP 222130Z 08007KT 4000 BR FEW030 SCT100 27/24 Q1000 NOSIG=
202008222100 METAR VIDP 222100Z 08008KT 4000 BR FEW030 SCT100 28/24 Q1001 NOSIG=
202008222030 METAR VIDP 222030Z 08007KT 4000 BR FEW030 SCT100 28/24 Q1001 NOSIG=
202008222000 METAR VIDP 222000Z 08008KT 4000 BR FEW030 SCT100 28/24 Q1001 NOSIG=
202008221930 METAR VIDP 221930Z 09008KT 4000 HZ SCT100 29/24 Q1002 NOSIG=
202008221900 METAR VIDP 221900Z 08007KT 4000 HZ SCT100 29/24 Q1002 NOSIG=
202008221830 METAR VIDP 221830Z 09007KT 4000 HZ SCT100 29/24 Q1002 NOSIG=
202008221800 METAR VIDP 221800Z 10008KT 4000 HZ SCT100 30/24 Q1002 NOSIG=
202008221730 METAR VIDP 221730Z 10007KT 4000 HZ SCT100 30/24 Q1002 NOSIG=
202008221700 METAR VIDP 221700Z 09008KT 4000 HZ SCT100 30/24 Q1002 NOSIG=
202008221630 METAR VIDP 221630Z 09007KT 4500 HZ SCT030 SCT100 30/24 Q1002 NOSIG=
202008221600 METAR VIDP 221600Z 08008KT 4500 HZ SCT030 SCT100 30/24 Q1002 NOSIG=
202008221530 METAR VIDP 221530Z 09007KT 4500 HZ SCT030 SCT100 30/24 Q1001 NOSIG=
202008221500 METAR VIDP 221500Z 08008KT 5000 HZ SCT030 SCT100 31/24 Q1001 NOSIG=
202008221430 METAR VIDP 221430Z 07007KT 5000 HZ SCT030 SCT100 31/24 Q1000 NOSIG=
202008221400 METAR VIDP 221400Z 07007KT 5000 HZ SCT030 SCT100 31/24 Q1000 NOSIG=
202008221330 METAR VIDP 221330Z 07008KT 5000 HZ SCT030 SCT100 31/24 Q1000 NOSIG=
202008221300 METAR VIDP 221300Z 08008KT 5000 HZ SCT030 FEW035CB SCT100 31/24 Q1000 NOSIG=
202008221230 METAR VIDP 221230Z 08010KT 5000 HZ SCT030 FEW035CB SCT100 31/25 Q1000 NOSIG=
202008221200 METAR VIDP 221200Z 08008G18KT 5000 HZ SCT030 FEW035CB BKN100 32/25 Q1000 NOSIG=
202008221130 METAR VIDP 221130Z 06007G17KT 5000 HZ SCT035 FEW040CB BKN100 32/25 Q1000 NOSIG=
202008221100 METAR VIDP 221100Z 08010G20KT 5000 HZ SCT035 FEW040CB SCT100 33/24 Q1000 NOSIG=
202008221030 METAR VIDP 221030Z 07007G17KT 5000 HZ SCT035 FEW040CB SCT100 34/25 Q1000 NOSIG=
202008221000 METAR VIDP 221000Z 08008G18KT 5000 HZ SCT035 FEW040CB SCT100 33/25 Q1000 NOSIG=
202008220930 METAR VIDP 220930Z 08012G22KT 5000 HZ SCT035 SCT100 33/25 Q1001 NOSIG=
202008220900 METAR VIDP 220900Z 09012G22KT 5000 HZ SCT035 SCT100 33/25 Q1001 NOSIG=
202008220830 METAR VIDP 220830Z 09010G20KT 5000 HZ SCT035 SCT100 33/25 Q1002 NOSIG=
202008220800 METAR VIDP 220800Z 08008G18KT 5000 HZ SCT035 SCT100 32/25 Q1002 NOSIG=
202008220730 METAR VIDP 220730Z 08008G18KT 5000 HZ SCT035 SCT100 32/25 Q1002 NOSIG=
202008220700 METAR VIDP 220700Z 08008G18KT 5000 HZ SCT035 SCT100 31/25 Q1003 NOSIG=
202008220630 METAR VIDP 220630Z 08008G18KT 5000 HZ SCT035 SCT100 31/25 Q1003 NOSIG=
202008220600 METAR VIDP 220600Z 08008G18KT 5000 HZ SCT035 31/25 Q1004 NOSIG=
202008220530 METAR VIDP 220530Z 08008G18KT 5000 HZ SCT035 31/25 Q1004 NOSIG=
202008220500 METAR VIDP 220500Z 09011KT 5000 HZ SCT040 31/25 Q1004 NOSIG=
202008220430 METAR VIDP 220430Z 08008G18KT 5000 HZ SCT040 30/25 Q1004 NOSIG=
202008220400 METAR VIDP 220400Z 08008G18KT 5000 HZ SCT040 30/25 Q1004 NOSIG=
202008220330 METAR VIDP 220330Z 08011KT 5000 HZ SCT040 29/24 Q1004 NOSIG=
202008220300 METAR VIDP 220300Z 07010KT 5000 HZ SCT040 29/24 Q1004 NOSIG=
202008220230 METAR VIDP 220230Z 07010KT 5000 HZ FEW040 29/24 Q1004 NOSIG=
202008220200 METAR VIDP 220200Z 07006KT 4000 BR FEW100 29/25 Q1003 BECMG 5000 HZ=
202008220130 METAR VIDP 220130Z 07006KT 3500 BR FEW100 27/24 Q1003 NOSIG=
202008220100 METAR VIDP 220100Z 08005KT 2800 BR FEW100 27/24 Q1003 BECMG 3000 BR=
202008220030 METAR VIDP 220030Z 08005KT 2500 BR FEW100 27/24 Q1003 NOSIG=
202008220000 METAR VIDP 220000Z 09007KT 2500 BR FEW100 27/24 Q1003 NOSIG=
202008212330 METAR VIDP 212330Z 09007KT 2500 BR FEW100 27/24 Q1003 NOSIG=
202008212300 METAR VIDP 212300Z 10007KT 2500 BR FEW100 27/24 Q1002 NOSIG=
202008212230 METAR VIDP 212230Z 09008KT 2100 BR SCT100 27/25 Q1002 NOSIG=
202008212200 METAR VIDP 212200Z 07005KT 2100 BR SCT100 27/25 Q1002 NOSIG=
202008212130 METAR VIDP 212130Z 03005KT 2100 BR SCT100 27/25 Q1002 NOSIG=
202008212100 METAR VIDP 212100Z 03004KT 2300 BR SCT100 28/25 Q1002 NOSIG=
202008212030 METAR VIDP 212030Z 04004KT 2300 BR SCT100 28/25 Q1003 NOSIG=
202008212000 METAR VIDP 212000Z 02003KT 2500 BR FEW035 SCT100 28/26 Q1003 NOSIG=
202008211930 METAR COR VIDP 211930Z 01004KT 2500 BR FEW035 SCT100 28/25 Q1003 NOSIG=
202008211900 METAR VIDP 211900Z 00000KT 2500 BR FEW035 SCT100 28/26 Q1003 NOSIG=
202008211830 METAR VIDP 211830Z 05003KT 2500 BR FEW035 SCT100 28/26 Q1003 NOSIG=
202008211800 METAR COR VIDP 211800Z 05004KT 2500 BR FEW035 SCT100 28/25 Q1004 NOSIG=
202008211730 METAR VIDP 211730Z 04004KT 2500 BR SCT035 BKN100 28/25 Q1004 NOSIG=
202008211700 METAR VIDP 211700Z 00000KT 2500 BR SCT035 BKN100 28/25 Q1003 NOSIG=
202008211630 METAR VIDP 211630Z 06005KT 3000 BR SCT030 FEW040CB BKN080 28/25 Q1003 NOSIG=
202008211600 METAR VIDP 211600Z 07005KT 3000 BR SCT030 FEW040CB BKN080 28/25 Q1003 NOSIG=
202008211530 METAR VIDP 211530Z 10005KT 3000 BR SCT030 FEW040CB BKN090 28/24 Q1003 NOSIG=
202008211500 METAR VIDP 211500Z 08006KT 3200 BR SCT030 FEW035CB BKN090 28/24 Q1002 BECMG 3000 BR=
202008211430 METAR VIDP 211430Z 08004KT 3500 BR SCT030 FEW040CB BKN080 28/25 Q1002 NOSIG=
202008211400 METAR VIDP 211400Z 10005KT 3500 BR SCT030 FEW035CB BKN090 29/25 Q1002 TEMPO 13015G30KT 1500 TSRA=
202008211330 METAR VIDP 211330Z 10005KT 4000 HZ SCT030 FEW035CB BKN090 30/25 Q1001 TEMPO 13015G30KT 1500 TSRA=
202008211300 METAR VIDP 211300Z 10006KT 4000 HZ SCT030 FEW035CB BKN090 31/25 Q1001 TEMPO 13015G30KT 1500 TSRA=
202008211230 METAR VIDP 211230Z 10006KT 4000 HZ SCT030 FEW035CB BKN090 31/25 Q1001 TEMPO 13015G30KT 1500 TSRA=
202008211200 METAR VIDP 211200Z 10005KT 4000 HZ SCT030 FEW035CB BKN090 31/25 Q1001 TEMPO 13015G30KT 1500 TSRA=
202008211130 METAR VIDP 211130Z 09007KT 5000 HZ SCT030 FEW035CB BKN100 32/25 Q1001 TEMPO 13015G30KT 1500 TSRA=
202008211100 METAR VIDP 211100Z 08008KT 5000 HZ SCT030 FEW035CB BKN100 33/25 Q1001 NOSIG=
202008211030 METAR VIDP 211030Z 09007KT 5000 HZ SCT030 FEW035CB BKN100 33/25 Q1002 NOSIG=
202008211000 METAR VIDP 211000Z 09007KT 5000 HZ SCT030 FEW035CB BKN100 33/25 Q1002 NOSIG=
202008210930 METAR VIDP 210930Z 10010KT 5000 HZ SCT030 FEW035CB BKN100 33/25 Q1002 NOSIG=
202008210900 METAR VIDP 210900Z 10011KT 5000 HZ SCT030 BKN100 33/25 Q1003 NOSIG=
202008210830 METAR VIDP 210830Z 11011KT 5000 HZ SCT030 BKN100 33/25 Q1003 NOSIG=
202008210800 METAR VIDP 210800Z 09009KT 5000 HZ SCT030 BKN100 33/25 Q1004 NOSIG=
202008210730 METAR VIDP 210730Z 10008KT 5000 HZ SCT030 SCT100 33/25 Q1004 NOSIG=
202008210700 METAR VIDP 210700Z 09007KT 5000 HZ SCT030 SCT100 33/25 Q1004 NOSIG=
202008210630 METAR VIDP 210630Z 10007KT 5000 HZ SCT030 SCT100 33/25 Q1005 NOSIG=
202008210600 METAR VIDP 210600Z 09007KT 5000 HZ SCT030 SCT100 32/25 Q1005 NOSIG=
202008210530 METAR VIDP 210530Z 10007KT 4500 HZ FEW040 SCT100 32/25 Q1005 NOSIG=
202008210500 METAR VIDP 210500Z 09006KT 4500 HZ FEW040 SCT100 31/25 Q1005 NOSIG=
202008210430 METAR VIDP 210430Z 10008KT 4500 HZ SCT100 31/25 Q1005 NOSIG=
202008210400 METAR VIDP 210400Z 11009KT 4500 HZ SCT100 30/25 Q1005 NOSIG=
202008210330 METAR VIDP 210330Z 12007KT 4000 BR SCT100 30/26 Q1004 NOSIG=
202008210300 METAR VIDP 210300Z 09008KT 4000 BR SCT100 29/26 Q1004 NOSIG=
202008210230 METAR COR VIDP 210230Z 08007KT 3500 BR SCT100 28/26 Q1004 NOSIG=
202008210200 METAR VIDP 210200Z 06004KT 3000 BR SCT030 FEW035CB BKN100 27/25 Q1004 NOSIG=
202008210130 METAR VIDP 210130Z 00000KT 2800 BR SCT030 FEW035CB BKN100 26/25 Q1004 BECMG 3000 BR=
202008210100 METAR VIDP 210100Z 00000KT 2200 BR SCT030 FEW035CB BKN100 26/24 Q1003 NOSIG=
202008210030 METAR VIDP 210030Z 00000KT 2200 BR SCT030 FEW035CB BKN100 26/24 Q1003 NOSIG=
202008210000 METAR VIDP 210000Z 00000KT 2200 BR SCT030 FEW035CB BKN100 26/24 Q1003 NOSIG=
202008202330 METAR VIDP 202330Z 00000KT 2500 BR SCT030 FEW035CB BKN100 26/24 Q1003 NOSIG=
202008202300 METAR VIDP 202300Z 06003KT 2500 BR SCT030 FEW035CB BKN100 26/24 Q1002 NOSIG=
202008202230 METAR VIDP 202230Z 09004KT 2500 BR SCT030 BKN100 26/24 Q1002 NOSIG=
202008202200 METAR COR VIDP 202200Z 08004KT 2500 BR SCT030 BKN100 26/24 Q1003 NOSIG=
202008202130 METAR VIDP 202130Z 07004KT 2200 BR SCT030 BKN100 26/24 Q1003 NOSIG=
202008202100 METAR VIDP 202100Z 07004KT 2200 BR SCT030 BKN100 26/24 Q1003 NOSIG=
202008202030 METAR VIDP 202030Z 07004KT 2200 BR SCT030 BKN100 26/24 Q1003 NOSIG=
202008202000 METAR VIDP 202000Z 07004KT 2200 BR SCT030 BKN100 26/24 Q1003 NOSIG=
202008201930 METAR VIDP 201930Z 08004KT 2000 R28/P2000 R29/P2000 BR SCT030 BKN100 26/24 Q1003 NOSIG=
202008201900 METAR VIDP 201900Z 08003KT 2000 R28/P2000 R29/P2000 BR SCT030 BKN100 26/24 Q1003 NOSIG=
202008201830 METAR VIDP 201830Z 07003KT 1600 R28/P2000 R29/P2000 BR SCT030 BKN100 26/24 Q1003 NOSIG=
202008201800 METAR VIDP 201800Z 08003KT 1600 R28/P2000 R29/P2000 BR SCT030 BKN100 26/24 Q1003 NOSIG=
202008201730 METAR VIDP 201730Z 06003KT 2100 BR SCT030 BKN100 26/24 Q1003 NOSIG=
202008201700 METAR VIDP 201700Z 00000KT 2100 BR SCT030 BKN100 26/24 Q1003 NOSIG=
202008201630 METAR VIDP 201630Z 00000KT 2100 BR SCT030 BKN100 26/25 Q1003 NOSIG=
202008201600 METAR VIDP 201600Z 09003KT 2100 BR SCT030 BKN100 26/25 Q1002 NOSIG=
202008201530 METAR VIDP 201530Z 00000KT 2500 BR SCT030 BKN100 26/25 Q1002 NOSIG=
202008201500 METAR VIDP 201500Z 08002KT 2500 BR SCT030 BKN100 26/25 Q1001 NOSIG=
202008201430 METAR VIDP 201430Z 09004KT 2800 BR SCT030 BKN100 26/25 Q1001 NOSIG=
202008201400 METAR VIDP 201400Z 09005KT 2800 BR SCT030 BKN100 28/26 Q1001 NOSIG=
202008201330 METAR VIDP 201330Z 08006KT 2800 BR SCT030 BKN100 28/26 Q1001 NOSIG=
202008201300 METAR VIDP 201300Z 07005KT 2800 BR SCT030 BKN100 28/26 Q1001 NOSIG=
202008201230 METAR VIDP 201230Z 07006KT 2800 BR SCT030 BKN100 28/26 Q1001 NOSIG=
202008201200 METAR VIDP 201200Z 05004KT 2800 BR SCT030 BKN100 28/26 Q1001 NOSIG=
202008201130 METAR VIDP 201130Z 11006KT 2800 BR SCT030 FEW040CB BKN100 29/27 Q1001 NOSIG=
202008201100 METAR VIDP 201100Z 07004KT 2800 BR SCT030 FEW040CB BKN100 30/27 Q1001 NOSIG=
202008201030 METAR VIDP 201030Z 06004KT 2800 BR SCT030 FEW040CB OVC080 30/26 Q1001 NOSIG=
202008201000 METAR VIDP 201000Z 10004KT 2800 BR SCT030 FEW040CB OVC080 30/27 Q1001 NOSIG=
202008200930 METAR VIDP 200930Z 10005KT 2800 BR SCT030 FEW040CB OVC080 30/27 Q1001 NOSIG=
202008200900 METAR VIDP 200900Z 13005KT 2500 BR SCT030 FEW040CB OVC080 29/26 Q1002 NOSIG=
202008200830 METAR VIDP 200830Z 13004KT 2000 BR SCT030 FEW040CB OVC080 29/26 Q1002 NOSIG=
202008200800 METAR VIDP 200800Z 12005KT 1600 R28/P2000 R29/P2000 BR SCT030 FEW040CB OVC080 28/26 Q1002 NOSIG=
202008200730 METAR VIDP 200730Z 12006KT 1400 R28/P2000 R29/P2000 BR SCT030 FEW040CB OVC080 28/26 Q1002 BECMG 1500 BR=
202008200700 METAR VIDP 200700Z 14005KT 1200 R28/P2000 R29/P2000 BR SCT030 FEW040CB OVC080 27/26 Q1003 NOSIG=
202008200630 METAR VIDP 200630Z 15005KT 1200 R28/P2000 R29/P2000 BR SCT030 FEW040CB OVC080 27/26 Q1003 NOSIG=
202008200600 METAR VIDP 200600Z 14004KT 1200 R28/P2000 R29/P2000 BR SCT030 FEW040CB OVC080 26/26 Q1003 NOSIG=
202008200530 METAR VIDP 200530Z 14004KT 1200 R28/P2000 R29/P2000 BR SCT030 FEW040CB OVC080 25/25 Q1003 NOSIG=
202008200500 METAR VIDP 200500Z 14006KT 1200 R28/P2000 R29/P2000 -DZ SCT025 FEW030CB OVC080 25/25 Q1003 TEMPO 0800 TSRA=
202008200430 METAR VIDP 200430Z 13007KT 1200 R28/P2000 R29/P2000 -DZ SCT020 FEW030CB OVC080 25/25 Q1003 TEMPO 0800 TSRA=
202008200400 METAR VIDP 200400Z 11004KT 1000 R28/P2000 R29/P2000 -RA SCT020 FEW030CB OVC080 24/24 Q1003 TEMPO 0800 TSRA=
202008200330 METAR VIDP 200330Z 15006KT 1000 R28/P2000 R29/P2000 -RA SCT020 FEW030CB OVC080 25/24 Q1003 TEMPO 0800 TSRA=
202008200300 METAR VIDP 200300Z 14008KT 1000 R28/P2000 R29/P2000 -RA SCT020 FEW030CB OVC080 25/25 Q1002 TEMPO 0800 TSRA=
202008200230 METAR VIDP 200230Z 14006KT 1000 R28/P2000 R29/P2000 -RA SCT025 FEW035CB OVC080 25/25 Q1002 NOSIG=
202008200200 METAR VIDP 200200Z 12005KT 1000 R28/P2000 R29/P2000 SHRA SCT025 FEW035CB OVC080 25/25 Q1001 NOSIG=
202008200130 METAR VIDP 200130Z 10006KT 1000 R28/P2000 R29/P2000 SHRA SCT025 FEW035CB OVC080 25/25 Q1001 NOSIG=
202008200100 METAR VIDP 200100Z 09005KT 1000 R28/P2000 R29/P2000 -TSRA SCT025 FEW035CB OVC080 25/25 Q1001 NOSIG=
202008200030 METAR VIDP 200030Z 08005KT 1000 R28/P2000 R29/P2000 -TSRA SCT025 FEW035CB OVC080 25/25 Q1001 TEMPO 07010G20KT 0800 TSRA=
202008200000 METAR VIDP 200000Z 12004KT 1000 R28/P2000 R29/P2000 -TSRA SCT025 FEW035CB OVC080 25/25 Q1001 TEMPO 07010G20KT 0800 TSRA=
202008192330 METAR VIDP 192330Z 08008KT 0800 R28/P2000 R29/P2000 TSRA SCT025 FEW035CB OVC080 26/26 Q1000 TEMPO 07010G20KT 0800 TSRA=
202008192300 METAR VIDP 192300Z 10007KT 0500 R28/P2000 R29/0900 TSRA SCT030 FEW040CB OVC080 26/26 Q1001 TEMPO 07010G20KT 0800 TSRA=
202008192230 METAR VIDP 192230Z 09008KT 1000 R28/P2000 R29/P2000 TSRA SCT030 FEW040CB OVC080 27/26 Q1000 TEMPO 07010G20KT 0800 TSRA=
202008192200 METAR VIDP 192200Z 07006KT 1000 R28/P2000 R29/P2000 TS SCT030 FEW040CB OVC080 27/26 Q1000 TEMPO 0800 TSRA=
202008192130 METAR VIDP 192130Z 06006KT 1000 R28/P2000 R29/P2000 BR SCT030 FEW040CB OVC080 27/27 Q0999 TEMPO 0800 TSRA=
202008192100 METAR VIDP 192100Z 07006KT 1000 R28/P2000 R29/P2000 BR SCT030 FEW035CB OVC080 27/27 Q0999 TEMPO 0800 TSRA=
202008192030 METAR VIDP 192030Z 07004KT 1000 R28/P2000 R29/P2000 BR SCT030 FEW035CB OVC080 27/27 Q1001 TEMPO 0800 TSRA=
202008192000 METAR VIDP 192000Z 08004KT 1000 R28/P2000 R29/P2000 BR SCT030 FEW035CB BKN080 27/27 Q1000 NOSIG=
202008191930 METAR VIDP 191930Z 09004KT 1000 R28/P2000 R29/P2000 BR SCT030 FEW035CB BKN080 27/27 Q1001 NOSIG=
202008191900 METAR VIDP 191900Z 07005KT 1000 R28/P2000 R29/P2000 BR SCT030 FEW035CB BKN080 27/27 Q1001 NOSIG=
202008191830 METAR VIDP 191830Z 07004KT 1000 R28/P2000 R29/P2000 BR SCT030 BKN080 27/27 Q1001 NOSIG=
202008191800 METAR VIDP 191800Z 00000KT 1000 R28/P2000 R29/P2000 SCT030 BKN080 27/27 Q1001=
202008191730 METAR VIDP 191730Z 00000KT 1000 R28/P2000 R29/P2000 BR SCT030 BKN080 27/27 Q1001 NOSIG=
202008191700 METAR VIDP 191700Z 00000KT 1000 R28/P2000 R29/P2000 BR SCT030 BKN080 27/27 Q1000 NOSIG=
202008191630 METAR VIDP 191630Z 00000KT 1000 R28/P2000 R29/P2000 BR SCT030 BKN080 27/27 Q1000 NOSIG=
202008191600 METAR VIDP 191600Z 00000KT 1000 R28/P2000 R29/P2000 BR SCT030 OVC080 27/27 Q1000 NOSIG=
202008191530 METAR VIDP 191530Z 13005KT 1000 R28/P2000 R29/P2000 BR SCT030 OVC080 27/27 Q1000 NOSIG=
202008191500 METAR VIDP 191500Z 00000KT 1000 R28/P2000 R29/P2000 BR SCT030 OVC080 27/27 Q1000 NOSIG=
202008191430 METAR VIDP 191430Z 33004KT 1000 R28/P2000 R29/P2000 BR SCT030 OVC080 27/27 Q0999 NOSIG=
202008191400 METAR VIDP 191400Z 00000KT 1000 R28/P2000 R29/P2000 BR SCT030 OVC080 27/27 Q0999 NOSIG=
202008191330 METAR VIDP 191330Z 00000KT 1200 R28/P2000 R29/P2000 BR SCT030 OVC080 27/26 Q0998 NOSIG=
202008191300 METAR VIDP 191300Z 12003KT 1200 R28/P2000 R29/P2000 BR BKN030 OVC080 27/26 Q0998 NOSIG=
202008191230 METAR VIDP 191230Z 14007KT 1200 R28/P2000 R29/P2000 BR BKN025 OVC080 27/26 Q0997 NOSIG=
202008191200 METAR VIDP 191200Z 11005KT 1200 R28/P2000 R29/P2000 BR BKN020 FEW030CB OVC080 27/26 Q0998 NOSIG=
202008191130 METAR VIDP 191130Z 05005KT 1000 R28/P2000 R29/P2000 -RA BKN020 FEW030CB OVC080 27/26 Q0999 NOSIG=
202008191100 METAR VIDP 191100Z 09005KT 1000 R28/P2000 R29/P2000 -RA BKN020 FEW030CB OVC080 27/26 Q0999 TEMPO 23015G25KT 0800 TSRA=
202008191030 METAR VIDP 191030Z 09004KT 1000 R28/P2000 R29/P2000 RA BKN020 FEW030CB OVC080 27/26 Q0999 TEMPO 23015G25KT 0800 TSRA=
202008191000 METAR VIDP 191000Z 00000KT 1000 R28/P2000 R29/P2000 -RA BKN020 FEW030CB OVC080 26/26 Q0999 TEMPO 23015G25KT 0800 TSRA=
202008190930 METAR VIDP 190930Z 16007KT 1000 R28/P2000 R29/P2000 -RA BKN020 FEW030CB OVC080 26/26 Q0998 NOSIG=
202008190900 METAR VIDP 190900Z 09003KT 1200 R28/P2000 R29/P2000 -RA BKN020 FEW030CB OVC080 26/25 Q0999 NOSIG=
202008190830 METAR VIDP 190830Z 10004KT 1200 R28/P2000 R29/P2000 -RA BKN020 FEW030CB OVC080 25/25 Q0999 TEMPO 14008G18KT 0800 TSRA=
202008190800 METAR VIDP 190800Z 09007KT 1000 R28/P2000 R29/P2000 BR FEW010 BKN020 FEW025CB OVC080 25/25 Q1000 TEMPO 14008G18KT 1500 TSRA=
202008190730 METAR VIDP 190730Z 09007KT 1500 R28/P2000 R29/P2000 TSRA FEW010 BKN020 FEW025CB OVC080 25/25 Q1000 TEMPO 14008G18KT 0800 +TSRA=
202008190700 METAR VIDP 190700Z 12004KT 3000 -TSRA FEW010 BKN020 FEW025CB OVC080 25/25 Q1000 TEMPO 14008G18KT 1500 TSRA=
202008190630 METAR VIDP 190630Z 09005KT 3000 -TSRA FEW010 BKN020 FEW025CB OVC080 25/24 Q1000 TEMPO 14008G18KT 1500 TSRA=
202008190600 METAR VIDP 190600Z 00000KT 2800 DZ FEW010 BKN020 FEW025CB OVC080 25/24 Q1000 TEMPO 14008G18KT 1500 TSRA=
202008190530 METAR VIDP 190530Z 33004KT 2500 R28/2000 R29/2000 -TSRA FEW010 BKN020 FEW025CB OVC080 25/24 Q1000 TEMPO 14020G30KT 1500 TSRA=
202008190500 METAR VIDP 190500Z 15009KT 1200 R28/2000 R29/2000 TSRA FEW010 BKN020 FEW025CB OVC080 24/24 Q1000 TEMPO 14020G30KT 1500 TSRA=
202008190430 METAR VIDP 190430Z 20008G18KT 0500 R28/2000 R29/2000 +TSRA FEW010 BKN020 FEW025CB OVC080 25/24 Q1000 TEMPO 14020G30KT 0350 +TSRA=
202008190400 METAR VIDP 190400Z 20008G18KT 1000 R28/2000 R29/2000 RA FEW010 BKN020 FEW025CB OVC080 25/25 Q1000 TEMPO 14008G18KT 0800 TSRA=
202008190330 METAR VIDP 190330Z 20009KT 1000 R28/2000 R29/2000 +RA FEW010 BKN020 FEW025CB OVC080 27/25 Q0999 TEMPO 0800 +TSRA=
202008190300 METAR VIDP 190300Z 16005KT 2200 DZ BKN020 FEW025CB BKN080 28/27 Q0999 TEMPO 1500 TSRA=
202008190230 METAR VIDP 190230Z 17004KT 2500 DZ SCT030 FEW035CB BKN100 28/27 Q0999 TEMPO TS=
202008190200 METAR VIDP 190200Z 18004KT 2800 -DZ SCT030 FEW035CB BKN100 28/27 Q0999 TEMPO TS=
202008190130 METAR VIDP 190130Z 15006KT 2800 BR SCT030 FEW035CB BKN100 28/27 Q0999 TEMPO TS=
202008190100 METAR VIDP 190100Z 15006KT 3000 BR SCT030 FEW035CB BKN100 28/27 Q0998 TEMPO TS=
202008190030 METAR VIDP 190030Z 13005KT 3200 BR SCT030 FEW035CB BKN100 28/26 Q0998 BECMG 3000 BR=
202008190000 METAR VIDP 190000Z 00000KT 3500 BR FEW030 SCT100 28/26 Q0998 NOSIG=
202008182330 METAR VIDP 182330Z 00000KT 3500 BR SCT100 28/26 Q0998 NOSIG=
202008182300 METAR VIDP 182300Z 00000KT 3500 BR SCT100 28/26 Q0998 NOSIG=
202008182230 METAR VIDP 182230Z 00000KT 3500 BR FEW030 SCT100 28/26 Q0997 NOSIG=
202008182200 METAR VIDP 182200Z 23003KT 3500 BR FEW030 SCT100 28/26 Q0997 NOSIG=
202008182130 METAR VIDP 182130Z 00000KT 3500 BR FEW030 SCT100 28/26 Q0997 NOSIG=
202008182100 METAR VIDP 182100Z 00000KT 3500 BR FEW030 SCT100 28/26 Q0998 NOSIG=
202008182030 METAR VIDP 182030Z 00000KT 3500 BR FEW030 SCT100 28/26 Q0998 NOSIG=
202008182000 METAR VIDP 182000Z 19003KT 3500 BR FEW030 SCT100 28/26 Q0999 NOSIG=
202008181930 METAR VIDP 181930Z 17004KT 3500 BR FEW030 SCT100 28/26 Q0999 NOSIG=
202008181900 METAR VIDP 181900Z 00000KT 3500 BR FEW030 SCT100 28/26 Q0999 NOSIG=
202008181830 METAR VIDP 181830Z 00000KT 3500 BR FEW030 SCT100 28/26 Q0999 NOSIG=
202008181800 METAR VIDP 181800Z 00000KT 3500 BR FEW030 SCT100 28/26 Q0999 NOSIG=
202008181730 METAR VIDP 181730Z 00000KT 3500 BR FEW030 SCT100 28/26 Q0999 NOSIG=
202008181700 METAR VIDP 181700Z 30004KT 3500 BR FEW030 SCT100 28/26 Q1000 NOSIG=
202008181630 METAR VIDP 181630Z 30004KT 3500 BR FEW030 SCT100 28/26 Q1000 NOSIG=
202008181600 METAR VIDP 181600Z 27003KT 4000 BR FEW030 FEW035CB SCT100 28/26 Q1000 NOSIG=
202008181530 METAR VIDP 181530Z 25003KT 4000 BR FEW030 FEW035CB SCT100 28/26 Q0999 NOSIG=
202008181500 METAR VIDP 181500Z 22003KT 4500 BR FEW030 FEW035CB SCT100 28/26 Q0999 NOSIG=
202008181430 METAR VIDP 181430Z 24004KT 4500 BR FEW030 FEW035CB SCT100 27/26 Q0998 NOSIG=
202008181400 METAR VIDP 181400Z 24004KT 4500 BR FEW030 FEW035CB SCT100 28/26 Q0998 NOSIG=
202008181330 METAR VIDP 181330Z 23003KT 4500 BR FEW030 FEW035CB SCT100 28/26 Q0998 NOSIG=
202008181300 METAR VIDP 181300Z 25003KT 4500 BR FEW030 FEW035CB SCT100 28/26 Q0998 NOSIG=
202008181230 METAR VIDP 181230Z 24003KT 4500 BR FEW030 FEW035CB SCT100 28/25 Q0997 NOSIG=
202008181200 METAR VIDP 181200Z 26006KT 4000 BR FEW030 FEW035CB SCT100 28/25 Q0997 NOSIG=
202008181130 METAR VIDP 181130Z 25007KT 3500 BR SCT025 FEW030CB BKN080 29/26 Q0997 NOSIG=
202008181100 METAR VIDP 181100Z 24003KT 2800 BR SCT025 FEW030CB BKN080 29/27 Q0997 BECMG 3000 BR=
202008181030 METAR VIDP 181030Z 23004KT 2800 BR SCT025 FEW030CB BKN080 29/27 Q0997 TEMPO 23015G25KT 1500 TSRA=
202008181000 METAR VIDP 181000Z 23009KT 2200 BR SCT020 FEW025CB BKN080 29/28 Q0998 TEMPO 23015G25KT 1500 TSRA=
202008180930 METAR VIDP 180930Z 23008KT 1300 R28/2000 R29/2000 -RA SCT020 FEW025CB BKN080 29/28 Q0998 TEMPO 23015G25KT 1500 TSRA=
202008180900 METAR VIDP 180900Z 27008G18KT 1000 R28/2000 R29/2000 RA SCT020 FEW025CB BKN080 28/27 Q0999 TEMPO 23015G25KT 0800 TSRA=
202008180830 METAR VIDP 180830Z 27009G19KT 1000 R28/2000 R29/2000 -RA SCT020 FEW025CB BKN080 32/28 Q0999 TEMPO 23008G18KT 1500 TSRA=
202008180800 METAR VIDP 180800Z 13005KT 3500 HZ SCT030 FEW035CB BKN090 34/28 Q0999 TEMPO 23008G18KT 1500 TSRA=
202008180730 METAR VIDP 180730Z 13004KT 3500 HZ SCT030 FEW035CB BKN090 34/28 Q0999 TEMPO 23008G18KT 1500 TSRA=
202008180700 METAR VIDP 180700Z 14004KT 3500 HZ SCT030 FEW035CB BKN090 33/28 Q0999 TEMPO 23008G18KT 1500 TSRA=
202008180630 METAR VIDP 180630Z 14005KT 3500 -RA SCT035 FEW040CB BKN090 33/28 Q0999 NOSIG=
202008180600 METAR VIDP 180600Z 14004KT 3500 HZ SCT035 FEW040CB BKN100 33/28 Q1000 NOSIG=
202008180530 METAR COR VIDP 180530Z 15004KT 3500 HZ SCT035 FEW040CB BKN100 33/28 Q1000 NOSIG=
202008180500 METAR VIDP 180500Z 17004KT 2800 HZ SCT035 FEW040CB BKN100 33/28 Q1001 BECMG 3000 HZ=
202008180430 METAR VIDP 180430Z 18005KT 2500 BR SCT035 BKN100 32/28 Q1001 NOSIG=
202008180400 METAR VIDP 180400Z 16004KT 2500 BR SCT035 BKN100 32/28 Q1001 NOSIG=
202008180330 METAR VIDP 180330Z 16004KT 2500 BR SCT035 BKN100 32/28 Q1001 NOSIG=
202008180300 METAR VIDP 180300Z 12004KT 2200 BR SCT035 BKN100 32/28 Q1000 NOSIG=
202008180230 METAR VIDP 180230Z 11004KT 2200 BR SCT035 FEW040CB BKN100 31/28 Q1000 NOSIG=
202008180200 METAR VIDP 180200Z 15004KT 2100 BR SCT035 BKN100 29/28 Q1000 NOSIG=
202008180130 METAR VIDP 180130Z 14004KT 2100 BR SCT030 BKN100 29/28 Q0999 NOSIG=
202008180100 METAR VIDP 180100Z 11004KT 2300 BR BKN020 FEW030CB OVC080 29/27 Q0999 NOSIG=
202008180030 METAR COR VIDP 180030Z 14003KT 2300 BR BKN020 FEW030CB OVC080 29/27 Q0999 NOSIG=
202008180000 METAR VIDP 180000Z 16004KT 2500 BR SCT030 FEW040CB BKN080 29/27 Q0999 NOSIG=
202008172330 METAR VIDP 172330Z 14005KT 2500 BR SCT030 BKN080 29/27 Q0999 NOSIG=
202008172300 METAR VIDP 172300Z 15003KT 2500 BR SCT030 BKN080 29/27 Q1000 NOSIG=
202008172230 METAR VIDP 172230Z 11003KT 2500 BR SCT030 BKN080 29/27 Q1000 NOSIG=
202008172200 METAR VIDP 172200Z 11003KT 2500 BR SCT030 BKN080 29/27 Q1000 NOSIG=
202008172130 METAR VIDP 172130Z 09003KT 2500 BR FEW030 SCT100 28/27 Q1000 NOSIG=
202008172100 METAR VIDP 172100Z 09004KT 2500 BR FEW030 SCT100 28/27 Q1000 NOSIG=
202008172030 METAR VIDP 172030Z 10004KT 2500 BR FEW030 SCT100 28/27 Q1000 NOSIG=
202008172000 METAR VIDP 172000Z 00000KT 2500 BR FEW030 SCT100 28/27 Q1000 NOSIG=
202008171930 METAR VIDP 171930Z 00000KT 2500 BR SCT030 SCT090 28/27 Q1000 NOSIG=
202008171900 METAR VIDP 171900Z 00000KT 2500 BR SCT030 BKN090 28/27 Q1000 NOSIG=
202008171830 METAR VIDP 171830Z 00000KT 2200 BR SCT030 BKN090 28/27 Q1000 NOSIG=
202008171800 METAR VIDP 171800Z 00000KT 2200 BR SCT030 BKN090 28/27 Q1000 NOSIG=
202008171730 METAR VIDP 171730Z 00000KT 2200 BR SCT030 BKN090 28/27 Q1000 NOSIG=
202008171700 METAR VIDP 171700Z 00000KT 2200 BR SCT030 BKN090 28/27 Q0999 NOSIG=
202008171630 METAR VIDP 171630Z 12003KT 2200 BR SCT030 FEW040CB BKN080 28/27 Q0999 NOSIG=
202008171600 METAR VIDP 171600Z 12004KT 2200 BR SCT030 FEW040CB BKN080 28/27 Q0999 NOSIG=
202008171530 METAR VIDP 171530Z 12004KT 2200 BR SCT030 FEW040CB BKN080 28/27 Q0999 NOSIG=
202008171500 METAR VIDP 171500Z 09004KT 2200 BR SCT030 FEW040CB BKN080 28/27 Q0999 NOSIG=
202008171430 METAR COR VIDP 171430Z 09004KT 2200 BR SCT030 FEW035CB BKN080 28/26 Q0998 NOSIG=
202008171400 METAR VIDP 171400Z 08004KT 2200 BR SCT030 FEW035CB BKN080 29/27 Q0998 NOSIG=
202008171330 METAR VIDP 171330Z 08003KT 2200 BR SCT030 FEW035CB BKN080 29/27 Q0997 NOSIG=
202008171300 METAR VIDP 171300Z 07004KT 2200 BR SCT030 FEW035CB BKN080 29/27 Q0997 NOSIG=
202008171230 METAR VIDP 171230Z 05004KT 2200 BR SCT030 FEW035CB BKN080 29/27 Q0997 NOSIG=
202008171200 METAR VIDP 171200Z 06004KT 2200 BR SCT030 FEW035CB OVC080 29/27 Q0997 TEMPO 1500 TSRA=
202008171130 METAR VIDP 171130Z 03005KT 2500 -RA SCT030 FEW035CB OVC080 29/28 Q0998 TEMPO 1500 TSRA=
202008171100 METAR VIDP 171100Z 04005KT 2500 -TSRA SCT030 FEW035CB OVC080 30/28 Q0998 TEMPO 1500 TSRA=
202008171030 METAR VIDP 171030Z 34006KT 3000 HZ SCT030 FEW035CB BKN080 32/27 Q0997 TEMPO 1500 TSRA=
202008171000 METAR VIDP 171000Z 15004KT 3000 HZ SCT030 FEW035CB BKN080 34/28 Q0997 TEMPO 1500 TSRA=
202008170930 METAR VIDP 170930Z 14004KT 4000 HZ SCT030 FEW035CB BKN100 34/27 Q0997 TEMPO 1500 TSRA=
202008170900 METAR VIDP 170900Z 15005KT 4000 HZ SCT030 FEW035CB BKN100 34/27 Q0998 TEMPO 1500 TSRA=
202008170830 METAR VIDP 170830Z 13005KT 4000 HZ SCT030 FEW035CB BKN100 34/27 Q0998 NOSIG=
202008170630 METAR VIDP 170630Z 18006KT 3500 HZ SCT030 BKN100 34/27 Q0999 NOSIG=
202008170600 METAR VIDP 170600Z 16007KT 3500 HZ SCT030 BKN100 33/27 Q0999 NOSIG=
202008170530 METAR VIDP 170530Z 15007KT 3500 HZ SCT030 BKN100 33/28 Q1000 NOSIG=
202008170500 METAR VIDP 170500Z 16007KT 3000 HZ SCT030 BKN100 33/28 Q1000 NOSIG=
202008170430 METAR VIDP 170430Z 15007KT 2800 HZ SCT030 BKN100 33/28 Q1000 BECMG 3000 HZ=
202008170400 METAR VIDP 170400Z 14007KT 2500 BR SCT030 BKN100 32/28 Q1000 NOSIG=
202008170330 METAR VIDP 170330Z 12008KT 2500 BR SCT030 BKN100 32/28 Q1000 NOSIG=
202008170300 METAR VIDP 170300Z 14004KT 2200 BR SCT030 BKN100 31/28 Q1000 NOSIG=
202008170230 METAR VIDP 170230Z 13006KT 2200 BR SCT030 BKN100 30/28 Q0999 NOSIG=
202008170200 METAR VIDP 170200Z 14006KT 2200 BR SCT030 BKN100 30/28 Q0999 NOSIG=
202008170030 METAR VIDP 170030Z 13004KT 2500 BR SCT030 BKN100 29/28 Q0998 NOSIG=
202008170000 METAR VIDP 170000Z 11004KT 2500 BR SCT030 BKN100 28/28 Q0998 NOSIG=
202008162330 METAR VIDP 162330Z 11004KT 2500 BR SCT030 BKN100 29/28 Q0998 NOSIG=
202008162300 METAR VIDP 162300Z 11004KT 2500 BR SCT030 FEW035CB BKN100 29/28 Q0998 NOSIG=
202008162230 METAR VIDP 162230Z 10004KT 2500 BR SCT030 FEW035CB BKN100 29/28 Q0998 NOSIG=
202008162200 METAR VIDP 162200Z 09003KT 2800 BR FEW030 FEW035CB SCT100 29/28 Q0998 NOSIG=
202008162130 METAR VIDP 162130Z 10003KT 2800 BR FEW030 SCT100 29/28 Q0998 NOSIG=
202008162100 METAR VIDP 162100Z 10003KT 2800 BR FEW030 SCT100 29/28 Q0998 NOSIG=
202008162030 METAR VIDP 162030Z 00000KT 2800 BR FEW030 SCT100 29/28 Q0998 NOSIG=
202008162000 METAR VIDP 162000Z 11003KT 2800 BR FEW030 SCT100 29/28 Q0998 NOSIG=
202008161930 METAR VIDP 161930Z 09003KT 2800 BR FEW030 SCT100 29/28 Q0999 NOSIG=
202008161900 METAR VIDP 161900Z 09003KT 2800 BR FEW030 SCT100 29/28 Q0999 NOSIG=
202008161830 METAR VIDP 161830Z 11003KT 3200 BR FEW030 SCT100 30/28 Q0999 BECMG 3000 BR=
202008161800 METAR VIDP 161800Z 12003KT 3200 BR FEW030 SCT100 30/28 Q0999 NOSIG=
202008161730 METAR VIDP 161730Z 13005KT 3500 BR FEW030 SCT100 30/28 Q0999 NOSIG=
202008161700 METAR VIDP 161700Z 11004KT 3500 BR FEW030 FEW035CB SCT100 30/27 Q0999 NOSIG=
202008161630 METAR VIDP 161630Z 12004KT 3500 BR FEW030 FEW035CB SCT100 30/27 Q0999 NOSIG=
202008161600 METAR VIDP 161600Z 11005KT 3500 BR FEW030 FEW035CB SCT100 30/27 Q0999 NOSIG=
202008161530 METAR VIDP 161530Z 10005KT 3500 BR FEW030 FEW035CB SCT100 30/27 Q0999 NOSIG=
202008161500 METAR VIDP 161500Z 10005KT 3500 BR FEW030 FEW035CB SCT100 31/27 Q0998 NOSIG=
202008161430 METAR VIDP 161430Z 11005KT 3500 BR SCT030 FEW040CB BKN100 31/27 Q0998 NOSIG=
202008161400 METAR VIDP 161400Z 11005KT 3500 HZ SCT030 BKN100 32/27 Q0998 NOSIG=
202008161330 METAR VIDP 161330Z 10005KT 3500 HZ SCT030 FEW040CB BKN100 32/27 Q0997 NOSIG=
202008161300 METAR VIDP 161300Z 10004KT 3500 HZ SCT030 FEW040CB BKN100 32/27 Q0997 NOSIG=
202008161230 METAR VIDP 161230Z 11007KT 4000 HZ SCT030 FEW040CB BKN100 33/27 Q0996 NOSIG=
202008161200 METAR VIDP 161200Z 10006KT 4500 HZ SCT030 FEW040CB BKN100 34/27 Q0996 NOSIG=
202008161130 METAR COR VIDP 161130Z 09006KT 4500 HZ SCT030 FEW040CB BKN100 34/27 Q0996 NOSIG=
202008161100 METAR COR VIDP 161100Z 12005KT 4500 HZ SCT030 FEW040CB BKN100 35/27 Q0996 NOSIG=
202008161030 METAR VIDP 161030Z 13005KT 4500 HZ SCT030 FEW040CB BKN100 35/27 Q0996 TEMPO 09015G25KT 1500 TSRA=
202008161000 METAR VIDP 161000Z 15005KT 4000 HZ SCT030 FEW040CB BKN100 35/27 Q0997 TEMPO 09015G25KT 1500 TSRA=
202008160930 METAR VIDP 160930Z 12007KT 4000 HZ SCT030 FEW040CB BKN080 35/27 Q0997 NOSIG=
202008160900 METAR VIDP 160900Z 14006KT 3500 HZ SCT030 FEW040CB BKN080 35/27 Q0997 NOSIG=
202008160830 METAR VIDP 160830Z 12005KT 3000 HZ SCT030 FEW040CB BKN080 34/27 Q0998 NOSIG=
202008160800 METAR VIDP 160800Z 11005KT 3000 HZ SCT030 FEW040CB BKN080 34/27 Q0998 NOSIG=
202008160730 METAR VIDP 160730Z 11005KT 3000 HZ SCT030 FEW040CB BKN080 33/27 Q0998 NOSIG=
202008160700 METAR VIDP 160700Z 12006KT 3000 BR SCT030 FEW040CB BKN080 32/28 Q0998 NOSIG=
202008160630 METAR VIDP 160630Z 12006KT 3000 BR SCT030 FEW040CB BKN080 31/27 Q0999 NOSIG=
202008160600 METAR VIDP 160600Z 12006KT 3000 BR SCT030 FEW040CB BKN080 32/27 Q0999 NOSIG=
202008160530 METAR VIDP 160530Z 14005KT 3000 HZ SCT030 BKN080 32/26 Q0999 NOSIG=
202008160500 METAR VIDP 160500Z 12003KT 3000 HZ SCT030 BKN080 32/26 Q1000 NOSIG=
202008160430 METAR VIDP 160430Z 00000KT 3000 HZ SCT030 BKN100 32/27 Q1000 NOSIG=
202008160400 METAR VIDP 160400Z 14004KT 2800 BR SCT030 BKN100 31/26 Q1000 BECMG 3000 BR=
202008160330 METAR VIDP 160330Z 15004KT 2500 BR SCT030 BKN100 30/26 Q0999 NOSIG=
202008160300 METAR VIDP 160300Z 11004KT 2500 BR SCT030 FEW040CB BKN080 28/26 Q0999 NOSIG=
202008160230 METAR VIDP 160230Z 14004KT 2500 BR SCT030 FEW040CB BKN080 28/26 Q0999 TEMPO 12008G18KT 1500 TSRA=
202008160200 METAR VIDP 160200Z 10004KT 2500 BR SCT030 FEW040CB BKN100 28/26 Q0999 TEMPO 12008G18KT 1500 TSRA=
202008160130 METAR VIDP 160130Z 08004KT 2500 BR SCT030 FEW040CB BKN100 28/26 Q0999 TEMPO 12008G18KT 1500 TSRA=
202008160100 METAR VIDP 160100Z 10005KT 2000 BR SCT030 FEW040CB BKN100 28/26 Q0999 TEMPO 12008G18KT 1500 TSRA=
202008160030 METAR VIDP 160030Z 11005KT 2000 BR SCT030 FEW040CB BKN100 28/27 Q0999 TEMPO 12008G18KT 1500 TSRA=
202008160000 METAR VIDP 160000Z 11005KT 2500 BR SCT030 FEW040CB BKN100 28/27 Q0998 TEMPO 12008G18KT 1500 TSRA=
202008152330 METAR VIDP 152330Z 11004KT 2500 BR SCT030 FEW040CB BKN100 28/27 Q0998 NOSIG=
202008152300 METAR VIDP 152300Z 10004KT 2500 BR SCT030 FEW040CB BKN100 28/27 Q0998 NOSIG=
202008152230 METAR VIDP 152230Z 07004KT 2500 BR SCT030 FEW040CB BKN100 28/27 Q0998 NOSIG=
202008152200 METAR VIDP 152200Z 10004KT 3000 BR SCT030 FEW040CB BKN100 28/27 Q0998 NOSIG=
202008152130 METAR VIDP 152130Z 12004KT 3000 BR SCT030 FEW040CB BKN100 28/27 Q0998 NOSIG=
202008152100 METAR VIDP 152100Z 11004KT 3000 BR SCT030 FEW040CB BKN100 28/27 Q0998 NOSIG=
202008152030 METAR VIDP 152030Z 11005KT 3000 BR SCT030 FEW040CB BKN100 28/27 Q0998 NOSIG=
202008152000 METAR VIDP 152000Z 13005KT 3000 BR SCT030 BKN100 28/27 Q0998 NOSIG=
202008151930 METAR VIDP 151930Z 12005KT 3000 BR SCT030 BKN100 28/27 Q0998 NOSIG=
202008151900 METAR VIDP 151900Z 11004KT 3000 BR SCT030 BKN100 28/27 Q0999 NOSIG=
202008151830 METAR VIDP 151830Z 09004KT 3000 BR SCT030 BKN100 28/27 Q0999 NOSIG=
202008151800 METAR VIDP 151800Z 11004KT 3000 BR SCT030 BKN100 28/27 Q0999 NOSIG=
202008151730 METAR VIDP 151730Z 12003KT 3000 BR SCT030 BKN100 29/27 Q0999 NOSIG=
202008151700 METAR VIDP 151700Z 11003KT 3000 BR SCT030 BKN100 29/27 Q0998 NOSIG=
202008151630 METAR VIDP 151630Z 12005KT 3500 BR SCT030 BKN100 29/27 Q0998 NOSIG=
202008151600 METAR VIDP 151600Z 13004KT 3500 BR SCT030 BKN100 30/27 Q0998 NOSIG=
202008151530 METAR VIDP 151530Z 13005KT 3500 BR SCT030 BKN100 30/27 Q0998 NOSIG=
202008151500 METAR VIDP 151500Z 14005KT 3500 BR SCT030 FEW040CB BKN100 30/26 Q0997 NOSIG=
202008151430 METAR VIDP 151430Z 14004KT 3500 HZ SCT030 FEW040CB BKN100 30/25 Q0997 NOSIG=
202008151400 METAR VIDP 151400Z 12005KT 3500 HZ SCT030 FEW040CB BKN100 30/25 Q0997 NOSIG=
202008151330 METAR VIDP 151330Z 12006KT 4000 HZ SCT030 FEW040CB BKN100 31/26 Q0997 NOSIG=
202008151300 METAR VIDP 151300Z 13006KT 4000 HZ SCT030 FEW040CB BKN100 31/26 Q0996 NOSIG=
202008151230 METAR VIDP 151230Z 14006KT 4000 HZ SCT030 SCT100 32/26 Q0996 NOSIG=
202008151200 METAR VIDP 151200Z 11006KT 5000 HZ SCT030 SCT100 33/27 Q0996 NOSIG=
202008151130 METAR VIDP 151130Z 12008KT 5000 HZ SCT030 SCT100 33/27 Q0996 NOSIG=
202008151100 METAR VIDP 151100Z 12008KT 4500 HZ SCT030 FEW035CB SCT090 33/27 Q0996 BECMG 5000 HZ=
202008151030 METAR VIDP 151030Z 11006KT 4000 HZ SCT030 FEW035CB SCT100 33/27 Q0996 NOSIG=
202008151000 METAR VIDP 151000Z 11007KT 4000 HZ SCT030 FEW035CB SCT090 33/27 Q0996 NOSIG=
202008150930 METAR COR VIDP 150930Z 10006KT 4000 HZ SCT030 FEW035CB SCT090 33/27 Q0996 NOSIG=
202008150900 METAR VIDP 150900Z 09007KT 4000 HZ SCT030 FEW035CB BKN090 33/27 Q0997 NOSIG=
202008150830 METAR VIDP 150830Z 10006KT 4000 HZ SCT025 FEW035CB BKN090 33/27 Q0997 NOSIG=
202008150800 METAR VIDP 150800Z 11007KT 4000 HZ SCT025 FEW035CB BKN090 33/27 Q0997 NOSIG=
202008150730 METAR VIDP 150730Z 10008KT 4000 HZ SCT025 FEW035CB BKN090 34/27 Q0998 NOSIG=
202008150700 METAR VIDP 150700Z 12008KT 3500 HZ FEW020 SCT025 BKN100 33/27 Q0998 NOSIG=
202008150630 METAR VIDP 150630Z 11007KT 3500 HZ FEW020 SCT025 BKN100 32/27 Q0998 NOSIG=
202008150600 METAR COR VIDP 150600Z 10009KT 3500 HZ FEW020 SCT025 BKN100 32/27 Q0998 NOSIG=
202008150530 METAR VIDP 150530Z 10005KT 3000 HZ FEW020 SCT025 BKN100 32/27 Q0998 NOSIG=
202008150500 METAR VIDP 150500Z 12005KT 2800 BR FEW020 SCT025 BKN100 31/27 Q0998 BECMG 3000 HZ=
202008150430 METAR VIDP 150430Z 10006KT 2600 BR FEW010 SCT020 BKN100 31/27 Q0998 NOSIG=
202008150400 METAR VIDP 150400Z 10006KT 2000 R28/P2000 R29/P2000 BR FEW010 SCT020 BKN100 29/27 Q0998 NOSIG=
202008150330 METAR VIDP 150330Z 11006KT 2000 R28/P2000 R29/P2000 BR FEW010 SCT020 BKN100 29/27 Q0998 NOSIG=
202008150300 METAR VIDP 150300Z 10005KT 2000 R28/P2000 R29/P2000 BR FEW010 SCT020 BKN100 29/27 Q0998 NOSIG=
202008150230 METAR VIDP 150230Z 10005KT 1800 R28/1800 R29/P2000 BR FEW010 SCT020 BKN100 29/27 Q0997 NOSIG=
202008150200 METAR VIDP 150200Z 09004KT 2200 BR FEW010 SCT020 BKN100 29/27 Q0998 NOSIG=
202008150130 METAR VIDP 150130Z 10003KT 1800 R28/1800 R29/P2000 BR FEW030 SCT100 28/27 Q0998 NOSIG=
202008150100 METAR VIDP 150100Z 10004KT 2200 BR SCT030 BKN100 27/26 Q0997 NOSIG=
202008150030 METAR VIDP 150030Z 00000KT 2500 BR SCT030 BKN100 27/26 Q0997 NOSIG=
202008150000 METAR VIDP 150000Z 00000KT 2500 BR SCT030 BKN100 27/26 Q0997 NOSIG=
202008142330 METAR VIDP 142330Z 10005KT 2500 BR SCT030 BKN100 27/26 Q0996 NOSIG=
202008142300 METAR VIDP 142300Z 10005KT 2500 BR SCT030 BKN100 28/27 Q0996 NOSIG=
202008142230 METAR VIDP 142230Z 11005KT 2500 BR SCT030 BKN100 28/27 Q0996 NOSIG=
202008142200 METAR VIDP 142200Z 12004KT 2500 BR SCT030 BKN100 28/27 Q0996 NOSIG=
202008142130 METAR VIDP 142130Z 11004KT 2500 BR SCT030 BKN100 29/27 Q0996 NOSIG=
202008142100 METAR VIDP 142100Z 10004KT 2500 BR SCT030 BKN100 29/27 Q0996 NOSIG=
202008142030 METAR VIDP 142030Z 10003KT 2500 BR SCT030 BKN100 29/27 Q0997 NOSIG=
202008142000 METAR VIDP 142000Z 09004KT 2500 BR SCT030 BKN100 29/27 Q0997 NOSIG=
202008141930 METAR VIDP 141930Z 09005KT 2500 BR SCT030 SCT100 29/27 Q0997 NOSIG=
202008141900 METAR VIDP 141900Z 10005KT 2500 BR SCT030 BKN100 29/27 Q0998 NOSIG=
202008141830 METAR VIDP 141830Z 00000KT 2500 BR SCT030 SCT100 28/27 Q0998 NOSIG=
202008141800 METAR VIDP 141800Z 00000KT 2500 BR SCT030 SCT100 28/27 Q0998 NOSIG=
202008141730 METAR VIDP 141730Z 08003KT 2500 BR SCT030 SCT100 28/27 Q0998 NOSIG=
202008141700 METAR VIDP 141700Z 09003KT 2500 BR SCT030 SCT100 28/27 Q0998 NOSIG=
202008141630 METAR VIDP 141630Z 07004KT 2500 BR SCT030 SCT100 29/27 Q0998 NOSIG=
202008141600 METAR VIDP 141600Z 06003KT 2500 BR SCT030 SCT100 29/27 Q0997 NOSIG=
202008141530 METAR VIDP 141530Z 06004KT 2500 BR SCT030 SCT100 29/27 Q0997 NOSIG=
202008141500 METAR VIDP 141500Z 05004KT 2500 BR SCT030 SCT100 29/27 Q0997 NOSIG=
202008141430 METAR VIDP 141430Z 05004KT 2500 BR SCT030 SCT100 29/27 Q0996 NOSIG=
202008141400 METAR VIDP 141400Z 05005KT 2500 BR SCT030 BKN090 30/27 Q0996 NOSIG=
202008141330 METAR VIDP 141330Z 05004KT 2800 BR SCT025 BKN080 30/27 Q0996 NOSIG=
202008141300 METAR VIDP 141300Z 06004KT 3200 BR SCT025 FEW030CB BKN080 30/27 Q0995 BECMG 3000 BR=
202008141230 METAR VIDP 141230Z 06005KT 3200 BR BKN025 FEW030CB OVC080 30/27 Q0995 NOSIG=
202008141200 METAR VIDP 141200Z 07003KT 3200 BR BKN025 FEW030CB OVC080 29/27 Q0995 NOSIG=
202008141130 METAR VIDP 141130Z 09005KT 3500 -RA BKN030 FEW035CB OVC090 31/26 Q0995 TEMPO 15010G20KT 1000 TSRA=
202008141100 METAR VIDP 141100Z 08005KT 3500 HZ BKN030 FEW035CB OVC090 31/26 Q0996 TEMPO 15010G20KT 1000 TSRA=
202008141030 METAR VIDP 141030Z 06007KT 3500 HZ BKN030 FEW035CB OVC090 31/26 Q0996 TEMPO 15010G20KT 1000 TSRA=
202008141000 METAR VIDP 141000Z 07007KT 3500 HZ BKN030 FEW035CB OVC090 31/26 Q0996 TEMPO 15010G20KT 1000 TSRA=
202008140930 METAR VIDP 140930Z 08007KT 3500 HZ BKN030 FEW035CB OVC090 31/26 Q0996 TEMPO 15010G20KT 1000 TSRA=
202008140900 METAR VIDP 140900Z 07006KT 3500 HZ BKN030 FEW035CB OVC090 31/26 Q0997 NOSIG=
202008140830 METAR VIDP 140830Z 09006KT 3000 HZ BKN030 FEW035CB OVC090 31/26 Q0997 NOSIG=
202008140800 METAR VIDP 140800Z 09006KT 3000 HZ BKN030 FEW035CB OVC090 31/26 Q0998 NOSIG=
202008140730 METAR VIDP 140730Z 09007KT 2800 HZ BKN030 FEW035CB OVC090 31/26 Q0998 BECMG 3000 HZ=
202008140700 METAR VIDP 140700Z 10008KT 2500 BR BKN025 FEW035CB OVC080 31/27 Q0998 NOSIG=
202008140630 METAR VIDP 140630Z 10010KT 2500 BR BKN025 OVC080 31/26 Q0998 NOSIG=
202008140600 METAR VIDP 140600Z 10009KT 2200 BR BKN025 OVC080 30/26 Q0998 NOSIG=
202008140530 METAR VIDP 140530Z 09009KT 1800 R28/P2000 R29/P2000 BR BKN020 OVC080 29/26 Q0999 NOSIG=
202008140500 METAR VIDP 140500Z 10007KT 1500 R28/P2000 R29/P2000 BR FEW015 BKN025 OVC080 29/27 Q0999 NOSIG=
202008140430 METAR VIDP 140430Z 08007KT 1500 R28/P2000 R29/P2000 BR FEW015 BKN025 FEW035CB OVC080 28/27 Q0999 NOSIG=
202008140400 METAR VIDP 140400Z 08007KT 1500 R28/P2000 R29/P2000 BR FEW015 BKN025 FEW035CB OVC080 28/27 Q0999 NOSIG=
202008140330 METAR VIDP 140330Z 07005KT 1200 R28/P2000 R29/P2000 BR FEW015 BKN025 FEW035CB OVC080 27/27 Q0999 NOSIG=
202008140300 METAR VIDP 140300Z 09007KT 1200 R28/P2000 R29/P2000 BR FEW015 BKN025 OVC080 27/27 Q0998 NOSIG=
202008140230 METAR VIDP 140230Z 09005KT 1200 R28/1900 R29/P2000 BR FEW015 BKN025 OVC080 27/27 Q0998 NOSIG=
202008140200 METAR VIDP 140200Z 08004KT 1800 R28/P2000 R29/P2000 RA FEW015 BKN025 OVC080 27/26 Q0998 NOSIG=
202008140130 METAR VIDP 140130Z 08004KT 2200 BR SCT030 BKN090 27/26 Q0998 NOSIG=
202008140100 METAR VIDP 140100Z 09005KT 2200 BR SCT030 BKN090 27/26 Q0997 NOSIG=
202008140030 METAR VIDP 140030Z 09005KT 2200 BR SCT030 BKN090 27/26 Q0997 NOSIG=
202008140000 METAR VIDP 140000Z 08003KT 2000 R28/P2000 R29/P2000 BR SCT025 BKN090 26/26 Q0996 NOSIG=
202008132330 METAR VIDP 132330Z 08003KT 1800 R28/P2000 R29/P2000 BR SCT025 BKN090 26/26 Q0996 BECMG 1500 BR=
202008132300 METAR VIDP 132300Z 09004KT 1800 R28/P2000 R29/P2000 BR SCT025 BKN090 26/26 Q0996 BECMG 1500 BR=
202008132230 METAR VIDP 132230Z 08003KT 2500 BR SCT030 BKN090 27/26 Q0996 NOSIG=
202008132200 METAR VIDP 132200Z 10005KT 3000 BR SCT030 BKN090 27/26 Q0997 NOSIG=
202008132130 METAR VIDP 132130Z 09005KT 3000 BR SCT030 BKN090 27/26 Q0997 NOSIG=
202008132100 METAR VIDP 132100Z 09004KT 3000 BR SCT030 BKN090 27/26 Q0997 NOSIG=
202008132030 METAR VIDP 132030Z 09005KT 3000 BR SCT030 BKN090 27/26 Q0997 NOSIG=
202008132000 METAR VIDP 132000Z 08005KT 3000 BR SCT030 BKN090 27/26 Q0997 NOSIG=
202008131930 METAR VIDP 131930Z 07004KT 3000 BR SCT030 BKN090 28/26 Q0997 NOSIG=
202008131900 METAR VIDP 131900Z 03004KT 3000 BR SCT030 BKN090 27/26 Q0998 NOSIG=
202008131830 METAR VIDP 131830Z 02003KT 3000 BR SCT030 BKN090 27/26 Q0998 NOSIG=
202008131800 METAR VIDP 131800Z 05003KT 3000 BR SCT030 BKN090 27/26 Q0998 NOSIG=
202008131730 METAR VIDP 131730Z 04005KT 3000 BR SCT030 BKN090 27/26 Q0998 NOSIG=
202008131700 METAR VIDP 131700Z 09003KT 3000 BR SCT030 BKN090 27/26 Q0998 NOSIG=
202008131630 METAR VIDP 131630Z 02004KT 3000 BR SCT030 BKN090 27/26 Q0998 NOSIG=
202008131600 METAR VIDP 131600Z 05005KT 3000 BR SCT030 BKN090 27/26 Q0998 NOSIG=
202008131530 METAR VIDP 131530Z 08005KT 3000 BR SCT030 BKN090 27/26 Q0997 NOSIG=
202008131500 METAR VIDP 131500Z 08003KT 3000 BR SCT030 BKN090 27/26 Q0997 NOSIG=
202008131430 METAR VIDP 131430Z 00000KT 3000 BR SCT030 BKN090 27/26 Q0997 NOSIG=
202008131400 METAR VIDP 131400Z 00000KT 3000 BR SCT030 BKN090 28/26 Q0997 NOSIG=
202008131330 METAR VIDP 131330Z 00000KT 3000 BR SCT030 BKN090 28/26 Q0997 NOSIG=
202008131300 METAR VIDP 131300Z 00000KT 3000 BR BKN030 OVC090 28/27 Q0996 NOSIG=
202008131230 METAR VIDP 131230Z 10003KT 3000 BR BKN030 OVC090 28/27 Q0996 NOSIG=
202008131200 METAR VIDP 131200Z 11008KT 2800 BR BKN030 OVC090 28/27 Q0995 BECMG 3000 BR=
202008131130 METAR VIDP 131130Z 10008KT 2500 BR BKN030 OVC080 28/27 Q0996 NOSIG=
202008131100 METAR VIDP 131100Z 09009KT 2500 BR BKN030 FEW035CB OVC080 28/27 Q0996 TEMPO 32015G25KT 1500 TSRA=
202008131030 METAR VIDP 131030Z 05006KT 2500 BR BKN030 FEW035CB OVC080 28/27 Q0996 TEMPO 32015G25KT 1500 TSRA=
202008131000 METAR VIDP 131000Z 05005KT 2500 BR BKN030 FEW035CB OVC080 28/27 Q0997 TEMPO 32015G25KT 1500 TSRA=
202008130930 METAR VIDP 130930Z 34006KT 2500 BR BKN030 FEW035CB OVC080 28/27 Q0998 TEMPO 32015G25KT 1500 TSRA=
202008130900 METAR VIDP 130900Z 32005KT 2500 BR BKN030 FEW035CB OVC080 28/27 Q0998 TEMPO 32015G25KT 1500 TSRA=
202008130830 METAR VIDP 130830Z 31004KT 2500 BR BKN030 FEW035CB OVC080 28/27 Q0998 TEMPO 32015G25KT 0800 TSRA=
202008130800 METAR VIDP 130800Z 03003KT 2500 BR BKN030 FEW035CB OVC080 28/28 Q0998 TEMPO 32015G25KT 0800 TSRA=
202008130730 METAR VIDP 130730Z 07004KT 2200 -RA BKN030 FEW035CB OVC080 28/28 Q0999 TEMPO 32015G25KT 0800 TSRA=
202008130700 METAR VIDP 130700Z 07004KT 2200 -RA BKN030 FEW035CB OVC080 28/28 Q0999 TEMPO 32015G25KT 0800 TSRA=
202008130630 METAR VIDP 130630Z 09004KT 2200 -RA BKN030 FEW035CB OVC080 27/27 Q1000 TEMPO 32015G25KT 0800 TSRA=
202008130600 METAR VIDP 130600Z 00000KT 2200 -RA BKN030 FEW035CB OVC080 27/27 Q1000 TEMPO 32015G25KT 0800 TSRA=
202008130530 METAR VIDP 130530Z 00000KT 2200 -RA BKN030 FEW035CB OVC080 27/27 Q1000 TEMPO 32015G25KT 0800 TSRA=
202008130500 METAR VIDP 130500Z 00000KT 2200 BR BKN030 FEW035CB OVC080 27/27 Q0998 TEMPO 32015G25KT 0800 TSRA=
202008130430 METAR VIDP 130430Z 00000KT 1800 R28/P2000 R29/P2000 BR BKN020 FEW025CB OVC080 27/27 Q0999 TEMPO 31015G25KT 1000 TSRA=
202008130400 METAR VIDP 130400Z 00000KT 1400 R28/P2000 R29/P2000 -RA BKN020 FEW025CB OVC080 26/26 Q0999 TEMPO 32015G25KT 0800 TSRA=
202008130330 METAR VIDP 130330Z 23003KT 1400 R28/P2000 R29/P2000 -RA BKN020 FEW025CB OVC080 26/26 Q0999 TEMPO 31015G25KT 1000 TSRA=
202008130230 METAR VIDP 130230Z 17005KT 1400 R28/P2000 R29/P2000 -RA BKN020 FEW025CB OVC080 26/26 Q0998 TEMPO 31015G25KT 1000 TSRA=
202008130200 METAR VIDP 130200Z 00000KT 1400 R28/P2000 R29/P2000 -RA BKN020 FEW025CB OVC080 26/26 Q0998 TEMPO 31015G25KT 1000 TSRA=
202008130130 METAR VIDP 130130Z 00000KT 1400 R28/P2000 R29/P2000 -RA BKN020 FEW025CB OVC080 26/26 Q0998 TEMPO 31015G25KT 1000 TSRA=
202008130100 METAR VIDP 130100Z 00000KT 1400 R28/P2000 R29/P2000 -RA BKN020 FEW025CB OVC080 26/26 Q0998 TEMPO 31015G25KT 1000 TSRA=
202008130030 METAR VIDP 130030Z 00000KT 1400 R28/P2000 R29/P2000 -TSRA BKN020 FEW025CB OVC080 25/25 Q0998 TEMPO 31015G25KT 1000 TSRA=
202008130000 METAR VIDP 130000Z 23003KT 0800 R28/P2000 R29/P2000 TSRA BKN020 FEW025CB OVC080 25/25 Q0998 TEMPO 31015G25KT 1000 TSRA=
202008122330 METAR VIDP 122330Z 26006KT 0700 R28/P2000 R29/P2000 TSRA BKN020 FEW025CB OVC080 25/25 Q0998 TEMPO 31015G25KT 1000 TSRA=
202008122300 METAR VIDP 122300Z 29011KT 0700 R28/P2000 R29/P2000 TSRA BKN020 FEW025CB OVC080 26/26 Q0998 TEMPO 31015G25KT 1000 TSRA=
202008122230 METAR VIDP 122230Z 28008G18KT 0700 R28/P2000 R29/P2000 TSRA BKN020 FEW025CB OVC080 26/26 Q0998 TEMPO 31015G25KT 1000 TSRA=
202008122200 METAR VIDP 122200Z 26008KT 0200 R28/2000 R29/2000 +TSRA BKN020 FEW025CB OVC080 26/26 Q0997 TEMPO 31015G25KT 1000 TSRA=
202008122130 METAR VIDP 122130Z 31015G25KT 0500 R28/1600 R29/0950 TSRA BKN020 FEW025CB OVC080 27/26 Q0998 TEMPO 31015G25KT 1000 TSRA=
202008122100 METAR VIDP 122100Z 09003KT 2000 R28/P2000 R29/P2000 TS BKN020 FEW025CB OVC080 27/26 Q0998 TEMPO 31015G25KT 1000 TSRA=
202008122030 METAR VIDP 122030Z 09003KT 2000 R28/P2000 R29/P2000 TS BKN020 FEW025CB OVC080 27/26 Q0998 TEMPO 31015G25KT 1000 TSRA=
202008122000 METAR VIDP 122000Z 35004KT 2000 R28/P2000 R29/P2000 TS BKN020 FEW025CB OVC080 27/26 Q0998 TEMPO 31015G25KT 1000 TSRA=
202008121930 METAR VIDP 121930Z 25004KT 2000 R28/P2000 R29/P2000 TSRA BKN025 FEW030CB OVC080 28/27 Q0998 TEMPO 31015G25KT 1000 TSRA=
202008121900 METAR VIDP 121900Z 14003KT 2000 R28/P2000 R29/P2000 TS BKN025 FEW030CB OVC080 27/26 Q0999 TEMPO 31015G25KT 1000 TSRA=
202008121830 METAR VIDP 121830Z 16003KT 2000 R28/P2000 R29/P2000 TS BKN025 FEW030CB OVC080 27/26 Q0999 TEMPO 31015G25KT 1000 TSRA=
202008121800 METAR VIDP 121800Z 00000KT 2500 TS BKN025 FEW030CB OVC080 27/26 Q0998 TEMPO 31015G25KT 1000 TSRA=
202008121730 METAR VIDP 121730Z 00000KT 2500 TS BKN025 FEW030CB OVC080 26/26 Q0999 TEMPO 31015G25KT 1000 TSRA=
202008121700 METAR VIDP 121700Z 15008KT 2200 -TSRA BKN025 FEW030CB OVC080 25/24 Q0999 TEMPO 31015G25KT 1000 TSRA=
202008121630 METAR VIDP 121630Z 14010KT 1500 R28/P2000 R29/P2000 TSRA BKN025 FEW030CB OVC080 25/24 Q0999 TEMPO 31015G25KT 1000 TSRA=
202008121600 METAR COR VIDP 121600Z 32012G22KT 0800 R28/1900 R29/P2000 TSRA BKN020 FEW025CB OVC080 27/25 Q0999 TEMPO 31015G25KT 1000 TSRA=
202008121530 METAR VIDP 121530Z 13006KT 3500 TS SCT030 FEW035CB BKN100 31/27 Q0998 TEMPO 31015G25KT 1000 TSRA=
202008121500 METAR VIDP 121500Z 13007KT 3500 BR SCT030 FEW035CB BKN100 31/27 Q0998 TEMPO 31015G25KT 1000 TSRA=
202008121430 METAR VIDP 121430Z 12008KT 4000 HZ SCT030 FEW035CB BKN100 32/26 Q0997 NOSIG=
202008121400 METAR VIDP 121400Z 20003KT 4000 HZ SCT030 BKN100 33/27 Q0997 NOSIG=
202008121330 METAR VIDP 121330Z 22003KT 4000 HZ SCT030 BKN100 33/27 Q0997 NOSIG=
202008121300 METAR VIDP 121300Z 28003KT 4000 HZ SCT030 BKN100 34/27 Q0997 NOSIG=
202008121230 METAR VIDP 121230Z 29005KT 4000 HZ SCT030 SCT100 34/27 Q0996 NOSIG=
202008121200 METAR VIDP 121200Z 29006KT 4000 HZ SCT030 SCT100 35/27 Q0996 NOSIG=
202008121130 METAR VIDP 121130Z 28006KT 4000 HZ SCT030 SCT100 35/27 Q0996 NOSIG=
202008121100 METAR VIDP 121100Z 30006KT 4000 HZ SCT030 SCT100 35/27 Q0996 NOSIG=
202008121030 METAR VIDP 121030Z 29005KT 4000 HZ SCT030 SCT100 35/27 Q0997 NOSIG=
202008121000 METAR VIDP 121000Z 29006KT 4000 HZ SCT030 SCT100 35/27 Q0997 NOSIG=
202008120930 METAR VIDP 120930Z 32005KT 4000 HZ SCT030 SCT100 35/27 Q0997 NOSIG=
202008120900 METAR VIDP 120900Z 32006KT 4000 HZ SCT030 SCT100 35/27 Q0997 NOSIG=
202008120830 METAR VIDP 120830Z 32006KT 4000 HZ SCT030 SCT100 35/27 Q0998 NOSIG=
202008120800 METAR VIDP 120800Z 31006KT 4000 HZ SCT030 FEW035CB SCT100 34/27 Q0998 NOSIG=
202008120730 METAR VIDP 120730Z 30007KT 4000 HZ SCT030 FEW035CB SCT100 34/27 Q0999 NOSIG=
202008120700 METAR VIDP 120700Z 28006KT 4000 HZ SCT030 FEW035CB SCT100 34/26 Q0999 NOSIG=
202008120630 METAR VIDP 120630Z 29007KT 4000 HZ SCT030 FEW035CB SCT100 33/26 Q0999 NOSIG=
202008120600 METAR VIDP 120600Z 29007KT 4000 HZ SCT030 FEW035CB SCT100 34/27 Q0999 NOSIG=
202008120530 METAR VIDP 120530Z 29008KT 4000 HZ FEW030 FEW035CB SCT100 33/27 Q1000 NOSIG=
202008120500 METAR VIDP 120500Z 28009KT 3500 HZ FEW030 FEW035CB SCT100 33/27 Q1000 NOSIG=
202008120430 METAR VIDP 120430Z 27007KT 3000 HZ FEW030 FEW035CB SCT100 32/27 Q1000 NOSIG=
202008120400 METAR VIDP 120400Z 27007KT 3000 HZ FEW030 FEW035CB SCT100 31/26 Q0999 NOSIG=
202008120330 METAR VIDP 120330Z 26007KT 2500 BR FEW030 FEW035CB SCT100 30/26 Q0999 BECMG 3000 HZ=
202008120300 METAR VIDP 120300Z 25007KT 2500 BR SCT030 FEW035CB BKN100 30/26 Q0999 TEMPO 29007G17KT 1500 TSRA=
202008120230 METAR VIDP 120230Z 25006KT 2500 BR SCT030 FEW035CB BKN100 29/26 Q0999 TEMPO 29007G17KT 1500 TSRA=
202008120200 METAR VIDP 120200Z 24005KT 2500 BR SCT030 FEW035CB BKN100 29/26 Q0999 TEMPO 29007G17KT 1500 TSRA=
202008120130 METAR VIDP 120130Z 24005KT 2500 BR SCT030 FEW035CB BKN100 28/26 Q0999 TEMPO 29007G17KT 1500 TSRA=
202008120100 METAR VIDP 120100Z 24004KT 2500 BR SCT030 FEW035CB BKN100 28/26 Q0999 TEMPO 29007G17KT 1500 TSRA=
202008120030 METAR VIDP 120030Z 26004KT 2500 BR SCT030 FEW035CB BKN100 28/26 Q0999 NOSIG=
202008120000 METAR VIDP 120000Z 24005KT 2500 BR SCT030 BKN100 28/26 Q0998 NOSIG=
202008112330 METAR VIDP 112330Z 24004KT 2500 BR SCT030 BKN100 28/26 Q0998 NOSIG=
202008112300 METAR VIDP 112300Z 24004KT 2500 BR SCT030 BKN100 28/26 Q0998 NOSIG=
202008112230 METAR VIDP 112230Z 24005KT 2500 BR SCT030 BKN100 28/26 Q0998 NOSIG=
202008112200 METAR VIDP 112200Z 24004KT 2500 BR SCT030 BKN100 28/26 Q0998 NOSIG=
202008112130 METAR VIDP 112130Z 25005KT 2500 BR SCT030 BKN100 28/26 Q0998 NOSIG=
202008112100 METAR VIDP 112100Z 26005KT 2500 BR SCT030 BKN100 28/26 Q0998 NOSIG=
202008112030 METAR VIDP 112030Z 26004KT 2500 BR SCT030 BKN100 29/26 Q0998 NOSIG=
202008112000 METAR VIDP 112000Z 24004KT 2500 BR SCT030 BKN100 29/26 Q0998 NOSIG=
202008111930 METAR VIDP 111930Z 23005KT 2500 BR SCT030 BKN100 29/26 Q0998 NOSIG=
202008111900 METAR VIDP 111900Z 24005KT 2500 BR SCT030 BKN100 30/27 Q0998 NOSIG=
202008111830 METAR VIDP 111830Z 22005KT 2500 BR SCT030 BKN100 30/27 Q0999 NOSIG=
202008111800 METAR VIDP 111800Z 23005KT 2500 BR SCT030 BKN100 30/27 Q0999 NOSIG=
202008111730 METAR VIDP 111730Z 23005KT 2500 BR SCT030 BKN100 30/27 Q1000 NOSIG=
202008111700 METAR VIDP 111700Z 25005KT 2500 BR SCT030 BKN100 30/27 Q1000 NOSIG=
202008111630 METAR VIDP 111630Z 24004KT 2500 BR SCT030 BKN100 30/27 Q1000 NOSIG=
202008111600 METAR VIDP 111600Z 24004KT 2500 BR SCT030 BKN100 30/27 Q0999 NOSIG=
202008111530 METAR VIDP 111530Z 24004KT 2500 BR SCT030 FEW035CB BKN100 30/27 Q0999 NOSIG=
202008111500 METAR VIDP 111500Z 22004KT 2500 BR SCT030 FEW035CB BKN100 30/27 Q0999 NOSIG=
202008111430 METAR VIDP 111430Z 20004KT 2500 BR SCT030 FEW035CB BKN100 30/27 Q0999 NOSIG=
202008111400 METAR VIDP 111400Z 19003KT 2500 BR SCT030 BKN100 30/27 Q0998 NOSIG=
202008111330 METAR VIDP 111330Z 18003KT 2500 BR SCT030 BKN100 30/27 Q0998 NOSIG=
202008111300 METAR VIDP 111300Z 19004KT 2500 BR SCT030 FEW035CB BKN100 31/27 Q0998 NOSIG=
202008111230 METAR VIDP 111230Z 19004KT 2500 BR SCT030 FEW035CB BKN100 31/27 Q0997 NOSIG=
202008111200 METAR VIDP 111200Z 15004KT 2500 BR SCT030 FEW035CB BKN100 30/27 Q0997 NOSIG=
202008111130 METAR VIDP 111130Z 10004KT 2000 BR SCT030 FEW035CB BKN100 30/28 Q0997 TEMPO 29015G25KT 1500 TSRA=
202008111100 METAR VIDP 111100Z 09005KT 2000 BR SCT030 FEW035CB BKN100 31/27 Q0997 TEMPO 29015G25KT 1500 TSRA=
202008111030 METAR VIDP 111030Z 08007KT 2500 BR SCT030 FEW035CB BKN100 31/27 Q0997 TEMPO 29015G25KT 1500 TSRA=
202008111000 METAR COR VIDP 111000Z 33008G18KT 2200 -TSRA SCT030 FEW035CB BKN100 34/28 Q0997 TEMPO 29015G25KT 1500 TSRA=
202008110930 METAR VIDP 110930Z 29004KT 3000 HZ SCT030 FEW035CB BKN100 35/27 Q0997 NOSIG=
202008110900 METAR VIDP 110900Z 32004KT 3000 HZ SCT030 FEW035CB BKN100 35/27 Q0998 NOSIG=
202008110830 METAR VIDP 110830Z 30007KT 3000 HZ SCT030 FEW035CB BKN100 34/27 Q0999 NOSIG=
202008110800 METAR VIDP 110800Z 30007KT 3000 HZ SCT030 FEW035CB BKN100 34/27 Q0999 NOSIG=
202008110730 METAR VIDP 110730Z 29006KT 3000 HZ SCT030 FEW035CB BKN100 34/27 Q0999 NOSIG=
202008110700 METAR VIDP 110700Z 30006KT 2800 HZ SCT030 FEW035CB BKN100 33/27 Q1000 BECMG 3000 HZ=
202008110630 METAR VIDP 110630Z 29003KT 2500 HZ SCT030 FEW035CB BKN100 34/27 Q1000 NOSIG=
202008110600 METAR VIDP 110600Z 26004KT 2200 HZ SCT035 BKN100 33/27 Q1000 NOSIG=
202008110530 METAR VIDP 110530Z 27003KT 2200 HZ SCT035 BKN100 33/27 Q1001 NOSIG=
202008110500 METAR VIDP 110500Z 27003KT 2200 HZ SCT035 BKN100 32/27 Q1001 NOSIG=
202008110430 METAR VIDP 110430Z 23004KT 2200 HZ SCT035 BKN100 32/27 Q1001 NOSIG=
202008110400 METAR VIDP 110400Z 26004KT 2200 BR SCT035 BKN100 31/27 Q1001 NOSIG=
202008110330 METAR VIDP 110330Z 00000KT 2200 BR SCT035 BKN100 30/27 Q1001 NOSIG=
202008110300 METAR VIDP 110300Z 00000KT 2200 BR SCT035 BKN100 30/27 Q1001 NOSIG=
202008110230 METAR VIDP 110230Z 00000KT 2200 BR SCT035 BKN100 30/27 Q1000 NOSIG=
202008110200 METAR VIDP 110200Z 00000KT 2200 BR SCT035 BKN100 29/27 Q1000 NOSIG=
202008110130 METAR VIDP 110130Z 00000KT 2200 BR SCT035 BKN100 29/27 Q1000 NOSIG=
202008110100 METAR VIDP 110100Z 00000KT 2200 BR SCT035 BKN100 28/27 Q1000 NOSIG=
202008110030 METAR VIDP 110030Z 00000KT 2200 BR SCT035 BKN100 28/27 Q1000 NOSIG=
202008110000 METAR VIDP 110000Z 00000KT 2200 BR SCT035 BKN100 28/27 Q1000 NOSIG=
202008102330 METAR VIDP 102330Z 00000KT 2500 BR SCT035 BKN100 28/27 Q1000 NOSIG=
202008102300 METAR VIDP 102300Z 00000KT 2500 BR SCT035 BKN100 28/27 Q1000 NOSIG=
202008102230 METAR VIDP 102230Z 00000KT 2500 BR SCT035 BKN100 29/27 Q1000 NOSIG=
202008102200 METAR VIDP 102200Z 00000KT 2500 BR SCT035 BKN100 29/27 Q1000 NOSIG=
202008102130 METAR VIDP 102130Z 13003KT 2500 BR SCT035 BKN100 29/27 Q1000 NOSIG=
202008102100 METAR VIDP 102100Z 14003KT 2500 BR SCT035 BKN100 29/27 Q1000 NOSIG=
202008102030 METAR VIDP 102030Z 14004KT 2500 BR SCT035 BKN100 29/27 Q1000 NOSIG=
202008102000 METAR VIDP 102000Z 13004KT 2500 BR SCT035 BKN100 29/27 Q1000 NOSIG=
202008101930 METAR VIDP 101930Z 12004KT 2500 BR SCT035 BKN100 29/27 Q1000 NOSIG=
202008101900 METAR VIDP 101900Z 10003KT 2500 BR SCT035 BKN100 30/27 Q1000 NOSIG=
202008101830 METAR VIDP 101830Z 11003KT 2500 BR SCT035 BKN100 30/27 Q1000 NOSIG=
202008101800 METAR VIDP 101800Z 00000KT 2500 BR SCT035 BKN100 30/27 Q1000 NOSIG=
202008101730 METAR VIDP 101730Z 00000KT 2500 BR SCT035 BKN100 30/27 Q1001 NOSIG=
202008101700 METAR VIDP 101700Z 00000KT 2500 BR SCT035 BKN100 30/27 Q1001 NOSIG=
202008101630 METAR COR VIDP 101630Z 11003KT 2500 BR SCT030 FEW035CB BKN100 30/26 Q1001 NOSIG=
202008101600 METAR VIDP 101600Z 15003KT 2500 TS SCT030 FEW035CB BKN100 30/26 Q1001 NOSIG=
202008101530 METAR VIDP 101530Z 13003KT 2500 TS SCT030 FEW035CB BKN100 30/26 Q1001 NOSIG=
202008101500 METAR VIDP 101500Z 00000KT 2500 TS SCT030 FEW035CB BKN100 31/27 Q1000 NOSIG=
202008101430 METAR VIDP 101430Z 00000KT 2200 TS SCT030 FEW035CB BKN100 31/27 Q0999 TEMPO 30015G25KT 1500 TSRA=
202008101400 METAR VIDP 101400Z 13005KT 2200 TS SCT030 FEW035CB BKN100 31/27 Q0999 TEMPO 30015G25KT 1500 TSRA=
202008101330 METAR VIDP 101330Z 15006KT 2400 BR SCT030 FEW035CB BKN100 31/27 Q0999 NOSIG=
202008101300 METAR VIDP 101300Z 15007KT 2400 BR SCT030 FEW035CB BKN100 31/28 Q0998 NOSIG=
202008101230 METAR VIDP 101230Z 15008KT 2600 BR SCT030 FEW035CB BKN100 31/27 Q0998 NOSIG=
202008101200 METAR VIDP 101200Z 12006KT 3200 HZ SCT030 FEW035CB BKN100 33/27 Q0998 BECMG 3000 HZ=
202008101130 METAR VIDP 101130Z 12007KT 3200 HZ SCT030 FEW035CB BKN100 33/27 Q0998 TEMPO 14015G25KT 1500 TSRA=
202008101100 METAR VIDP 101100Z 09005KT 3500 HZ SCT030 FEW035CB BKN100 34/27 Q0998 TEMPO 14015G25KT 1500 TSRA=
202008101030 METAR VIDP 101030Z 11006KT 3500 HZ SCT030 FEW035CB BKN100 34/26 Q0998 TEMPO 14015G25KT 1500 TSRA=
202008101000 METAR VIDP 101000Z 10006KT 3500 HZ SCT030 FEW035CB BKN100 34/25 Q0998 TEMPO 14015G25KT 1500 TSRA=
202008100930 METAR VIDP 100930Z 09005KT 3000 HZ SCT030 FEW035CB BKN100 33/27 Q0998 TEMPO 14015G25KT 1500 TSRA=
202008100900 METAR VIDP 100900Z 08005KT 3000 HZ SCT030 FEW035CB BKN100 33/27 Q0999 TEMPO 12015G25KT 1500 TSRA=
202008100830 METAR COR VIDP 100830Z 08006KT 2800 HZ SCT030 FEW035CB BKN100 32/26 Q0999 TEMPO 12015G25KT 1500 TSRA=
202008100800 METAR VIDP 100800Z 08008KT 2500 HZ SCT030 FEW035CB OVC090 33/27 Q0999 TEMPO 12015G25KT 1500 TSRA=
202008100730 METAR VIDP 100730Z 13003KT 2500 HZ SCT030 FEW035CB OVC090 33/27 Q1000 TEMPO 12015G25KT 1500 TSRA=
202008100700 METAR VIDP 100700Z 12004KT 2500 HZ SCT030 FEW035CB OVC090 33/27 Q1000 NOSIG=
202008100630 METAR VIDP 100630Z 10004KT 2500 HZ SCT030 OVC090 32/27 Q1000 NOSIG=
202008100600 METAR VIDP 100600Z 09004KT 2000 BR SCT030 OVC090 31/27 Q1001 NOSIG=
202008100530 METAR VIDP 100530Z 09004KT 2000 BR SCT030 OVC090 31/27 Q1001 NOSIG=
202008100500 METAR VIDP 100500Z 11004KT 2000 BR SCT030 OVC090 31/27 Q1001 NOSIG=
202008100430 METAR VIDP 100430Z 12004KT 2000 BR SCT030 OVC090 30/27 Q1001 NOSIG=
202008100400 METAR VIDP 100400Z 12005KT 2000 BR SCT030 OVC090 30/27 Q1001 NOSIG=
202008100330 METAR VIDP 100330Z 11005KT 2500 BR SCT030 OVC090 30/27 Q1001 NOSIG=
202008100300 METAR VIDP 100300Z 12005KT 2800 BR SCT030 OVC090 30/27 Q1001 NOSIG=
202008100230 METAR VIDP 100230Z 11005KT 2800 BR SCT030 BKN100 30/27 Q1000 BECMG 3000 BR=
202008100200 METAR VIDP 100200Z 13004KT 2800 BR FEW030 SCT100 29/27 Q1000 BECMG 3000 BR=
202008100130 METAR COR VIDP 100130Z 13004KT 2800 BR FEW030 SCT100 29/27 Q1000 NOSIG=
202008100100 METAR VIDP 100100Z 12004KT 2800 BR FEW030 SCT100 28/27 Q1000 NOSIG=
202008100030 METAR VIDP 100030Z 12004KT 2800 BR FEW030 SCT100 28/27 Q0999 NOSIG=
202008100000 METAR VIDP 100000Z 11004KT 3000 BR SCT030 SCT100 29/27 Q0999 NOSIG=
202008092330 METAR VIDP 092330Z 11006KT 3000 BR SCT030 SCT090 29/27 Q0999 NOSIG=
202008092300 METAR VIDP 092300Z 11006KT 3000 BR SCT030 SCT100 29/27 Q0999 NOSIG=
202008092230 METAR VIDP 092230Z 10006KT 3000 BR SCT030 BKN100 29/27 Q0999 NOSIG=
202008092200 METAR VIDP 092200Z 09006KT 3000 BR SCT030 BKN090 29/27 Q0999 NOSIG=
202008092130 METAR VIDP 092130Z 09003KT 3000 BR SCT030 BKN090 29/26 Q0999 NOSIG=
202008092100 METAR VIDP 092100Z 00000KT 3000 BR SCT030 BKN090 29/26 Q0999 NOSIG=
202008092030 METAR VIDP 092030Z 00000KT 3000 BR SCT030 BKN090 29/26 Q0999 NOSIG=
202008092000 METAR VIDP 092000Z 00000KT 3000 BR SCT030 BKN090 29/26 Q0999 NOSIG=
202008091930 METAR VIDP 091930Z 00000KT 3000 BR SCT030 BKN090 29/26 Q0999 NOSIG=
202008091900 METAR VIDP 091900Z 00000KT 3000 BR SCT030 BKN090 29/26 Q0999 NOSIG=
202008091830 METAR VIDP 091830Z 00000KT 3000 BR SCT030 BKN090 29/26 Q0999 NOSIG=
202008091800 METAR VIDP 091800Z 00000KT 3000 BR SCT030 BKN090 29/26 Q0999 NOSIG=
202008091730 METAR VIDP 091730Z 00000KT 3000 BR SCT030 BKN090 29/26 Q0999 NOSIG=
202008091700 METAR VIDP 091700Z 00000KT 3000 BR SCT030 BKN090 29/26 Q0999 NOSIG=
202008091630 METAR VIDP 091630Z 00000KT 3000 BR SCT030 FEW040CB BKN090 29/26 Q0999 TEMPO 12015G25KT 1500 TSRA=
202008091600 METAR VIDP 091600Z 00000KT 3000 BR SCT030 FEW040CB BKN090 29/26 Q0999 TEMPO 12015G25KT 1500 TSRA=
202008091530 METAR VIDP 091530Z 00000KT 3000 BR SCT030 FEW040CB BKN090 29/26 Q0999 TEMPO 12015G25KT 1500 TSRA=
202008091500 METAR VIDP 091500Z 00000KT 3000 BR SCT030 FEW040CB BKN090 29/26 Q0999 TEMPO 12015G25KT 1500 TSRA=
202008091430 METAR VIDP 091430Z 00000KT 3000 BR SCT030 FEW040CB BKN090 29/26 Q0998 NOSIG=
202008091400 METAR VIDP 091400Z 00000KT 3000 BR SCT030 FEW035CB OVC080 29/26 Q0998 NOSIG=
202008091330 METAR VIDP 091330Z 23004KT 3000 BR SCT030 FEW035CB OVC080 29/26 Q0998 TEMPO 1500 TSRA=
202008091300 METAR VIDP 091300Z 00000KT 3000 BR SCT030 FEW035CB OVC080 29/26 Q0997 TEMPO 1500 TSRA=
202008091230 METAR VIDP 091230Z 25003KT 3000 BR SCT030 FEW035CB OVC080 29/26 Q0997 TEMPO 1500 TSRA=
202008091200 METAR VIDP 091200Z 26003KT 2500 BR SCT030 FEW035CB OVC080 29/26 Q0997 TEMPO 1500 TSRA=
202008091130 METAR VIDP 091130Z 25005KT 2500 BR SCT030 FEW035CB OVC080 29/26 Q0997 TEMPO 1500 TSRA=
202008091100 METAR VIDP 091100Z 27004KT 2500 BR SCT025 FEW030CB OVC080 29/26 Q0997 TEMPO 1500 TSRA=
202008091030 METAR VIDP 091030Z 25006KT 2500 BR SCT025 FEW030CB OVC080 30/26 Q0997 TEMPO 1500 TSRA=
202008091000 METAR VIDP 091000Z 07004KT 2500 BR SCT025 FEW030CB OVC080 31/27 Q0998 TEMPO 1500 TSRA=
202008090930 METAR COR VIDP 090930Z 07008KT 2000 -TSRA SCT025 FEW030CB OVC080 30/27 Q0997 TEMPO 1500 TSRA=
202008090900 METAR VIDP 090900Z 08010KT 2000 -TSRA SCT025 FEW030CB OVC080 33/28 Q0998 TEMPO 1500 TSRA=
202008090830 METAR VIDP 090830Z 05004KT 2500 HZ SCT025 FEW030CB OVC080 34/27 Q0998 TEMPO 1500 TSRA=
202008090800 METAR VIDP 090800Z 00000KT 3500 HZ SCT030 FEW035CB BKN100 34/27 Q0998 NOSIG=
202008090730 METAR VIDP 090730Z 00000KT 3500 HZ SCT030 FEW035CB BKN100 33/27 Q0999 NOSIG=
202008090700 METAR VIDP 090700Z 27003KT 3500 HZ SCT030 FEW035CB BKN100 33/28 Q0999 NOSIG=
202008090630 METAR VIDP 090630Z 29004KT 3500 BR SCT030 FEW035CB BKN100 32/28 Q0999 NOSIG=
202008090600 METAR VIDP 090600Z 29003KT 4000 BR SCT030 FEW035CB BKN100 32/28 Q1000 NOSIG=
202008090530 METAR VIDP 090530Z 28004KT 4000 BR SCT035 BKN100 32/28 Q1000 NOSIG=
202008090500 METAR VIDP 090500Z 27005KT 4000 BR SCT035 BKN100 31/27 Q1000 NOSIG=
202008090430 METAR VIDP 090430Z 27004KT 4000 BR SCT035 BKN100 31/27 Q1000 NOSIG=
202008090400 METAR VIDP 090400Z 27005KT 4000 BR SCT035 SCT100 30/27 Q1000 NOSIG=
202008090330 METAR VIDP 090330Z 28005KT 3500 BR FEW035 SCT100 30/27 Q0999 NOSIG=
202008090300 METAR VIDP 090300Z 27005KT 3500 BR FEW035 SCT100 30/27 Q0999 NOSIG=
202008090230 METAR VIDP 090230Z 26005KT 3500 BR FEW035 SCT100 29/26 Q0999 NOSIG=
202008090200 METAR VIDP 090200Z 27004KT 3000 BR SCT030 BKN100 29/26 Q0999 NOSIG=
202008090130 METAR VIDP 090130Z 27003KT 3000 BR SCT030 BKN100 28/26 Q0999 NOSIG=
202008090100 METAR VIDP 090100Z 00000KT 3000 BR SCT030 FEW035CB BKN100 28/26 Q0999 NOSIG=
202008090030 METAR VIDP 090030Z 00000KT 3000 BR SCT030 FEW035CB BKN100 27/26 Q0998 NOSIG=
202008090000 METAR VIDP 090000Z 00000KT 3000 BR SCT030 FEW035CB BKN100 27/27 Q0998 TEMPO 28020KT 1500 TSRA=
202008082330 METAR VIDP 082330Z 24003KT 2500 BR SCT030 FEW035CB BKN100 27/27 Q0998 TEMPO 28020KT 1500 TSRA=
202008082300 METAR VIDP 082300Z 29004KT 2500 BR SCT020 FEW025CB OVC080 27/27 Q0998 TEMPO 28020KT 1500 TSRA=
202008082230 METAR VIDP 082230Z 34010KT 2200 -RA BKN020 FEW025CB OVC080 27/27 Q0998 TEMPO 28020KT 1500 TSRA=
202008082200 METAR VIDP 082200Z 31010KT 2200 RA SCT025 FEW030CB BKN100 27/27 Q0998 TEMPO 28020KT 1500 TSRA=
202008082130 METAR VIDP 082130Z 28006KT 2500 BR FEW030 FEW035CB SCT100 28/28 Q0998 NOSIG=
202008082100 METAR VIDP 082100Z 27008KT 2800 BR FEW030 FEW035CB SCT100 28/28 Q0998 NOSIG=
202008082030 METAR VIDP 082030Z 00000KT 2800 BR FEW030 FEW035CB SCT100 29/28 Q0998 NOSIG=
202008082000 METAR VIDP 082000Z 25003KT 2800 BR FEW030 FEW035CB SCT100 29/28 Q0998 NOSIG=
202008081930 METAR VIDP 081930Z 27006KT 2200 TS FEW030 FEW035CB SCT100 28/28 Q0999 NOSIG=
202008081900 METAR VIDP 081900Z 24008KT 1400 R28/P2000 R29/P2000 -TSRA FEW030 FEW035CB SCT100 28/28 Q0999 BECMG 1500 -TSRA=
202008081830 METAR VIDP 081830Z 23004KT 3000 BR FEW030 FEW035CB SCT100 30/28 Q0999 NOSIG=
202008081800 METAR VIDP 081800Z 24005KT 3000 BR FEW035 SCT100 30/28 Q0999 NOSIG=
202008081730 METAR VIDP 081730Z 23005KT 3000 BR FEW035 SCT100 31/28 Q0999 NOSIG=
202008081700 METAR VIDP 081700Z 00000KT 3000 BR FEW035 SCT100 31/28 Q0998 NOSIG=
202008081630 METAR VIDP 081630Z 00000KT 3000 BR FEW035 SCT100 31/28 Q0998 NOSIG=
202008081600 METAR VIDP 081600Z 00000KT 3000 BR FEW035 SCT100 31/28 Q0998 NOSIG=
202008081530 METAR VIDP 081530Z 00000KT 3000 BR FEW035 SCT100 31/28 Q0998 NOSIG=
202008081500 METAR VIDP 081500Z 00000KT 3000 BR SCT035 BKN100 31/28 Q0998 NOSIG=
202008081430 METAR VIDP 081430Z 26003KT 3000 BR SCT035 BKN100 31/28 Q0997 NOSIG=
202008081400 METAR VIDP 081400Z 27003KT 3000 BR SCT035 BKN100 31/28 Q0997 NOSIG=
202008081330 METAR VIDP 081330Z 27004KT 3200 BR SCT035 BKN100 31/28 Q0997 BECMG 3000 BR=
202008081300 METAR VIDP 081300Z 24004KT 3200 BR SCT035 BKN100 32/28 Q0997 NOSIG=
202008081230 METAR VIDP 081230Z 23005KT 3200 HZ SCT035 FEW040CB BKN100 32/27 Q0997 NOSIG=
202008081200 METAR VIDP 081200Z 25005KT 3200 HZ SCT035 FEW040CB BKN100 32/27 Q0996 NOSIG=
202008081130 METAR VIDP 081130Z 26005KT 3200 HZ SCT035 FEW040CB BKN100 33/27 Q0996 TEMPO 25020KT 3000 TSRA=
202008081100 METAR VIDP 081100Z 26006KT 3500 HZ SCT035 FEW040CB BKN100 35/26 Q0996 TEMPO 25020KT 3000 TSRA=
202008081030 METAR VIDP 081030Z 10003KT 4000 HZ SCT035 FEW040CB SCT100 36/26 Q0997 NOSIG=
202008081000 METAR VIDP 081000Z 27003KT 4000 HZ SCT035 FEW040CB SCT100 36/26 Q0997 NOSIG=
202008080930 METAR VIDP 080930Z 07003KT 4000 HZ SCT040 SCT100 36/26 Q0997 NOSIG=
202008080900 METAR VIDP 080900Z 09004KT 4000 HZ SCT040 SCT100 36/26 Q0998 NOSIG=
202008080830 METAR VIDP 080830Z 06003KT 4000 HZ FEW040 SCT100 36/26 Q0999 NOSIG=
202008080800 METAR VIDP 080800Z 09004KT 4000 HZ FEW040 SCT100 36/26 Q0999 NOSIG=
202008080730 METAR VIDP 080730Z 09004KT 4000 HZ FEW040 SCT100 35/27 Q0999 NOSIG=
202008080700 METAR VIDP 080700Z 08004KT 4000 HZ FEW040 SCT100 35/27 Q0999 NOSIG=
202008080630 METAR VIDP 080630Z 06004KT 4000 HZ FEW040 SCT100 35/26 Q0999 NOSIG=
202008080600 METAR VIDP 080600Z 07003KT 4000 HZ FEW040 SCT100 35/26 Q1000 NOSIG=
202008080530 METAR VIDP 080530Z 00000KT 3500 HZ FEW040 SCT100 34/26 Q1000 NOSIG=
202008080500 METAR VIDP 080500Z 00000KT 3500 HZ FEW040 SCT100 34/26 Q1000 NOSIG=
202008080430 METAR VIDP 080430Z 00000KT 3500 HZ FEW040 SCT100 34/26 Q1001 NOSIG=
202008080400 METAR VIDP 080400Z 00000KT 3000 HZ FEW040 SCT100 33/26 Q1001 NOSIG=
202008080330 METAR VIDP 080330Z 00000KT 3000 HZ FEW040 SCT100 33/26 Q1001 NOSIG=
202008080300 METAR VIDP 080300Z 00000KT 2500 HZ FEW040 SCT100 33/26 Q1001 BECMG 3000 HZ=
202008080230 METAR VIDP 080230Z 00000KT 2500 HZ FEW040 SCT100 32/26 Q1001 NOSIG=
202008080200 METAR VIDP 080200Z 00000KT 2500 BR SCT030 FEW040CB SCT100 30/26 Q1001 NOSIG=
202008080130 METAR VIDP 080130Z 00000KT 2500 BR SCT030 FEW040CB SCT100 30/26 Q1001 NOSIG=
202008080100 METAR VIDP 080100Z 00000KT 2500 BR SCT030 FEW040CB SCT100 29/26 Q1000 NOSIG=
202008080030 METAR VIDP 080030Z 00000KT 2500 BR SCT030 FEW040CB SCT100 29/26 Q1000 NOSIG=
202008080000 METAR VIDP 080000Z 00000KT 3000 BR SCT030 FEW040CB SCT100 29/26 Q1000 NOSIG=
202008072330 METAR VIDP 072330Z 00000KT 3000 BR SCT030 FEW040CB SCT100 29/26 Q1000 NOSIG=
202008072300 METAR VIDP 072300Z 00000KT 3000 BR SCT030 FEW040CB SCT100 29/26 Q1000 NOSIG=
202008072230 METAR VIDP 072230Z 00000KT 3000 BR SCT030 FEW040CB SCT100 29/26 Q1000 NOSIG=
202008072200 METAR VIDP 072200Z 00000KT 3000 BR SCT030 FEW040CB SCT100 29/26 Q1000 NOSIG=
202008072130 METAR VIDP 072130Z 00000KT 3000 BR SCT030 FEW040CB SCT100 29/26 Q1000 NOSIG=
202008072100 METAR VIDP 072100Z 00000KT 3000 BR SCT030 SCT100 29/26 Q1000 NOSIG=
202008072030 METAR VIDP 072030Z 00000KT 3000 BR SCT030 SCT100 29/26 Q1001 NOSIG=
202008072000 METAR VIDP 072000Z 00000KT 3000 BR SCT030 SCT100 29/27 Q1001 NOSIG=
202008071930 METAR VIDP 071930Z 00000KT 3000 BR SCT030 SCT100 30/26 Q1001 NOSIG=
202008071900 METAR VIDP 071900Z 13004KT 3000 BR SCT030 SCT100 30/26 Q1001 NOSIG=
202008071830 METAR VIDP 071830Z 13003KT 3000 BR SCT030 SCT100 30/26 Q1001 NOSIG=
202008071800 METAR VIDP 071800Z 14003KT 3000 BR SCT030 SCT100 30/26 Q1001 NOSIG=
202008071730 METAR VIDP 071730Z 17003KT 3000 BR SCT030 SCT100 30/26 Q1002 NOSIG=
202008071700 METAR VIDP 071700Z 14003KT 3000 BR SCT030 SCT100 31/27 Q1002 NOSIG=
202008071630 METAR VIDP 071630Z 10004KT 3000 BR SCT030 FEW040CB SCT100 31/27 Q1002 NOSIG=
202008071600 METAR VIDP 071600Z 10004KT 3000 HZ SCT030 FEW040CB SCT100 31/26 Q1001 NOSIG=
202008071530 METAR VIDP 071530Z 11005KT 3000 HZ SCT030 FEW040CB SCT100 31/26 Q1001 NOSIG=
202008071500 METAR VIDP 071500Z 10003KT 3000 HZ SCT030 FEW040CB SCT100 31/26 Q1001 NOSIG=
202008071430 METAR VIDP 071430Z 09004KT 3000 HZ SCT030 FEW040CB SCT100 31/26 Q1000 NOSIG=
202008071400 METAR VIDP 071400Z 05004KT 3000 HZ SCT030 FEW040CB SCT100 31/26 Q1000 NOSIG=
202008071330 METAR VIDP 071330Z 06004KT 3500 HZ SCT030 FEW040CB SCT100 31/26 Q1000 BECMG 3000 HZ=
202008071300 METAR VIDP 071300Z 08006KT 4000 HZ SCT030 FEW040CB SCT100 32/26 Q0999 NOSIG=
202008071230 METAR VIDP 071230Z 11006KT 4000 HZ SCT030 FEW040CB SCT100 34/26 Q0999 NOSIG=
202008071200 METAR VIDP 071200Z 12007KT 4000 HZ SCT030 FEW040CB SCT100 34/26 Q0999 NOSIG=
202008071130 METAR VIDP 071130Z 13006KT 4000 HZ SCT030 SCT100 34/25 Q0999 NOSIG=
202008071100 METAR VIDP 071100Z 13007KT 4000 HZ SCT030 SCT100 34/26 Q0999 NOSIG=
202008071030 METAR VIDP 071030Z 12007KT 4000 HZ SCT030 FEW040CB SCT100 34/26 Q0999 NOSIG=
202008071000 METAR VIDP 071000Z 11007KT 4000 HZ SCT030 FEW040CB SCT100 34/26 Q1000 NOSIG=
202008070930 METAR VIDP 070930Z 12007KT 4000 HZ SCT030 FEW040CB SCT100 34/26 Q1000 NOSIG=
202008070900 METAR VIDP 070900Z 11008KT 4000 HZ SCT030 FEW040CB SCT100 34/26 Q1000 NOSIG=
202008070830 METAR VIDP 070830Z 10008KT 4500 HZ FEW030 FEW040CB SCT100 33/26 Q1001 NOSIG=
202008070800 METAR VIDP 070800Z 10008KT 4500 HZ SCT030 FEW035CB BKN100 33/26 Q1001 NOSIG=
202008070730 METAR VIDP 070730Z 12008KT 4500 HZ SCT030 BKN100 33/26 Q1002 NOSIG=
202008070700 METAR VIDP 070700Z 12008KT 4000 HZ SCT030 BKN100 33/26 Q1002 NOSIG=
202008070630 METAR VIDP 070630Z 11011KT 3500 HZ SCT030 BKN100 32/25 Q1002 NOSIG=
202008070600 METAR VIDP 070600Z 11010KT 3500 HZ SCT030 BKN100 32/25 Q1002 NOSIG=
202008070530 METAR VIDP 070530Z 11009KT 3000 HZ SCT030 BKN100 32/25 Q1002 NOSIG=
202008070500 METAR VIDP 070500Z 12010KT 3000 HZ SCT030 BKN100 32/25 Q1003 NOSIG=
202008070430 METAR VIDP 070430Z 11012KT 2800 HZ SCT030 BKN100 32/25 Q1003 BECMG 3000 HZ=
202008070400 METAR VIDP 070400Z 10006G16KT 2500 HZ SCT030 BKN100 31/25 Q1003 NOSIG=
202008070330 METAR VIDP 070330Z 10006G16KT 2500 HZ SCT030 BKN100 30/25 Q1003 NOSIG=
202008070300 METAR VIDP 070300Z 10007G17KT 3000 BR SCT030 BKN100 29/25 Q1003 NOSIG=
202008070230 METAR VIDP 070230Z 09012KT 3200 BR SCT030 BKN100 28/24 Q1003 BECMG 3000 BR=
202008070130 METAR VIDP 070130Z 10012KT 4000 BR SCT035 BKN100 28/24 Q1002 NOSIG=
202008070100 METAR VIDP 070100Z 11012KT 4000 BR SCT035 BKN100 28/24 Q1001 NOSIG=
202008062300 METAR VIDP 062300Z 10008G18KT 4000 BR SCT035 SCT100 28/24 Q1000 NOSIG=
202008062230 METAR VIDP 062230Z 10008G18KT 4000 BR SCT035 SCT100 29/25 Q1000 NOSIG=
202008062100 METAR VIDP 062100Z 10011KT 4000 BR FEW035 SCT100 30/26 Q1000 NOSIG=
202008062030 METAR VIDP 062030Z 10010G20KT 4000 BR FEW035 SCT100 30/26 Q0999 NOSIG=
202008061900 METAR VIDP 061900Z 10010G20KT 4000 HZ FEW035 SCT100 31/26 Q0999 NOSIG=
202008061830 METAR VIDP 061830Z 09010G20KT 4000 HZ FEW035 SCT100 31/26 Q0999 NOSIG=
202008061800 METAR VIDP 061800Z 10010G20KT 4000 HZ FEW035 SCT100 31/25 Q1000 NOSIG=
202008061630 METAR VIDP 061630Z 10010G20KT 4000 HZ FEW035 SCT100 32/25 Q0999 NOSIG=
202008061530 METAR VIDP 061530Z 09012KT 4000 HZ SCT030 BKN100 32/25 Q0999 NOSIG=
202008061500 METAR VIDP 061500Z 09012KT 4000 HZ SCT030 BKN100 32/25 Q0998 NOSIG=
202008061330 METAR VIDP 061330Z 08010G20KT 4500 HZ SCT030 FEW035CB BKN100 32/25 Q0997 TEMPO 15020G30KT 1000 TSRA=
202008061300 METAR VIDP 061300Z 08012G22KT 5000 HZ SCT030 FEW035CB BKN100 34/25 Q0997 TEMPO 15020G30KT 1000 TSRA=
202008061130 METAR VIDP 061130Z 08011G21KT 5000 HZ SCT030 FEW035CB BKN100 35/25 Q0996 NOSIG=
202008060200 METAR VIDP 060200Z 09007KT 3500 HZ FEW100 32/26 Q0999 NOSIG=
202008051500 METAR VIDP 051500Z 06004KT 2500 BR SCT040 BKN100 31/28 Q0997 NOSIG=
202008051400 METAR VIDP 051400Z 05005KT 2500 BR SCT030 BKN090 31/28 Q0996 NOSIG=
202008051030 METAR VIDP 051030Z 00000KT 3000 BR SCT030 FEW035CB OVC080 31/27 Q0995 NOSIG=
202008030300 METAR VIDP 030300Z 24007KT 4000 BR SCT030 FEW040CB BKN100 30/26 Q0998 NOSIG=
202008020430 METAR VIDP 020430Z 28006KT 4000 HZ FEW100 31/26 Q1002 NOSIG=
202008020000 METAR VIDP 020000Z 00000KT 2500 BR FEW100 27/26 Q1001 NOSIG=
202008011930 METAR VIDP 011930Z 00000KT 2500 BR SCT035 SCT100 27/25 Q1001 NOSIG=
202008011530 METAR VIDP 011530Z 27004KT 2500 BR SCT035 BKN100 29/26 Q1001 NOSIG=

###################################
#  short TAF from VIDP
###################################
202008312300 TAF VIDP 312300Z 0100/0109 17005KT 3000 BR FEW040 SCT100
                      BECMG 0104/0106 23010KT 5000 HZ SCT040 BKN100
                       BECMG 0107/0109 2000 -TSRA SCT030 FEW040CB
                       BKN090=
202008311700 TAF VIDP 311700Z 3118/0103 15005KT 3000 BR FEW100
                      BECMG 0100/0102 18003KT 2000 BR SCT100=
202008311400 TAF VIDP 311400Z 3115/3124 13008KT 3000 BR FEW040 SCT100=
202008311100 TAF VIDP 311100Z 3112/3121 13008KT 4000 HZ SCT030 BKN100
                      TEMPO 0112/0115 FEW040CB
                      BECMG 3118/3120 16005KT 3000 BR SCT030 SCT100=
202008310800 TAF VIDP 310800Z 3109/3118 15008KT 6000 SCT030 BKN090
                      TEMPO 3109/3112 FEW035CB
                      BECMG 3115/3117 2500 BR FEW030 SCT090=
202008310500 TAF VIDP 310500Z 3106/3115 15008KT 5000 BR HZ SCT030 BKN090
                      TEMPO 3109/3112 FEW035CB
                      BECMG 3113/3114 3500 HZ BR FEW030 SCT100=
202008310200 TAF VIDP 310200Z 3103/3112 15010KT 2500 BR SCT030 BKN100
                      BECMG 3105/3107 4000 HZ DZ
                      TEMPO 3109/3112 2000 -TSRA SCT025 FEW035CB
                       BKN090=
202008302300 TAF VIDP 302300Z 3100/3109 15006KT 2200 BR -RA SCT030 BKN090
                      BECMG 3104/3106 15007G17KT 4000 HZ=
202008302000 TAF VIDP 302000Z 3021/3106 11010KT 3200 BR SCT030 BKN090
                      BECMG 3100/3102 2200 BR -RA
                      BECMG 3104/3106 18008KT 3500 HZ=
202008301700 TAF VIDP 301700Z 3018/3103 09008KT 3200 BR SCT030 BKN090
                      BECMG 3100/3102 2500 BR -RA=
202008301400 TAF VIDP 301400Z 3015/3024 09006G16KT 3000 BR FEW030 SCT090
                      BECMG 3017/3019 15012KT 2000 BR -RA
                      TEMPO 3021/3024 FEW035CB=
202008301100 TAF VIDP 301100Z 3012/3021 09008KT 4000 -RA BR SCT030 BKN090
                      BECMG 3017/3019 15008KT 2500 BR -RA FEW030
                       SCT090=
202008300800 TAF VIDP 300800Z 3009/3018 09010KT 4000 HZ BKN025 OVC080
                      BECMG 3009/3014 11015G25KT 1500 TSRA FEW035CB
                       BECMG 3015/3017 13010KT 2000 -RA SCT025
                       BKN080=
202008300500 TAF VIDP 300500Z 3006/3015 09015G25KT 4000 HZ SCT035 BKN100
                      BECMG 3009/3014 11015G25KT 1500 TSRA SCT030
                       FEW040CB BKN090=
202008300200 TAF VIDP 300200Z 3003/3012 09008G18KT BR HZ SCT035 SCT100
                      BECMG 3004/3006 3000 HZ SCT030 BKN090
                      BECMG 3009/3012 15010G25KT 1500 TSRA FEW040CB
                       OVC080=
202008292300 TAF VIDP 292300Z 3000/3009 05006KT 2500 BR SCT040 SCT100
                      BECMG 3004/3006 09008G18KT 3500 HZ -RA SCT035
                       BKN100=
202008292000 TAF VIDP 292000Z 2921/3006 09005KT 2500 BR SCT040 SCT100
                      BECMG 2923/3003 1500 TS FEW040CB BKN080
                      BECMG 3004/3006 09008G18KT HZ -RA SCT035
                       BKN100=
202008291700 TAF VIDP 291700Z 2918/3003 09005KT 2500 BR SCT040 SCT100
                      BECMG 2922/3002 1500 TS FEW040CB BKN080=
202008291400 TAF VIDP 291400Z 2915/2924 07006KT 3500 HZ -RA SCT035 SCT100
                      BECMG 2922/2924 10004KT 2500 BR -RA BKN090=
202008291100 TAF VIDP 291100Z 2912/2921 07006KT 3500 HZ -RA SCT035 FEW040CB
                       SCT100=
202008290800 TAF VIDP 290800Z 2909/2918 09006KT 3500 HZ SCT030 BKN100
                      TEMPO 2911/2915 1500 TSRA FEW035CB
                      BECMG 2916/2918 VRB02KT 2000 BR=
202008290200 TAF VIDP 290200Z 2903/2912 09008KT 1800 BR HZ FEW030 SCT100
                      BECMG 2904/2906 2800 HZ SCT030 BKN090
                      BECMG 2907/2908 4500 HZ
                      TEMPO 2908/2912 FEW035CB=
202008282300 TAF VIDP 282300Z 2900/2909 09008KT 1200 BR -RA FEW030 SCT090
                      BECMG 2903/2906 2000 BR TSRA SCT030 FEW035CB
                       OVC080
                      BECMG 2906/1908 09010G20KT 3500 BR HZ FEW030
                       SCT090=
202008282000 TAF VIDP 282000Z 2821/2906 09008KT 1500 BR -RA SCT030 BKN090
                      TEMPO 2822/2903 FEW035CB
                      BECMG 2904/2905 2500 BR -RA=
202008281700 TAF VIDP 281700Z 2818/2903 09008KT 2200 BR SCT030 BKN090
                      BECMG 2821/2903 1500 BR TSRA FEW035CB OVC080=
202008281400 TAF VIDP 281400Z 2815/2824 VRB02KT 2500 BR SCT030 BKN100
                      TEMPO 2820/2824 1500 TSRA SCT025 FEW035CB
                       BKN090=
202008281100 TAF VIDP 281100Z 2812/2821 07005KT 2500 BR SCT030 BKN090
                      TEMPO 2814/2817 1500 TSRA FEW035CB OVC080
                       BECMG 2820/2821 13006KT 2000 BR SCT030 BKN100=
202008280800 TAF VIDP 280800Z 2809/2818 28008KT 3500 HZ SCT025 BKN080
                      BECMG 2810/2815 32010G20KT 1500 TSRA SCT030
                       FEW035CB OVC080=
202008280500 TAF VIDP 280500Z 2806/2815 27006KT 3500 HZ FEW030 SCT100
                      TEMPO 2809/2815 2000 -TSRA SCT030 FEW035CB
                       BKN090=
202008280200 TAF VIDP 280200Z 2803/2812 25004KT 2500 BR FEW035 SCT100
                      BECMG 2804/2806 29008KT 5000 HZ -RA SCT030
                       BKN090
                      BECMG 2809/2812 2000 -TSRA FEW040CB=
202008272300 TAF VIDP 272300Z 2800/2809 26004KT 3500 BR FEW035 SCT100
                      BECMG 2804/2806 29006KT 5000 HZ SCT030 BKN090
                       BECMG 2807/2809 2000 -TSRA FEW040CB=
202008272000 TAF VIDP 272000Z 2721/2806 00000KT 3000 BR -RA FEW035 SCT100
                      BECMG 2722/2803 27006KT 2000 -TSRASCT030
                       FEW035CB BKN090
                      BECMG 2804/2806 15008KT 4000 -RA HZ=
202008271100 TAF VIDP 271100Z 2712/2721 29006KT 4000 HZ SCT030 BKN100
                      BECMG 2712/2715 2000 -TSRA SCT025 FEW035CB
                       OVC080
                      BECMG 2715/2717 24005KT 3000 BR -RA SCT030
                       SCT090=
202008270800 TAF VIDP 270800Z 2709/2718 27008KT 4000 HZ SCT030 BKN100
                      BECMG 2710/2715 24010G20KT 1500 TSRA SCT030
                       FEW035CB OVC090=
202008270500 TAF VIDP 270500Z 2706/2715 29010KT 4000 HZ SCT030 BKN100
                      BECMG 2708/2710 32010KT 5000
                      TEMPO 2711/2713 2000 TSRA SCT025 FEW035CB
                       BKN090=
202008270200 TAF VIDP 270200Z 2703/2712 25004KT 3500 BR SCT030 BKN100
                      BECMG 2705/2707 32008KT 5000 HZ
                      TEMPO 2710/2712 2000 TSRA SCT025 FEW035CB
                       BKN090=
202008262300 TAF VIDP 262300Z 2700/2709 23004KT 3000 BR -RA SCT030 BKN090
                      BECMG 2704/2706 32008KT 4000 HZ -RA=
202008262000 TAF VIDP 262000Z 2621/2706 0000KT 4000 BR FEW030 SCT100
                      BECMG 2700/2702 23004KT 3000 BR SCT030 BKN090
                       BECMG 2704/2706 32008KT 4000 HZ -RA=
202008261700 TAF VIDP 261700Z 2618/2703 25004KT 4000 BR FEW030 SCT100
                      BECMG 2700/2702 3000 BR SCT030 BKN090=
202008261400 TAF VIDP 261400Z 2615/2624 25007KT 3500 HZ SCT025 SCT090
                      BECMG 2618/2624 FEW040CB
                      BECMG 2622/2624 2500 BR -RA=
202008261100 TAF VIDP 261100Z 2612/2621 24008KT 4000 HZ SCT030 BKN100
                      BECMG 2612/2615 24008G18KT 1500 -TSRA FEW040CB
                       BECMG 2618/2620 29008KT 2000 BR -RA SCT025
                       BKN070=
202008260800 TAF VIDP 260800Z 2609/2618 26010KT 4000 HZ SCT030 BKN080
                      BECMG 2610/2615 24010G20KT 1500 TSRA FEW040CB=
202008260500 TAF VIDP 260500Z 2606/2615 26008KT 3000 HZ SCT025 BKN080
                      BECMG 2609/2615 24010G20KT 1500 TSRA FEW040CB=
202008260200 TAF VIDP 260200Z 2603/2612 26005KT 2500 BR -RA BKN025 OVC080
                      BECMG 2605/2607 29008KT 4000 HZ BR SCT035
                       BKN090
                      BECMG 2609/2612 27010G20KT 1500 TSRA FEW035CB
                       OVC080=
202008252300 TAF VIDP 252300Z 2600/2609 11005KT 2500 BR -RA FEW035 SCT100
                      BECMG 2600/2603 FEW035CB
                      BECMG 2604/2606 23006KT 4000 HZ BR SCT035
                       BKN100=
202008252000 TAF VIDP 252000Z 2521/2606 VRB02KT 3000 BR -RA SCT035 BKN100
                      BECMG 2523/2603 FEW035CB
                      BECMG 2604/2606 23006KT 4000 HZ BR SCT030
                       SCT090=
202008251400 TAF VIDP 251400Z 2515/2524 15005KT 3500 HZ BR SCT035 BKN090
                      BECMG 2519/2524 FEW040CB
                      BECMG 2522/2524 2500 BR -RA=
202008251100 TAF VIDP 251100Z 2512/2521 15008KT 4000 HZ -RA SCT035 FEW040CB
                       BKN090=
202008250800 TAF VIDP 250800Z 2509/2518 13008KT 4500 HZ SCT030 BKN100
                      TEMPO 2511/2513 FEW035CB
                      BECMG 2515/2517 3000 BR DZ=
202008250500 TAF VIDP 250500Z 2506/2515 15008KT 3500 HZ SCT030 BKN100
                      TEMPO 2511/2514 FEW035CB=
202008250200 TAF VIDP 250200Z 2503/2512 12008KT 2500 BR HZ SCT030 BKN 080
                      TEMPO 2504/2506 1200 BR -TSRA FEW035CB OVC080
                       BECMG 2507/2509 18008KT 4000 HZ
                      TEMPO 2509/2512 FEW035CB=
202008242300 TAF VIDP 242300Z 2500/2509 12008KT 2500 BR FEW035 SCT100
                      BECMG 2504/2506 1500 BR -TSRA SCT035 FEW035CB
                       OVC080
                      BECMG 2507/2509 18008KT 4000 HZ SCT030 BKN090=
202008242000 TAF VIDP 242000Z 2421/2506 15008KT 1500 BR -TSRA SCT030 FEW035CB
                       OVC080
                      BECMG 2504/2505 2500 BR FEW025 SCT080=
202008241700 TAF VIDP 241700Z 2418/2503 12004KT 2500 BR FEW030 SCT100
                      BECMG 2422/2503 15008KT 1500 BR -TSRA SCT030
                       FEW035CB OVC080=
202008241400 TAF VIDP 241400Z 2415/2424 14006KT 3000 HZ FEW030 SCT100=
202008241100 TAF VIDP 241100Z 2412/2421 13008KT 3000 HZ SCT030 BKN100
                      TEMPO 2413/2415 FEW035CB
                      BECMG 2418/2420 07006KT 3000 BR FEW030 SCT100=
202008240800 TAF VIDP 240800Z 2409/2418 12008KT 3000 BR -RA SCT025 BKN080
                      BECMG 2410/2415 1500 TSRA FEW035CB OVC080
                       BECMG 2415/2417 14006KT 2500 BR FEW030 SCT100=
202008240500 TAF VIDP 240500Z 2406/2415 11010KT 3000 BR -RA SCT020 BKN080
                      BECMG 2407/2409 14008KT 4000 HZ RA
                      BECMG 2409/2412 1500 TSRA FEW035CB OVC080=
202008240200 TAF VIDP 240200Z 2403/2412 11010KT 3000 BR FEW020 SCT030 OVC080
                       BECMG 2403/2405 12010G20KT 4000 -RA
                      BECMG 2409/2412 1500 TSRA SCT025 FEW035CB
                       BKN090=
202008232300 TAF VIDP 232300Z 2400/2409 09010KT 2500 BR SCT025 BKN090
                      BECMG 2404/2406 13010G20KT 4000 HZ -RA
                      BECMG 2407/2409 1500 TSRA FEW040CB=
202008232000 TAF VIDP 232000Z 2321/2406 09008KT 3000 BR SCT030 SCT100
                      BECMG 2400/2402 2000 BR -RA BKN090
                      BECMG 2404/2406 13008G18KT 4000 BR HZ=
202008230500 TAF VIDP 230500Z 2306/2315 09008G18KT 2800 BR HZ SCT030 BKN090
                       BECMG 2307/2309 4000 HZ
                      BECMG 2308/2312 1000 BR TSRA FEW035CB OVC080
                       BECMG 2313/2314 09008KT 3000 HZ BR=
202008230200 TAF VIDP 230200Z 2303/2312 09008KT 2800 BR SCT030 BKN100
                      BECMG 2305/2307 4000 HZ
                      TEMPO 2310/2312 FEW035CB=
202008222300 TAF VIDP 222300Z 2300/2309 09008KT 3000 BR FEW030 SCT100
                      BECMG 2304/2306 15008KT 5000 HZ=
202008222000 TAF VIDP 222000Z 2221/2306 09008KT 4000 BR SCT100
                      BECMG 2300/2302 3000 BR SCT030 SCT100
                      BECMG 2304/2306 15008KT 5000 HZ=
202008221700 TAF VIDP 221700Z 2218/2303 09008KT 4500 BR FEW030 SCT100
                      BECMG 2300/2302 3000 BR SCT030 BKN100=
202008221400 TAF VIDP 221400Z 2215/2224 09008KT 3500 HZ BR FEW030 SCT090
                      BECMG 2217/2219 2000 BR
                      TEMPO 2221/2224 1000 BR TSRA SCT030 FEW035CB
                       OVC080=
202008220800 TAF VIDP 220800Z 2209/2218 08015G25KT 5000 HZ SCT040 BKN100
                      BECMG 2210/2214 3000 -TSRA SCT030 FEW040CB
                       BKN090
                      BECMG 2215/2217 07007G17KT 2500 BR SCT030
                       BKN090=
202008220500 TAF VIDP 220500Z 2206/2215 08015G25KT 5000 HZ SCT040 BKN100
                      BECMG 2209/2215 2000 TSRA SCT030 FEW040 BKN090=
202008220200 TAF VIDP 220200Z 2203/2212 09005KT 3000 BR FEW100
                      BECMG 2205/2207 14008KT 4000 HZ FEW035 SCT100
                       BECMG 2209/2212 1500 TSRA FEW035CB BKN090=
202008212300 TAF VIDP 212300Z 2200/2209 06005KT 2200 BR RA FEW030 SCT100
                      BECMG 2200/2204 11010G25KT 1500 TSRA SCT025
                       FEW035CB OVC080
                      BECMG 2204/2206 14008KT 4000 HZ -RA SCT030
                       SCT090=
202008212000 TAF VIDP 212000Z 2121/2206 05005KT BR FEW030 SCT100
                      BECMG 2123?2203 09010G25KT 1500 TSRA SCT025
                       FEW035CB OVC080
                      BECMG 2204/2206 11008KT 4000 HZ -RA SCT035
                       SCT090=
202008211700 TAF VIDP 211700Z 2118/2203 07005KT 3000 BR -RA SCT030 FEW035CB
                       BKN090
                      BECMG 2122/2203 09010G25KT 1500 TSRA SCT025
                       FEW035CB OVC080=
202008211400 TAF VIDP 211400Z 2115/2124 10006KT 3000 BR -RA SCT030 FEW035CB
                       BKN090
                      BECMG 2116/2123 09010G25KT 1500 -TSRA OVC090=
202008211100 TAF VIDP 211100Z 2112/2121 10008G18KT 4000 HZ -RA SCT030 FEW035CB
                       BKN100
                      BECMG 2114/2118 09010G25KT 2500 -TSRA SCT025
                       FEW030CB BKN090=
202008210800 TAF VIDP 210800Z 2109/2118 09010KT 5000 HZ SCT030 BKN100
                      TEMPO 2110/2113 FEW035CB
                      BECMG 2115/2117 3000 HZ -RA=
202008210200 TAF VIDP 210200Z 2103/2112 09008KT 2500 BR FEW035 SCT090
                      BECMG 2105/2107 3500 HZ SCT030 BKN090
                      TEMPO 2109/2112 FEW035CB=
202008202300 TAF VIDP 202300Z 2100/2109 09008KT 1500 BR TSRA SCT025 FEW035CB
                       OVC080
                      BECMG 2104/2106 2500 BR HZ FEW030 SCT090
                       BECMG 2107/2108 3500 HZ SCT030 BKN090=
202008202000 TAF VIDP 202000Z 2021/2106 09006KT 1500 BR TSRA SCT025 FEW035CB
                       OVC080
                      BECMG 2104/2105 2500 BR HZ FEW030 SCT090=
202008201700 TAF VIDP 201700Z 2018/2103 09006KT 2000 BR SCT030 BKN090
                      BECMG 2021/2103 1200 BR TSRA FEW035CB OVC080=
202008201400 TAF VIDP 201400Z 2015/2024 09008KT 2500 BR -RA SCT030 BKN100
                      TEMPO 2021/2024 12008G18KT 1500 TSRA FEW035CB=
202008201100 TAF VIDP 201100Z 2012/2021 06006KT 2500 BR -RA SCT030 OVC080=
202008200800 TAF VIDP 200800Z 2009/2018 12006KT 2500 BR SCT030 BKN080
                      TEMPO 2009/2015 15010G25KT 1500 TSRA FEW030CB
                       OVC080
                      BECMG 2015/2017 14006KT 2000 BR -RA SCT030
                       BKN090=
202008200500 TAF VIDP 200500Z 2006/2015 13007KT 2500 DZ RA SCT020 OVC080
                      TEMPO 2009/2015 14010KT 1000 TSRA FEW035CB
                       OVC080=
202008200200 TAF VIDP 200200Z 2003/2012 10006KT 1000 SHRA SCT025 FEW035CB OVC080
                       BECMG 2008/2010 15010KT 3000 BR RA=
202008192300 TAF VIDP 192300Z 2000/2009 10008G18KT 0800 TSRA SCT025 FEW035CB
                       OVC080
                      BECMG 2004/2006 09008KT 1200 RA BR SCT030
                       BKN080
                      BECMG 2007/2009 13010KT 1000 TSRA FEW040CB=
202008192000 TAF VIDP 192000Z 1921/2006 07005KT 1000 BR -RA SCT030 BKN080
                      BECMG 1921/2004 13010G20KT 0800 TSRA FEW035CB
                       OVC080=
202008191700 TAF VIDP 191700Z 1918/2003 09005KT 2000 BR -RA SCT030 BKN090
                      BECMG 1922/2003 13010G20KT 1000 TSRA FEW035CB
                       OVC080=
202008191400 TAF VIDP 191400Z 1915/1924 12005KT 2000 BR BKN020 OVC080
                      BECMG 1915/1917 23010G20KT 1500 -TSRA SCT030
                       FEW035CB BKN090
                      BECMG 1920/1922 14006KT 2500 BR -RA SCT030
                       BKN080=
202008190800 TAF VIDP 190800Z 1909/1918 14010KT 3000 -TSRA FEW010 BKN020 FEW025CB
                       OVC080
                      BECMG 1910/1914 14010G20KT 1500 TSRA
                      BECMG 1915/1917 18010KT 2500 BR -RA SCT030
                       FEW035CB BKN090=
202008190500 TAF VIDP 190500Z 1906/1915 20008G18 0800 +TSRA FEW010 SCT020 FEW025CB
                       BKN080
                      BECMG 1908/1915 14008G18KT 2000 -TSRA FEW020
                       SCT030 FEW035CB BKN090=
202008190200 TAF VIDP 190200Z 1903/1912 15007KT 3000 BR -RA SCT030 BKN090
                      TEMPO 1904/1907 2000 -TSRA SCT025 FEW035CB
                       OVC090
                      BECMG 1908/1910 29005KT 4000 HZ=
202008182300 TAF VIDP 182300Z 1900/1909 23004KT 3000 BR -RA SCT030 BKN090
                      TEMPO 1902/1905 2000 TSRA SCT025 FEW035CB
                       OVC090
                      BECMG 1906/1908 29007KT 3500 HZ SCT030 SCT100=
202008182000 TAF VIDP 182000Z 1821/1906 29004KT 3500 BR SCT030 SCT100
                      TEMPO 1823/1902 2000 -TSRA SCT025 FEW035CB
                       BKN090
                      BECMG 1904/1906 29007KT 4000 HZ=
202008181700 TAF VIDP 181700Z 1818/1903 27005KT 4000 BR FEW030 SCT100
                      BECMG 1900/1902 VRB02KT 3000 BR -RA SCT030
                       BKN100=
202008181400 TAF VIDP 181400Z 1815/1824 24005KT 4000 BR FEW030 FEW035CB SCT100
                       BECMG 1815/1817 24010G20KT 1500 -TSRA SCT030
                       FEW035CB BKN090
                      BECMG 1820/1822 14010KT 2500 BR -RA SCT030
                       FEW035CB BKN100=
202008180800 TAF VIDP 180800Z 1809/1818 13006KT 3500 HZ SCT030 BKN090
                      BECMG 1809/1814 26010G20KT 1500 TSRA FEW040CB
                       BECMG 1815/1817 26006KT 2500 BR -RA SCT030
                       BKN090=
202008180500 TAF VIDP 180500Z 1806/1815 16006KT 3000 HZ SCT035 BKN100
                      BECMG 1808/1812 29008G18KT 1500 TSRA SCT030
                       FEW040CB BKN090
                      BECMG 1813/1815 26006KT 2500 BR SCT030 BKN090=
202008180200 TAF VIDP 180200Z 1803/1812 14005KT 2500 BR SCT030 BKN100
                      BECMG 1805/1807 11008KT 3500 HZ FEW030 SCT100
                       BECMG 1809/1812 1500 TSRA FEW035CB BKN080=
202008172000 TAF VIDP 172000Z 1721/1806 VRB02KT 2500 BR -RA SCT030 BKN090
                      BECMG 1723/1803 16010G20KT 1500 TSRA FEW035CB
                       OVC080
                      BECMG 1804/1806 14008KT 3500 HZ FEW030 SCT090=
202008171700 TAF VIDP 171700Z 1718/1803 12005KT 2200 BR -RA SCT030 BKN080
                      BECMG 1722/1803 16010G20KT 1500 TSRA FEW035CB
                       OVC080=
202008171400 TAF VIDP 171400Z 1715/1724 07005KT 2000 BR SCT030 BKN080
                      BECMG 1721/1724 16010G20KT 1500 TSRA FEW035CB
                       OVC080=
202008171100 TAF VIDP 171100Z 1712/1721 14007KT 2500 BR -RA SCT030 BKN080
                      BECMG 1712/1715 TS FEW035CB OVC080
                      BECMG 1718/1720 11008KT 2000 BR=
202008162000 TAF VIDP 162000Z 1621/1706 12008KT 2500 BR SCT030 BKN080
                      BECMG 1621/1703 15010G20KT 1500 -TSRA FEW035CB
                       OVC080
                      BECMG 1704/1705 2500 BR HZ FEW030 SCT090=
202008161700 TAF VIDP 161700Z 1618/1703 12008KT 3000 BR FEW030 SCT080
                      BECMG 1621/1703 15010G20KT 1500 -TSRA SCT035
                       FEW035CB OVC080=
202008161400 TAF VIDP 161400Z 1615/1624 12005KT 3000 HZ SCT030 BKN100
                      TEMPO 1620/1624 1500 TSRA FEW030CB=
202008161100 TAF VIDP 161100Z 1612/1621 13005KT 4000 HZ SCT030 BKN100
                      TEMPO 1616/1619 1500 TSRA FEW030CB
                      BECMG 1619/1621 2500 BR=
202008160800 TAF VIDP 160800Z 1609/1618 11006KT 3500 BR -RA SCT030 FEW035CB
                       BKN090
                      BECMG 1609/1615 16008G18KT 1500 TSRA FEW035CB
                       OVC080
                      BECMG 1615/1617 09005KT 3000 HZ BR FEW030
                       SCT090=
202008160500 TAF VIDP 160500Z 1606/1615 14006KT 3500 HZ BR SCT030 BKN100
                      BECMG 1608/1610 11008KT 5000 HZ FEW030 SCT100
                       BECMG 1609/1615 16008G18KT 2000 TSRA FEW035CB
                       OVC080=
202008160200 TAF VIDP 160200Z 1603/1612 10006KT 2500 BR SCT030 BKN100
                      BECMG 1605/1607 14008KT 3500 HZ SCT030 BKN090
                       BECMG 1609/1612 16007G17KT 2000 -TSRA FEW040CB=
202008152300 TAF VIDP 152300Z 1600/1609 07008KT 2500 BR SCT030 BKN090
                      BECMG 1601/1605 11007G17KT 1500 -TSRA FEW040CB
                       BECMG 1605/1607 14008KT 3500 HZ SCT030 BKN100
                       BECMG 1607/1609 16007G17KT 2000 -TSRA FEW040CB
                       BKN090=
202008152000 TAF VIDP 152000Z 1521/1606 13005KT 2500 BR SCT030 SCT100
                      BECMG 1523/1603 14010G25KT 1500 TSRA FEW035CB
                       BKN080
                      BECMG 1603/1605 14008KT 3000 HZ SCT035 BKN100=
202008151700 TAF VIDP 151700Z 1518/1603 13005KT 3000 BR SCT030 BKN100
                      BECMG 1523/1603 14010G25KT 1500 TSRA FEW035CB
                       BKN080=
202008151400 TAF VIDP 151400Z 1515/1524 12008KT 3500 HZ SCT030 SCT100
                      BECMG 1520/1524 15015G25KT 1500 TSRA FEW035CB
                       OVC080=
202008151100 TAF VIDP 151100Z 1512/1521 12007KT 4000 HZ SCT030 SCT090
                      TEMPO 1512/1515 14015G25KT 1500 TSRA FEW035CB
                       OVC080
                      BECMG 1517/1519 2500 BR RA=
202008150800 TAF VIDP 150800Z 1509/1518 10010KT 4000 HZ SCT025 BKN090
                      BECMG 1509/1512 15015G25KT 1000 TSRA FEW035CB
                       OVC080
                      BECMG 1515/1517 2500 HZ BR FEW025 SCT100=
202008150500 TAF VIDP 150500Z 1506/1515 10008KT 3500 HZ SCT030 BKN090
                      BECMG 1508/1512 15015G25KT 1000 TSRA FEW035CB
                       OVC080
                      BECMG 1513/1514 2800 HZ BR=
202008150200 TAF VIDP 150200Z 1503/1512 11007KT 2200 BR SCT030 SCT100
                      BECMG 1505/1507 3500 HZ
                      TEMPO 1510/1512 2000 TSRA SCT025 FEW035CB
                       BKN090=
202008142300 TAF VIDP 142300Z 1500/1509 11006KT 2000 BR -RA SCT030 BKN090
                      TEMPO 1504/1506 3500 BR HZ=
202008142000 TAF VIDP 142000Z 1421/1506 09005KT 2500 BR SCT030 SCT100
                      TEMPO 1423/1502 1500 -TSRA SCT025 FEW035CB
                       BKN090
                      BECMG 1503/1505 15005KT 3500 HZ SCT035 BKN100=
202008141700 TAF VIDP 141700Z 1418/1503 09005KT 2500 BR -RA SCT030 BKN100
                      TEMPO 1422/1502 1500 -TSRA SCT025 FEW035CB
                       BKN090=
202008141400 TAF VIDP 141400Z 1415/1424 09008KT 2500 BR SCT025 BKN080
                      BECMG 1420/1424 15015G25KT 1000 TSRA FEW035CB
                       OVC080=
202008141100 TAF VIDP 141100Z 1412/1421 09008KT 3500 HZ SCT025 BKN080
                      TEMPO 1412/1415 15010G20KT 1000 TSRA FEW035CB
                       OVC080
                      BECMG 1417/1419 2500 BR RA=
202008140800 TAF VIDP 140800Z 1409/1418 09007KT 3000 HZ BKN030 OVC080
                      BECMG 1409/1414 11007G17KT 1500 -TSRA FEW040CB
                       BECMG 1415/1417 13008KT 2000 -RA BR SCT025
                       BKN080=
202008140500 TAF VIDP 140500Z 1406/1415 08010KT 2000 BR FEW015 BKN025 OVC080
                       BECMG 1407/1413 11008G18KT 1500 TSRA FEW035CB
                       BECMG 1413/1415 13008KT 2000 -RA SCT020
                       BKN080=
202008140200 TAF VIDP 140200Z 1403/1412 09005KT 2500 BR -RA SCT030 BKN090
                      BECMG 1405/1407 12008KT 3500 HZ BR FEW030
                       SCT090
                      BECMG 1408/1412 11010G20KT 1500 TSRA SCT030
                       FEW035CB OVC080=
202008131100 TAF VIDP 131100Z 1312/1321 07008KT 2200 BR -RA BKN030 OVC080
                      TEMPO 1312/1316 1000 TSRA FEW035CB
                      BECMG 1318/1320 09006KT 2000 BR SCT030 BKN080=
202008130800 TAF VIDP 130800Z 1309/1318 06005KT 1500 TSRA DZ BKN030 FEW035CB
                       OVC080
                      BECMG 1315/1317 11003KT 2000 BR -RA SCT030
                       BKN100=
202008120800 TAF VIDP 120800Z 1209/1218 32008KT 4000 HZ SCT030 SCT100
                      TEMPO 1209/1212 32010G20KT 1500 TSRA SCT030
                       FEW035 BKN080
                      BECMG 1215/1217 27005KT 3000 HZ SCT030 SCT100=
202008120200 TAF VIDP 120200Z 1203/1212 26005KT 2500 BR SCT030 BKN090
                      BECMG 1205/1207 27008KT 3000 BR
                      BECMG 1209/1212 27007G17KT 1500 TSRA FEW040CB=
202008112300 TAF VIDP 112300Z 1200/1209 27007G17KT 2500 BR SCT030 BKN090
                      BECMG 1203/1205 27008KT 3000 BR -RA
                      BECMG 1207/1209 27010G20KT 1500 TSRA FEW035CB=
202008112000 TAF VIDP 112000Z 1121/1206 23006KT 2000 BR SCT040 BKN100
                      BECMG 1123/1203 27010G20KT 1000 TSRA SCT030
                       FEW035CB OVC080
                      BECMG 1203/1205 27008KT 3000 HZ SCT035 BKN100=
202008111700 TAF VIDP 111700Z 1118/1203 25004KT 2200 BR SCT030 BKN100
                      BECMG 1121/1203 27010G20KT 1000 TSRA FEW035CB
                       OVC080=
202008111400 TAF VIDP 111400Z 1115/1124 180004KT 2500 BR SCT030 BKN100
                      TEMPO 1118/1122 23010G20KT 2000 TSRA SCT030
                       FEW035CB OVC080=
202008110800 TAF VIDP 110800Z 1109/1118 29006KT 3000 HZ SCT030 FEW035CB BKN100
                       BECMG 1109/1112 24010G20KT 1500 TSRA SCT030
                       FEW035CB OVC080
                      BECMG 1115/1118 27005KT 3000 BR -RA BKN100=
202008110500 TAF VIDP 110500Z 1106/1115 27004KT 2200 BR SCT035 BKN100
                      BECMG 1108/1112 24010G20KT 1200 TSRA SCT030
                       FEW035CB OVC080=
202008101700 TAF VIDP 101700Z 1018/1103 15005KT 2800 BR -RA SCT035 BKN100
                      TEMPO 1021/1102 1500 TSRA SCT030 FEW035CB
                       OVC080=
202008101400 TAF VIDP 101400Z 1015/1024 15008KT 2200 BR-RA SCT030 FEW035CB BKN100
                       BECMG 1018/1022 15008G18KT 2000 TSRA -RA
                       SCT030 FEW035CB OVC080=
202008101100 TAF VIDP 101100Z 1012/1021 13008G18KT 3000 HZ -RA SCT030 FEW035CB
                       BKN100
                      BECMG 1012/1015 12010G20KT TSRA -RA SCT030
                       FEW035CB BKN080
                      BECMG 1018/1020 12008KT 2500 BR SCT025 BKN090=
202008100800 TAF VIDP 100800Z 1009/1018 09010KT 2500 HZ SCT030 BKN090
                      BECMG 1009/1015 12015G25KT 1500 TSRA FEW040CB
                       BECMG 1016/1018 12008KT 2500 BR SCT030 BKN090=
202008100500 TAF VIDP 100500Z 1006/1015 12004KT 2000 BR SCT030 OVC090
                      BECMG 1007/1009 13008KT 3000 BR
                      BECMG 1009/1015 13008G18KT 1500 -TSRA SCT025
                       FEW035CB BKN080=
202008100200 TAF VIDP 100200Z 1003/1012 11005KT 3000 BR FEW030 SCT100
                      BECMG 1006/1008 14008KT 4000 HZ -RA SCT030
                       BKN090
                      BECMG 1008/1012 1500 TSRA FEW035CB OVC080=
202008092300 TAF VIDP 092300Z 1000/1009 09005KT 2500 BR RA SCT030 BKN090
                      BECMG 1000/1004 15010G25KT 1500 TSRA FEW035CB
                       OVC080
                      BECMG 1004/1006 11006KT 3000 HZ BR FEW030
                       SCT100
                      BECMG 1006/1008 14010KT 4000 HZ -RA SCT030
                       BKN090=
202008092000 TAF VIDP 092000Z 0921/1006 VRB02KT 3000 BR SCT030 BKN090
                      BECMG 0922/1003 15010G25KT 1500 TSRA FEW035CB
                       OVC080
                      BECMG 1004/1006 09006KT 3500 HZ SCT035 SCT100=
202008091700 TAF VIDP 091700Z 0918/1003 11005KT 3000 BR -RA SCT030 FEW035CB
                       BKN090
                      BECMG 0920/0922 14006KT 2200 BR RA FEW035
                       SCT090
                      BECMG 0922/1003 15010G25KT 1500 TSRA FEW035CB
                       OVC080=
202008091400 TAF VIDP 091400Z 0915/0924 13008KT 3000 BR -RA SCT030 OVC080
                      BECMG 0920/0924 15010G25KT 1500 -TSRA FEW035CB=
202008091100 TAF VIDP 091100Z 0912/0921 13010KT 2500 BR -TSRA SCT025 FEW030CB
                       OVC080
                      BECMG 0916/0918 15006KT 2000 BR -RA SCT030
                       BKN090=
202008090800 TAF VIDP 090800Z 0909/0918 32005KT 3500 HZ -RA SCT030 BKN090
                      TEMPO 0910/0913 2000 TSRA SCT025 FEW035CB
                       OVC080
                      BECMG 0915/0917 05005KT 3000 HZ SCT035 SCT100=
202008090500 TAF VIDP 090500Z 0906/0915 29006KT 4000 HZ SCT035 SCT100
                      TEMPO 0910/0914 2000 -TSRA SCT030 FEW035CB
                       BKN090=
202008090200 TAF VIDP 090200Z 0903/0912 27008KT 2800 BR SCT030 BKN080
                      BECMG 0905/0907 4000 HZ
                      BECMG 0907/0912 24015G25KT 1000 TSRA FEW035CB
                       OVC080=
202008082300 TAF VIDP 082300Z 0900/0909 34006KT 2000 BR -RA SCT030 BKN080
                      BECMG 0900/0903 FEW040CB
                      BECMG 0904/0906 3500 HZ
                      BECMG 0907/0909 09008KT 4500 HZ=
202008082000 TAF VIDP 082000Z 0821/0906 26006KT 2000 BR SCT030 BKN090
                      BECMG 0821/0903 FEW040CB
                      BECMG 0904/0905 09008KT 3500 HZ=
202008081700 TAF VIDP 081700Z 0818/0906 15006KT 2500 BR FEW030 SCT090
                      BECMG 0821/0903 SCT030 BKN090 FEW040CB
                      BECMG 0904/0906 09008KT 3500 HZ=
202008081400 TAF VIDP 081400Z 0815/0824 27005KT 3200 HZ SCT035 SCT100
                      TEMPO 0819/0822 2000 TSRA SCT030 FEW035CB
                       BKN090=
202008081100 TAF VIDP 081100Z 0812/0821 21005KT 3500 HZ -TSRA SCT030 FEW035CB
                       BKN090
                      BECMG 0815/0817 27005KT 3000 HZ SCT035 BKN100=
202008080800 TAF VIDP 080800Z 0809/0818 09005KT 4000 HZ -RA FEW035 SCT090
                      BECMG 0810/0815 2000 -TSRA FEW040CB OVC080
                       BECMG 0815/0817 12006KT 3000 HZ SCT030 BKN100=
202008080200 TAF VIDP 080200Z 0803/0812 13006KT 3000 BR FEW030 SCT100
                      BECMG 0805/0807 16008KT 4000 HZ SCT030 BKN090
                       BECMG 0809/0812 2000 -TSRA FEW040CB=
202008072300 TAF VIDP 072300Z 0800/0809 13006KT 2500 BR FEW030 SCT090
                      BECMG 0803/0805 3000 -RA BR SCT030 BKN090
                       BECMG 0807/0809 16008KT 4000 HZ=
202008072000 TAF VIDP 072000Z 0721/0806 13005KT 3000 BR SCT030 SCT100
                      BECMG 0723/0801 11008KT 2000 -RA BR
                      BECMG 0800/0806 FEW035CB
                      BECMG 0804/0806 15010KT 3000 -RA HZ=
202008071700 TAF VIDP 071700Z 0718/0803 14005KT 3000 HZ SCT030 BKN090
                      BECMG 0723/0803 11008KT 2000 -RA BR
                      BECMG 0800/0803 FEW035CB=
202008071400 TAF VIDP 071400Z 0715/0724 11006KT 3500 HZ -RA SCT030 FEW035CB
                       SCT090
                      BECMG 0715/0718 12015G25KT 1500 TSRA FEW040CB
                       BKN080
                      BECMG 0720/0722 14008KT 2500 BR FEW030 SCT100=
202008071100 TAF VIDP 071100Z 0712/0721 11008KT 4000 HZ SCT030 SCT090
                      BECMG 0712/0715 12015G25KT 1500 TSRA FEW035CB
                       BKN090
                      BECMG 0720/0721 14006KT 3000 HZ FEW030 SCT100=
202008070800 TAF VIDP 070800Z 0709/0718 13012KT 4500 HZ SCT030 BKN090
                      TEMPO 0709/0712 FEW040CB
                      BECMG 0715/0717 2500 HZ BR=
202008070500 TAF VIDP 070500Z 0706/0715 14008G18KT 3000 HZ SCT030 BKN090
                      BECMG 0707/0709 13010KT 4500 HZ
                      TEMPO 0709/0712 FEW040CB
                      BECMG 0713/0714 3500 HZ=
202008070200 TAF VIDP 070200Z 0703/0712 11008G18KT 3200 BR -RA SCT035 BKN100
                       BECMG 0705/0707 11008KT 5000 HZ
                      TEMPO 0709/0712 2000 TSRA SCT030 FEW035CB
                       BKN090=
202008052300 TAF VIDP 052300Z 0600/0609 09005KT 2000 BR RA FEW030 SCT090
                      BECMG 0600/0604 11010G25KT TSRA SCT030 FEW035CB
                       BKN080
                      BECMG 0605/0607 14008KT 3000 HZ -RA SCT030
                       BKN100=
202008051700 TAF VIDP 051700Z 0518/0603 07005KT 2500 BR SCT035 BKN100
                      BECMG 0523/0603 09010G20KT 1500 TSRA SCT030
                       FEW035CB OVC080=
202008051400 TAF VIDP 051400Z 0515/0524 09005KT 2500 BR SCT040 BKN090
                      BECMG 0520/0522 1800 BR -RA=
202008050500 TAF VIDP 050500Z 0506/0515 09010G20KT 3000 -TSRA HZ SCT030 BKN090
                       BECMG 0508/0510 09008KT 4000 HZ SCT035 BKN100
                       TEMPO 0511/0514 2000 -TSRA SCT030 FEW035CB
                       BKN090=
202008050200 TAF VIDP 050200Z 0503/0512 13008KT 2500 BR HZ FEW035 SCT100
                      BECMG 0507/0509 4500 HZ SCT035 BKN090
                      BECMG 0508/0512 24020G30KT 1000 TSRA FEW040CB
                       OVC080=
202008042300 TAF VIDP 042300Z 0500/0509 13008KT 1800 BR RA
                      TEMPO 0500/0503 FEW040CB
                      BECMG 0504/0505 2500 BR HZ
                      BECMG 0507/0509 4500 HZ SCT035 BKN090 SCT035
                       BKN090=
202008042000 TAF VIDP 042000Z 0421/0506 15008KT 2000 BR FEW035 SCT090
                      BECMG 0421/0503 FEW040CB
                      BECMG 0504/0505 2500 BR HZ=
202008041700 TAF VIDP 041700Z 0418/0503 15006KT 2500 HZ BR SCT100
                      BECMG 0421/0423 1800 BR FEW035 SCT090
                      TEMPO 0422/0424 FEW040CB=
202008040800 TAF VIDP 040800Z 0409/0418 34005KT 3500 HZ SCT035 BKN090
                      TEMPO 0409/0415 24015G25KT 1500 TSRA FEW040CB
                       OVC080
                      BECMG 0415/0417 27006KT 2500 HZ BR=
202008040500 TAF VIDP 040500Z 0406/0415 27006KT 3500 HZ SCT035 BKN100
                      TEMPO 0409/0415 23015G25KT 1500 TSRA FEW040CB
                       OVC080=
202008021700 TAF VIDP 021700Z 0218/0303 VRB02KT 3500 BR FEW040 SCT100
                      TEMPO 0222/0302 2000 TSRA SCT030 FEW035CB
                       BKN090=
202008012300 TAF VIDP 012300Z 0200/0209 11005KT 2000BR -RA SCT030 FEW035CB BKN100
                       BECMG 0200/0203 1500 TSRA FEW040CB OVC080
                       BECMG 0204/0206 27008KT 3500 HZ SCT035 SCT100=

###################################
#  large TAF from VIDP
###################################
202008312300 TAF VIDP 312300Z 0100/0206 17005KT 3000 BR FEW040 SCT100
                      BECMG 0104/0106 23010KT 5000 HZ SCT040 BKN100
                       BECMG 0108/0112 2000 -TSRA SCT030 FEW040CB
                       BKN090
                      BECMG 0115/0117 26006KT 3000 HZ SCT030 BKN090
                       BECMG 0122/0203 18006KT 2000 -TSRA FEW040CB
                       BECMG 0204/0206 3500 -RA SCT025 BKN080=
202008311700 TAF VIDP 311700Z 3118/0124 15005KT 3000 BR FEW100
                      BECMG 0100/0102 18003KT 2000 BR SCT100
                      BECMG 0103/0105 5000 HZ -RA SCT030
                      BECMG 0106/0112 FEW035CB BKN100
                      BECMG 0115/0117 15005KT 3000 BR -RA=
202008311100 TAF VIDP 311100Z 3112/0118 13008KT 4000 HZ SCT030 BKN100
                      TEMPO 0112/0115 FEW040CB
                      BECMG 3118/3120 16005KT 3000 BR SCT030 SCT100
                       BECMG 0100/0102 2200 BR -RA
                      BECMG 0103/0105 21008KT 5000 HZ SCT035 BKN100
                       TEMPO 0109/0112 FEW040CB
                      BECMG 0115/0117 3500 HZ BR=
202008310500 TAF VIDP 310500Z 3106/0112 15008KT 5000 BR HZ SCT030 BKN090
                      TEMPO 3109/3112 FEW035CB
                      BECMG 3114/3116 3500 HZ BR FEW030 SCT100
                       BECMG 0100/0102 24008KT 1800 BR -RA SCT090
                       BECMG 0103/0105 3500 BR HZ FEW030 SCT080
                       BECMG 0106/0108 5000 HZ
                      TEMPO 0109/0112 FEW040CB=
202008302300 TAF VIDP 302300Z 3100/0106 15006KT 2200 BR -RA SCT030 BKN090
                      BECMG 3104/3106 15007G17KT 4000 HZ
                      TEMPO 3109/3115 2000 -TSRA SCT025 FEW035CB
                       OVC080
                      BECMG 3120/3122 18006KT 2500 BR SCT030 SCT100
                       BECMG 0103/0105 24006KT 3000 BR HZ=
202008301700 TAF VIDP 301700Z 3018/3124 09008KT 3200 BR SCT030 BKN090
                      BECMG 3100/3102 2500 BR -RA
                      BECMG 3104/3106 15010KT 4000 HZ
                      TEMPO 3109/3115 2000 -TSRA SCT025 FEW035CB
                       OVC090
                      BECMG 3119/3121 15004KT 3000 BR SCT030 SCT100=
202008301100 TAF VIDP 301100Z 3012/3118 09008KT 4000 -RA BR SCT030 BKN090
                      BECMG 3017/3019 15008KT 2500 BR -RA FEW030
                       SCT090
                      BECMG 3021/3103 1200 BR -TSRA FEW035CB OVC080
                       BECMG 3104/3106 2500 BR -RA SCT030 BKN090
                       BECMG 3107/3109 4000 -RA HZ
                      TEMPO 3109/3112 FEW035CB
                      BECMG 3115/3117 2500 BR -RA FEW030 SCT080=
202008300500 TAF VIDP 300500Z 3006/3112 09015G25KT 4000 HZ SCT035 BKN100
                      BECMG 3009/3014 11015G25KT 1500 TSRA SCT030
                       FEW040CB BKN090
                      BECMG 3018/3020 13010G20KT 2000 -RA SCT030
                       BKN090
                      BECMG 3022/3103 16015G25KT 3000 -TSRA FEW040CB
                       BECMG 3104/3106 18010G20KT 4000 HZ SCT030
                       BKN090
                      BECMG 3109/3112 2000 -TSRA FEW040CB=
202008292300 TAF VIDP 292300Z 3000/3106 05006KT 2500 BR SCT040 SCT100
                      BECMG 3004/3006 09008G18KT 3500 HZ -RA SCT035
                       BKN100
                      BECMG 3009/3014 14010G20KT 1500 TSRA FEW040CB
                       OVC080
                      BECMG 3015/3017 11008KT 3000 HZ BR
                      BECMG 3022/3103 12008KT 2000 -TSRA FEW040CB
                       BECMG 3104/3106 13006KT 4000 HZ SCT030 BKN090=
202008291700 TAF VIDP 291700Z 2918/3024 09005KT 2500 BR SCT040 SCT100
                      BECMG 2922/3002 1500 TS FEW040CB BKN080
                      BECMG 3004/3006 09008G18KT 3500 HZ -RA SCT035
                       BKN100
                      BECMG 3008/3014 11010G25KT 1500 TSRA FEW040CB
                       OVC080
                      BECMG 3015/3017 09008KT 3000 HZ BR=
202008291100 TAF VIDP 291100Z 2912/3018 07006KT 3500 HZ -RA SCT035 FEW040CB
                       SCT100
                      BECMG 3000/3002 10005KT 2500 BR -RA BKN100
                       BECMG 3004/3006 09008G18KT 4000 HZ -RA
                      BECMG 3009/3015 08015G30KT 1500 TSRA SCT030
                       FEW035CB OVC080=
202008290500 TAF VIDP 290500Z 2906/3012 11006KT 3000 HZ FEW040 SCT100
                      TEMPO 2911/2915 1500 TSRA SCT030 FEW035CB
                       BKN100
                      BECMG 2916/2918 VRB02KT 2000 BR SCT030 BKN100
                       TEMPO 2922/3002 1500 TSRA FEW035CB
                      BECMG 3004/3006 11008G18KT 3500 HZ
                      TEMPO 3008/3012 25010G20KT 1500 TSRA SCT025
                       FEW030CB OVC080=
202008282300 TAF VIDP 282300Z 2900/3006 09008KT 1200 BR -RA FEW030 SCT090
                      BECMG 2903/2906 2000 BR TSRA SCT030 FEW035CB
                       OVC080
                      BECMG 2906/1908 09010G20KT 3500 BR HZ FEW030
                       SCT090
                      TEMPO 2909/2912 FEW035CB
                      BECMG 2913/2915 2500 BR -RA
                      BECMG 2918/2922 11010KT 1200 BR TSRA SCT030
                       FEW035CB OVC080
                      BECMG 3004/3005 09008KT 2500 BR -RA FEW030
                       SCT090=
202008281700 TAF VIDP 281700Z 2818/2924 09008KT 2200 BR SCT030 BKN090
                      BECMG 2821/2903 1500 BR TSRA FEW035CB OVC080
                       BECMG 2904/2906 2500 BR -RA
                      BECMG 2907/2909 3500 BR HZ FEW030 SCT090
                       TEMPO 2909/2912 FEW035CB
                      BECMG 2913/2915 2500 BR -RA
                      BECMG 2918/2922 11008G18KT 1200 BR TSRA SCT030
                       FEW035CB OVC080=
202008281100 TAF VIDP 281100Z 2812/2918 07005KT 2500 BR SCT030 BKN090
                      TEMPO 2814/2817 1500 TSRA FEW035CB OVC080
                       BECMG 2820/2822 13006KT 2000 BR SCT030 BKN100
                       TEMPO 2823/2903 1200 TSRA SCT025 FEW035CB
                       BKN090
                      BECMG 2905/2907 13007KT 3000 HZ SCT030 BKN100
                       TEMPO 2909/2915 23010G20KT 1500 TSRA SCT025
                       FEW035CB BKN090=
202008280500 TAF VIDP 280500Z 2806/2912 27006KT 3500 HZ FEW030 SCT100
                      TEMPO 2809/2815 2000 -TSRA SCT030 FEW035CB
                       BKN090
                      BECMG 2815/2817 32006KT 3000 BR BKN090
                      BECMG 2821/2903 14008KT 2000 -TSRA FEW035CB
                       BECMG 2904/2906 15006KT 3500 HZ SCT030 BKN090
                       BECMG 2906/2908 29008KT 4000 HZ SCT030 BKN100
                       TEMPO 2908/2912 FEW040CB=
202008272300 TAF VIDP 272300Z 2800/2906 26004KT 3500 BR FEW035 SCT100
                      BECMG 2804/2806 29006KT 5000 HZ SCT030 BKN090
                       BECMG 2809/2812 2000 -TSRA FEW040CB
                      BECMG 2815/2817 32006KT 3000 BR SCT030 BKN090
                       BECMG 2822/2903 11008KT 2000 -TSRA FEW040CB
                       BECMG 2904/2906 13006KT 4000 HZ SCT030 BKN090=
202008271700 TAF VIDP 271700Z 2718/2824 14003KT 3500 BR -RA FEW035 SCT100
                      BECMG 2722/2803 27006KT 2000 -TSRA SCT030
                       FEW035CB BKN090
                      BECMG 2804/2806 15008KT 4000 -RA HZ SCT035
                       SCT100
                      BECMG 2815/2817 16003KT 3000 HZ BR
                      BECMG 2821/2824 18010G25KT 2000 -TSRA SCT030
                       FEW035CB BKN090=
202008271101 TAF VIDP 271101Z 2712/2818 29006KT 4000 HZ SCT030 BKN100
                      BECMG 2712/2715 2000 -TSRA SCT025 FEW035CB
                       OVC080
                      BECMG 2715/2717 24005KT 3000 BR -RA SCT030
                       SCT090
                      BECMG 2720/2724 1500 TSRA SCT025 FEW035CB
                       BKN080
                      BECMG 2801/2803 23008KT 2500 BR SCT030 SCT100
                       BECMG 2806/2808 29010KT 4000 HZ SCT035 BKN100
                       BECMG 2810/2814 29010G20KT 1500 TSRA SCT025
                       FEW035CB OVC080=
202008271100 TAF VIDP 271100Z 2712/2721 29006KT 4000 HZ SCT030 BKN100
                      BECMG 2712/2715 2000 -TSRA SCT025 FEW035CB
                       OVC080
                      BECMG 2715/2717 24005KT 3000 BR -RA SCT030
                       SCT090=
202008270500 TAF VIDP 270500Z 2706/2812 29010KT 4000 HZ SCT030 BKN100
                      BECMG 2708/2710 32010KT 5000
                      TEMPO 2711/2713 2000 TSRA SCT025 FEW035CB
                       BKN090
                      BECMG 2715/2718 24005KT 3000 BR -RA BKN090
                       BECMG 2720/2724 1500 TSRA SCT025 FEW035CB
                       BKN080
                      BECMG 2700/2804 23008KT 2500 BR -RA BKN090
                       BECMG 2706/2708 29010KT 4000 HZ SCT030 BKN100
                       BECMG 2710/2712 29010G20KT 1500 TSRA SCT025
                       FEW035CB OVC080=
202008262300 TAF VIDP 262300Z 2700/2806 23004KT 3000 BR -RA SCT030 BKN090
                      BECMG 2704/2706 32008KT 4000 HZ -RA
                      TEMPO 2710/2715 2000 TSRA SCT025 FEW035CB
                       BKN080
                      BECMG 2720/2722 23004KT 3000 BR -RA SCT030
                       BKN090
                      TEMPO 2723/2804 1500 TSRA SCT025 FEW035CB
                       OVC080=
202008261700 TAF VIDP 261700Z 2618/2724 25004KT 4000 BR FEW030 SCT100
                      BECMG 2700/2702 3000 BR SCT030 BKN090
                      BECMG 2704/2706 31008KT 4000 HZ -RA
                      TEMPO 2710/2715 2000 TSRA SCT025 FEW035CB
                       BKN090
                      BECMG 2718/20 23004KT 3000 BR -RA SCT030
                       BKN090=
202008261100 TAF VIDP 261100Z 2612/2718 24008KT 4000 HZ SCT030 BKN100
                      BECMG 2612/2615 24008G18KT 1500 -TSRA FEW040CB
                       BECMG 2618/2620 29008KT 2000 BR -RA SCT025
                       BKN070
                      BECMG 2622/2703 24010G20KT 1500 TSRA FEW035CB
                       BECMG 2704/2706 27008KT 2000 BR RA SCT025
                       BKN060
                      BECMG 2709/2712 29010G20KT 1500 TSRA FEW035CB
                       BECMG 2715/2718 32010KT 2000 BR -RA SCT035
                       BKN090=
202008260500 TAF VIDP 260500Z 2606/2712 26008KT 3000 HZ SCT025 BKN080
                      BECMG 2609/2615 24010G20KT 1500 TSRA FEW040CB
                       BECMG 2618/2620 29008KT 2000 BR -RA SCT025
                       BKN060
                      BECMG 2622/2703 23010G20KT 1000 TSRA FEW035CB
                       BECMG 2704/2706 26008KT 2000 BR RA SCT025
                       BKN060
                      BECMG 2709/2712 1500 TSRA FEW035CB=
202008252300 TAF VIDP 252300Z 2600/2706 11005KT 2500 BR -RA FEW035 SCT100
                      BECMG 2600/2603 FEW035CB
                      BECMG 2604/2606 23006KT 4000 HZ BR SCT035
                       BKN100
                      BECMG 2609/2615 27010G25KT 1500 TSRA FEW035CB
                       OVC080
                      BECMG 2620/2622 11005KT 2500 BR SCT030 BKN100
                       BECMG 2623/2702 FEW035CB
                      BECMG 2704/2706 26005KT 4000 HZ -RA FEW030
                       SCT090=
202008251700 TAF VIDP 251700Z 2518/2624 15005KT 3500 BR -RA SCT030 FEW035CB
                       BKN090
                      BECMG 2523/2601 18004KT 2500 BR RA SCT030
                       BKN080
                      BECMG 2604/2606 23006KT 4000 HZ BR FEW035
                       SCT100
                      BECMG 2609/2615 27010G25KT 1500 TSRA FEW035CB
                       OVC080
                      BECMG 2618/2620 11005KT 2500 BR SCT030 BKN090
                       BECMG 2621/2624 FEW035CB=
202008251100 TAF VIDP 251100Z 2512/2618 15008KT 4000 HZ -RA SCT035 FEW040CB
                       BKN090
                      BECMG 2600/2602 18004KT 2000 BR -RA SCT030
                       BKN080
                      BECMG 2603/2605 21006KT 3000 BR RA
                      BECMG 2609/2615 27010G25KT 1500 -TSRA FEW035CB
                       OVC080=
202008250500 TAF VIDP 250500Z 2506/2612 15008KT 3500 HZ SCT030 BKN100
                      TEMPO 2511/2514 FEW035CB
                      BECMG 2518/2520 21004KT 2500 BR -RA SCT025
                       BKN090
                      BECMG 2604/2606 15008KT 3500 HZ SCT030 SCT100
                       TEMPO 2608/2612 2000 TSRA SCT025 FEW035CB
                       BKN090=
202008242300 TAF VIDP 242300Z 2500/2606 12008KT 2500 BR FEW035 SCT100
                      BECMG 2504/2506 1500 BR -TSRA SCT035 FEW035CB
                       OVC080
                      BECMG 2507/2509 18008KT 4000 HZ SCT030 BKN090
                       TEMPO 2509/2512 FEW035CB
                      BECMG 2517/2519 24008KT 2000 BR -RA
                      BECMG 2521/2603 FEW035CB
                      BECMG 2604/2605 18008KT 2500 BR -RA=
202008241700 TAF VIDP 241700Z 2418/2524 12004KT 2500 BR FEW030 SCT100
                      BECMG 2422/2503 15008KT 1500 BR -TSRA SCT030
                       FEW035CB OVC080
                      BECMG 2504/2506 2500 BR FEW025 SCT080
                      BECMG 2507/2509 18008KT 4000 HZ SCT030 BKN090
                       TEMPO 2509/2512 FEW035CB
                      BECMG 2517/2519 24008KT 2000 BR -RA
                      TEMPO 2521/2524 FEW035CB=
202008241100 TAF VIDP 241100Z 2412/2518 13008KT 3000 HZ SCT030 BKN100
                      TEMPO 2413/2415 FEW035CB
                      BECMG 2418/2420 07006KT 3000 BR FEW030 SCT100
                       BECMG 2504/2506 13010KT 4000 HZ -RA SCT030
                       BKN090
                      TEMPO 2510/2513 FEW035CB=
202008240500 TAF VIDP 240500Z 2406/2512 11010KT 3000 BR -RA SCT020 BKN080
                      BECMG 2407/2409 14008KT 4000 HZ RA
                      BECMG 2409/2412 1500 TSRA FEW035CB OVC080
                       BECMG 2418/2420 16010KT 3000 BR SCT025 SCT090
                       BECMG 2421/2502 23010G20KT 1500 TSRA FEW035CB
                       BKN090
                      BECMG 2505/2507 14010KT 3500 HZ -RA SCT025
                       BKN090=
202008232300 TAF VIDP 232300Z 2400/2506 09010KT 2500 BR SCT025 BKN090
                      BECMG 2404/2406 13010G20KT 4000 HZ -RA
                      BECMG 2409/2412 1500 TSRA FEW040CB
                      BECMG 2418/2420 16010KT 3000 BR SCT025 BKN090
                       BECMG 2421/2501 21007G17KT 1500 TSRA FEW040CB
                       BECMG 2503/2505 16010KT 2000 -RA BR SCT025
                       BKN090=
202008231700 TAF VIDP 231700Z 2318/2424 09008KT 3000 BR SCT030 SCT100
                      BECMG 2400/2402 2000 BR -RA BKN090
                      BECMG 2403/2405 13010G20KT 4000 BR HZ
                      BECMG 2409/2415 14010G30KT 1500 TSRA FEW035CB
                       OVC090
                      BECMG 2418/2420 17010KT 3000 -RA BR=
202008231100 TAF VIDP 231100Z 2312/2418 09008KT 3500 HZ SCT025 BKN080
                      TEMPO 2312/2315 1500 BR TSRA FEW035CB OVC080
                       BECMG 2315/2317 14006KT 2500 BR -RA
                      BECMG 2317/2319 09006KT 2000 BR FEW030 SCT090
                       BECMG 2321/2403 1000 BR TSRA SCT030 FEW035CB
                       OVC080
                      BECMG 2404/2406 15008KT 3000 BR HZ
                      BECMG 2408/2410 4000 HZ
                      TEMPO 2410/2415 FEW035CB=
202008230500 TAF VIDP 230500Z 2306/2412 09008G18KT 2800 BR HZ SCT030 BKN090
                       BECMG 2307/2309 4000 HZ
                      BECMG 2308/2312 1000 BR TSRA FEW035CB OVC080
                       BECMG 2315/2317 09008KT 2500 BR -RA
                      BECMG 2321/2403 FEW035CB
                      BECMG 2404/2406 15008KT 2800 BR HZ
                      BECMG 2407/2409 4000 HZ
                      TEMPO 2409/2412 FEW035CB=
202008222300 TAF VIDP 222300Z 2300/2406 09008KT 3000 BR FEW030 SCT100
                      BECMG 2304/2306 15008KT 5000 HZ
                      TEMPO 2310/2313 FEW035CB
                      BECMG 2320/2322 09006KT 3000 BR FEW030 SCT100
                       BECMG 2403/2405 15008KT 4000 HZ SCT030 BKN100=
202008221700 TAF VIDP 221700Z 2218/2324 09008KT 4500 BR FEW030 SCT100
                      BECMG 2300/2302 3000 BR SCT030 BKN100
                      BECMG 2304/2306 15008KT 5000 HZ
                      TEMPO 2310/2313 FEW035CB
                      BECMG 2320/2322 09006KT 3000 BR FEW030 SCT100=
202008221100 TAF VIDP 221100Z 2212/2318 09012KT 5000 HZ SCT030 BKN090
                      TEMPO 2212/2215 FEW035CB
                      BECMG 2217/2219 09008KT 2000 BR FEW030 SCT090
                       BECMG 2221/2303 1000 BR TSRA SCT030 FEW035CB
                       OVC080
                      BECMG 2304/2306 09010G20KT 5000 HZ
                      BECMG 2309/2315 SCT030 FEW035CB BKN090
                      BECMG 2315/2317 09008KT 3000 HZ BR FEW030
                       SCT090=
202008220500 TAF VIDP 220500Z 2206/2312 08015G25KT 5000 HZ SCT040 BKN100
                      BECMG 2209/2215 2000 TSRA SCT030 FEW040 BKN090
                       BECMG 2218/2220 0707G17KT 2500 BR SCT030
                       BKN090
                      BECMG 2223/2303 1500 TSRA FEW040CB
                      BECMG 2304/2306 11010G20KT 5000 HZ SCT040
                       BKN100
                      BECMG 2309/2312 3000 -TSRA SCT030 FEW040CB
                       BKN090=
202008212300 TAF VIDP 212300Z 2200/2306 06005KT 2200 BR RA FEW030 SCT100
                      BECMG 2200/2204 11010G25KT 1500 TSRA SCT025
                       FEW035CB OVC080
                      BECMG 2204/2206 14008KT 4000 HZ -RA SCT030
                       SCT090
                      BECMG 2209/2215 1500 TSRA FEW035CB BKN090
                       BECMG 2215/2217 09008KT 3000 BR FEW030 SCT100
                       BECMG 2221/2223 12005KT 2000 BR RA SCT030
                       BKN100
                      BECMG 2304/2306 09006KT 3500 HZ BR FEW030
                       SCT100=
202008211700 TAF VIDP 211700Z 2118/2224 07005KT 3000 BR -RA SCT030 FEW035CB
                       BKN090
                      BECMG 2122/2203 09010G25KT 1500 TSRA SCT025
                       FEW035CB OVC080
                      BECMG 2204/2206 11008KT 4000 HZ -RA SCT035
                       SCT090
                      BECMG 2209/2215 1500 TSRA FEW035CB BKN090
                       BECMG 2215/2217 09008KT 3000 BR FEW030 SCT100
                       BECMG 2221/2223 12005KT 2000 BR -RA SCT030
                       BKN100=
202008211100 TAF VIDP 211100Z 2112/2218 10008G18KT 4000 HZ -RA SCT030 FEW035CB
                       BKN100
                      BECMG 2114/2118 09010G25KT 2500 -TSRA SCT025
                       FEW030CB BKN090
                      BECMG 2204/2206 07010G20KT 4000 HZ -RA SCT035
                       BKN100
                      BECMG 2208/2212 FEW040CB
                      BECMG 2215/2217 09008KT 3000 BR=
202008210500 TAF VIDP 210500Z 2106/2212 09010KT 5000 HZ FEW030 SCT100
                      TEMPO 2110/2113 FEW035CB
                      BECMG 2118/2120 15004KT 3000 BR -RA SCT030
                       BKN090
                      BECMG 2123/2201 09007KT 3000 BR SCT030 SCT100
                       BECMG 2204/2206 5000 HZ
                      TEMPO 2209/2212 FEW035CB=
202008202300 TAF VIDP 202300Z 2100/2206 09008KT 1500 BR TSRA SCT025 FEW035CB
                       OVC080
                      BECMG 2104/2106 2500 BR HZ FEW030 SCT090
                       BECMG 2107/2109 3500 HZ SCT030 BKN090
                      BECMG 2108/2114 FEW035CB
                      BECMG 2117/2119 2200 BR -RA
                      BECMG 2121/2203 FEW035CB
                      BECMG 2204/2205 2500 BR -RA FEW030 SCT090=
202008201700 TAF VIDP 201700Z 2018/2124 09006KT 2000 BR SCT030 BKN090
                      BECMG 2021/2103 1200 BR TSRA FEW035CB OVC080
                       BECMG 2104/2106 2500 BR HZ FEW030 SCT090
                       BECMG 2107/2109 3500 HZ SCT030 BKN090
                      BECMG 2108/2114 FEW035CB
                      BECMG 2117/2119 2200 BR -RA
                      TEMPO 2121/2124 FEW035CB=
202008201100 TAF VIDP 201100Z 2012/2118 06006KT 2500 BR -RA SCT030 OVC080
                      TEMPO 2022/2103 12008G18KT 1500 TSRA FEW030CB
                       BECMG 2104/2106 15008KT 4000 HZ SCT030 BKN100
                       TEMPO 2108/2113 11008G18KT 1500 TSRA FEW030CB
                       BECMG 2113/2115 09006KT 2500 BR=
202008200500 TAF VIDP 200500Z 2006/2112 13007KT 2500 DZ RA SCT020 OVC080
                      TEMPO 2009/2015 14010KT 1000 TSRA FEW035CB
                       OVC080
                      BECMG 2018/2020 14006KT 2000 BR -RA SCT030
                       BKN080
                      BECMG 2022/2103 15008G18KT 0800 TSRA FEW035CB
                       BECMG 2104/2106 14008KT 1500 RA BR SCT030
                       BKN080
                      TEMPO 2109/2112 FEW035CB=
202008192300 TAF VIDP 192300Z 2000/2106 10008G18KT 0800 TSRA SCT025 FEW035CB
                       OVC080
                      BECMG 2004/2006 09008KT 1200 RA BR SCT030
                       BKN080
                      BECMG 2008/2012 13010KT 1000 TSRA FEW040CB
                       BECMG 2018/2020 09008KT 1500 BR SCT030 BKN080
                       BECMG 2022/2103 11008G18KT 0800 TSRA FEW040CB
                       BECMG 2104/2106 12010KT 1000 RA BR SCT030
                       BKN080=
202008191700 TAF VIDP 191700Z 1918/2024 09005KT 2000 BR -RA SCT030 BKN090
                      BECMG 1922/2004 13010G20KT 1000 TSRA FEW035CB
                       OVC080
                      BECMG 2008/2010 15010KT 3000 RA BR BKN100
                       BECMG 2018/2024 09008KT 2000 -TSRA SCT025
                       FEW030CB OVC080=
202008191100 TAF VIDP 191100Z 1912/2018 15006KT 2200 BR BKN020 OVC080
                      TEMPO 1912/1915 FEW035CB
                      BECMG 1917/1919 23005KT 2500 BR -RA SCT030
                       BKN090
                      BECMG 1921/2003 1500 -TSRA SCT025 FEW035CB
                       BKN080
                      BECMG 2004/2006 18005KT 3500 HZ SCT030 BKN090
                       TEMPO 2009/2012 FEW035CB
                      BECMG 2015/2017 14006KT 2500 HZ BR SCT020
                       BKN080=
202008190500 TAF VIDP 190500Z 1906/2012 20008G18 0800 +TSRA FEW010 SCT020 FEW025CB
                       BKN080
                      BECMG 1908/1915 14008G18KT 2000 -TSRA FEW020
                       SCT030 FEW035CB BKN090
                      BECMG 1921/1923 14007KT 3000 BR -RA SCT030
                       BKN080
                      TEMPO 2000/2003 2000 -TSRA SCT025 FEW035CB
                       BKN080
                      BECMG 2004/2006 18005KT 3500 HZ SCT030 BKN090
                       BECMG 2008/2010 09008KT 3500 HZ SCT035 BKN090=
202008182300 TAF VIDP 182300Z 1900/2006 23004KT 3000 BR -RA SCT030 BKN090
                      TEMPO 1902/1905 2000 TSRA SCT025 FEW035CB
                       OVC090
                      BECMG 1906/1908 29007KT 3500 HZ SCT030 SCT100
                       TEMPO 1909/1915 2000 TSRA SCT025 FEW035CB
                       OVC080
                      BECMG 1921/1923 15004KT 3000 BR -RA SCT030
                       BKN090
                      TEMPO 2000/2003 2000 -TSRA SCT025 FEW025CB
                       BKN080
                      BECMG 2004/2006 18004KT 3500 HZ SCT030 BKN090=
202008181700 TAF VIDP 181700Z 1818/1924 27005KT 4000 BR FEW030 SCT100
                      BECMG 1900/1902 VRB02KT 3000 BR -RA SCT030
                       BKN100
                      BECMG 1904/1906 29007KT 4000 HZ
                      TEMPO 1909/1915 2000 TSRA SCT025 FEW035CB
                       OVC080
                      BECMG 1919/1921 15004KT 3000 BR -RA SCT030
                       BKN090=
202008181100 TAF VIDP 181100Z 1812/1918 23010KT 2200 BR SCT020 FEW025CB BKN080
                       BECMG 1812/1815 15010KT 2500 BR -RA SCT030
                       FEW035CB BKN080
                      BECMG 1817/1820 26006KT 2500 BR -RA SCT030
                       BKN090
                      BECMG 1822/1903 29008KT 1500 TSRA FEW040CB
                       BECMG 1906/1908 28008KT 2000 BR SCT030 BKN090
                       BECMG 1910/1912 1500 -TSRA FEW035CB
                      BECMG 1914/1916 14010G20KT 1000 TSRA SCT020
                       FEW025CB BKN080=
202008180500 TAF VIDP 180500Z 1806/1912 16006KT 3000 HZ SCT035 BKN100
                      BECMG 1808/1812 29008G18KT 1500 TSRA SCT030
                       FEW040CB BKN090
                      BECMG 1815/1817 26006KT 2500 BR SCT030 BKN090
                       BECMG 1822/1903 29007G17KT 1500 TSRA FEW040CB
                       BECMG 1904/1906 9008KT 2000 BR SCT030 BKN090
                       BECMG 1908/1912 1500 -TSRA FEW040CB=
202008172300 TAF VIDP 172300Z 1800/1906 14006KT 2000 BR -RA SCT030 BKN090
                      BECMG 1800/1803 1500 TSRA FEW035CB OVC080
                       BECMG 1804/1806 11008KT 3500 HZ FEW030 SCT090
                       BECMG 1809/1815 1500 TSRA FEW035CB BKN080
                       BECMG 1815/1817 29005KT 2500 BR
                      BECMG 1822/1903 1500 TSRA FEW035CB OVC080
                       BECMG 1904/1906 25006KT 3500 HZ BR SCT030
                       SCT090=
202008171700 TAF VIDP 171700Z 1718/1824 12005KT 2200 BR -RA SCT030 BKN080
                      BECMG 1722/1803 16010G20KT 1500 TSRA FEW035CB
                       OVC080
                      BECMG 1804/1806 14008KT 3500 HZ FEW030 SCT090
                       BECMG 1809/1815 1500 TSRA FEW035CB BKN080
                       BECMG 1815/1817 29005KT 2500 BR SCT030 BKN090
                       BECMG 1821/1824 1500 TSRA FEW035CB OVC080=
202008171100 TAF VIDP 171100Z 1712/1818 14007KT 2500 BR -RA SCT030 BKN080
                      BECMG 1712/1715 TS FEW035CB OVC080
                      BECMG 1718/1720 11008KT 2000 BR
                      BECMG 1723/1803 16010G20KT 1500 TSRA FEW035CB
                       OVC080
                      BECMG 1804/1806 14008KT 3500 HZ SCT030 BKN100
                       BECMG 1809/1815 1500 TSRA FEW035CB BKN080=
202008170500 TAF VIDP 170500Z 1706/1812 15009KT 3500 HZ SCT030 BKN100
                      TEMPO 1707/1712 2000 -TSRA FEW035CB BKN090
                       BECMG 1718/1720 09004KT 2500 BR
                      TEMPO 1722/1802 1500 TSRA SCT025 FEW035CB
                       OVC080
                      BECMG 1805/1807 15008KT 3500 HZ SCT035 SCT100
                       TEMPO 1810/1812 FEW035CB=
202008162300 TAF VIDP 162300Z 1700/1806 13008KT 2000 BR ...RA SCT030 BKN080
                       TEMPO 1700/1703 FEW035CB
                      BECMG 1704/1706 2500 BR HZ FEW030 SCT090
                       BECMG 1707/1709 4000 HZ
                      TEMPO 1709/1712 FEW035CB
                      BECMG 1718/1720 2500 BR SCT030 BKN080
                      BECMG 1721/1803 15010G20KT 1500 ...TSRA FEW035CB
                       OVC080
                      BECMG 1804/1805 27006KT 2500 BR RA=
202008161700 TAF VIDP 161700Z 1618/1724 12008KT 3000 BR FEW030 SCT080
                      BECMG 1621/1703 15010G20KT 1500 -TSRA SCT035
                       FEW035CB OVC080
                      BECMG 1704/1706 12008KT 2500 BR HZ FEW030
                       SCT090
                      BECMG 1707/1709 4000 HZ
                      TEMPO 1709/1712 FEW035CB
                      BECMG 1718/1720 2500 BR SCT030 BKN080
                      BECMG 1721/1724 15010G20KT 1200 -TSRA FEW035CB
                       OVC080=
202008161100 TAF VIDP 161100Z 1612/1718 13005KT 4000 HZ SCT030 BKN100
                      TEMPO 1616/1619 1500 TSRA FEW030CB
                      BECMG 1619/1621 2500 BR
                      BECMG 1700/1702 1500 BR -RA
                      BECMG 1703/1705 4000 HZ
                      TEMPO 1708/1712 FEW030CB
                      BECMG 1715/1717 2500 BR -RA=
202008160500 TAF VIDP 160500Z 1606/1712 14006KT 3500 HZ BR SCT030 BKN100
                      BECMG 1608/1610 11008KT 5000 HZ FEW030 SCT100
                       BECMG 1609/1615 16008G18KT 2000 TSRA FEW035CB
                       OVC080
                      BECMG 1618/1620 12006KT 3000 HZ SCT030 BKN090
                       BECMG 1622/1703 14010G20KT 1500 TSRA FEW035CB
                       OVC080
                      BECMG 1705/1707 11008KT 4000 HZ FEW030 SCT100
                       BECMG 1708/1712 FEW035CB=
202008152300 TAF VIDP 152300Z 1600/1706 07008KT 2500 BR SCT030 BKN090
                      BECMG 1601/1605 11007G17KT 1500 -TSRA FEW040CB
                       BECMG 1605/1607 14008KT 3500 HZ SCT030 BKN100
                       BECMG 1609/1615 16007G17KT 2000 -TSRA FEW040CB
                       BKN090
                      BECMG 1617/1619 12008KT 3000 -RA SCT030 BKN090
                       BECMG 1623/1703 13010G20KT 1500 TSRA FEW040CB
                       BECMG 1704/1706 12006KT 2500 BR SCT035 BKN100=
202008151700 TAF VIDP 151700Z 1518/1624 13005KT 3000 BR SCT030 BKN100
                      BECMG 1523/1603 14010G25KT 1500 TSRA FEW035CB
                       BKN080
                      BECMG 1605/1607 14008KT 3500 HZ SCT035 BKN100
                       BECMG 1609/1615 2000 TSRA FEW040CB BKN080
                       BECMG 1615/1617 11008KT 2500 BR SCT040 SCT100=
202008151100 TAF VIDP 151100Z 1512/1618 12007KT 4000 HZ SCT030 SCT090
                      TEMPO 1512/1515 14015G25KT 1500 TSRA FEW035CB
                       OVC080
                      BECMG 1517/1519 2500 BR RA
                      BECMG 1521/1603 23015G25KT 1500 TSRA FEW035CB
                       BKN080
                      BECMG 1604/1606 3500 BR HZ FEW030 SCT090
                       BECMG 1606/1608 09006KT 4000 HZ
                      TEMPO 1609/1612 FEW035CB
                      BECMG 1615/1617 3000 HZ BR=
202008150500 TAF VIDP 150500Z 1506/1612 10008KT 3500 HZ SCT030 BKN090
                      BECMG 1508/1512 15015G25KT 1000 TSRA FEW035CB
                       OVC080
                      BECMG 1517/1519 2500 BR FEW030 SCT100
                      BECMG 1520/1602 24015G25KT 1000 TSRA SCT025
                       FEW035CB OVC080
                      BECMG 1604/1606 17008KT 2500 BR -RA FEW030
                       SCT080
                      BECMG 1607/1609 4000 HZ
                      TEMPO 1609/1612 FEW035CB=
202008142300 TAF VIDP 142300Z 1500/1606 11006KT 2000 BR -RA SCT030 BKN090
                      TEMPO 1504/1506 3500 BR HZ
                      TEMPO 1510/1514 2000 TSRA SCT030 FEW035CB
                       OVC080
                      BECMG 1515/1517 15005KT 3000 BR SCT035 SCT100
                       TEMPO 1521/1602 1500 TSRA SCT025 FEW035CB
                       OVC080
                      BECMG 1604/1606 09005KT 3000 HZ SCT030 BKN100=
202008141700 TAF VIDP 141700Z 1418/1524 09005KT 2500 BR -RA SCT030 BKN100
                      TEMPO 1422/1502 1500 -TSRA SCT025 FEW035CB
                       BKN090
                      BECMG 1505/1507 15007KT 3500 HZ SCT035 BKN090
                       TEMPO 1510/1514 2000 TSRA SCT030 FEW035CB
                       OVC080
                      BECMG 1515/1517 15005KT 3000 BR SCT035 SCT100=
202008141100 TAF VIDP 141100Z 1412/1518 09008KT 3500 HZ SCT025 BKN080
                      TEMPO 1412/1415 15010G20KT 1000 TSRA FEW035CB
                       OVC080
                      BECMG 1417/1419 2500 BR RA
                      BECMG 1421/1503 1000 TSRA FEW035CB
                      BECMG 1504/1506 15008KT 2500 BR RA
                      BECMG 1507/1509 4000 HZ
                      TEMPO 1509/1512 FEW035CB
                      BECMG 1515/1517 2500 BR -RA=
202008140500 TAF VIDP 140500Z 1406/1512 08010KT 2000 BR FEW015 BKN025 OVC080
                       BECMG 1407/1413 11008G18KT 1500 TSRA FEW035CB
                       BECMG 1415/1417 13008KT 2000 -RA SCT020
                       BKN080
                      BECMG 1422/1503 11008G18KT 1000 TSRA FEW035CB
                       BECMG 1504/1506 13008KT 2000 BR SCT030 BKN090
                       BECMG 1509/1512 1500 -TSRA FEW040CB=
202008132300 TAF VIDP 132300Z 1400/1506 09005KT 2500 BR -RA SCT030 BKN090
                      BECMG 1400/1404 1200 TSRA FEW035CB OVC080
                       BECMG 1405/1407 12008KT 3500 HZ BR FEW030
                       SCT090
                      BECMG 1408/1414 11010G20KT 1500 TSRA SCT030
                       FEW035CB OVC080
                      BECMG 1421/1423 09005KT 2500 BR SCT030 BKN100
                       BECMG 1500/1503 1500 TSRA FEW035CB OVC060=
202008131700 TAF VIDP 131700Z 1318/1424 07005KT 2500 BR -RA SCT030 BKN090
                      BECMG 1322/1403 09010G20KT 1500 TSRA BKN030
                       FEW035CB OVC080
                      BECMG 1404/1406 12008KT 3500 HZ BR FEW030
                       SCT100
                      BECMG 1408/1414 11010G20KT 1500 TSRA SCT030
                       FEW035CB OVC080
                      BECMG 1420/1422 08005KT 2500 BR SCT030 BKN100=
202008131100 TAF VIDP 131100Z 1312/1418 07008KT 2200 BR -RA BKN030 OVC080
                      TEMPO 1312/1316 1000 TSRA FEW035CB
                      BECMG 1318/1320 09006KT 2000 BR SCT030 BKN080
                       BECMG 1322/1403 09008G18KT 1500 TSRA BKN030
                       FEW035CB OVC080
                      BECMG 1403/1405 09008KT 3000 BR SCT040 BKN100
                       BECMG 1408/1415 09010G20KT 1500 TSRA SCT030
                       FEW035CB OVC080=
202008130800 TAF VIDP 130800Z 1309/1318 06005KT 1500 TSRA DZ BKN030 FEW035CB
                       OVC080
                      BECMG 1315/1317 11003KT 2000 BR -RA SCT030
                       BKN100=
202008130500 TAF VIDP 130500Z 1306/1412 07005KT 2000 RA HZ BKN020 FEW025CB OVC080
                       BECMG 1307/1313 31010G20KT 0800 TSRA FEW008
                       SCT018 FEW025CB OVC080
                      BECMG 1314/1316 00000KT 2000 BR -RA SCT020
                       BKN080
                      BECMG 1318/1320 1200 BR DZ
                      BECMG 1322/1402 10008KT 1500 TSRA FEW008
                       SCT020 FEW030CB OVC080
                      BECMG 1403/1405 2500 BR DZ SCT020 OVC080
                       BECMG 1406/1412 1500 TSRA SCT018 FEW030CB
                       OVC080=
202008122300 TAF VIDP 122300Z 1300/1406 04006KT 2500 BR -RA SCT025 BKN080
                      TEMPO 1300/1303 1000 TSRA FEW030CB OVC080
                       BECMG 1303/1305 3500 BR -RA FEW030 SCT080
                       BECMG 1308/1315 2000 BR TSRA SCT025 FEW035CB
                       OVC080
                      BECMG 1315/1317 09008KT 3500 BR -RA
                      BECMG 1318/1320 11008G18KT 2500 BR -RA
                      BECMG 1403/1406 15008KT 1500 BR TSRA FEW035CB
                       OVC080=
202008121700 TAF VIDP 121700Z 1218/1324 24008KT 2000 BR TSRA SCT030 FEW035CB
                       OVC080
                      BECMG 1303/1305 3000 BR -RA FEW030 SCT080
                       BECMG 1306/1308 2000 BR TSRA SCT025 FEW035CB
                       OVC080
                      BECMG 1313/1315 09008KT 3500 BR -RA
                      BECMG 1318/1324 11008G18KT 1500 TSRA FEW035CB
                       OVC080=
202008121100 TAF VIDP 121100Z 1212/1318 32005KT 4000 HZ SCT030 SCT100
                      TEMPO 1213/1216 32010G20KT 2000 TSRA SCT025
                       FEW035CB BKN090
                      BECMG 1219/1221 VRB02KT 3000 BR SCT035 BKN100
                       TEMPO 1222/1303 1500 TSRA SCT030 FEW035CB
                       OVC080
                      BECMG 1305/1307 25006KT 3500 HZ SCT035 SCT100
                       TEMPO 1309/1315 2000 TSRA SCT030 FEW035CB
                       BKN090=
202008120500 TAF VIDP 120500Z 1206/1312 27008KT 3000 HZ SCT030 BKN090
                      BECMG 1209/1215 32010G20KT 1500 TSRA FEW035CB
                       BKN080
                      BECMG 1215/1217 23008KT 2500 BR -RA SCT030
                       BKN090 1222/1303 23015G25KT 1500 TSRA FEW035CB
                       BKN080
                      BECMG 1304/1306 32008KT 2500 HZ SCT030 BKN090
                       TEMPO 1309/1312 FEW040CB=
202008112300 TAF VIDP 112300Z 1200/1306 27007G17KT 2500 BR SCT030 BKN090
                      BECMG 1203/1205 27008KT 3000 BR -RA
                      BECMG 1209/1215 27010G20KT 1500 TSRA FEW035CB
                       BECMG 1215/1217 24008KT 2000 BR -RA SCT030
                       BKN090
                      BECMG 1222/1303 24015G25KT 1500 TSRA FEW035CB
                       BECMG 1304/1306 29008KT 2000 -RA BR SCT030
                       BKN090=
202008111700 TAF VIDP 111700Z 1118/1224 25004KT 2200 BR SCT030 BKN100
                      BECMG 1121/1203 27010G20KT 1000 TSRA FEW035CB
                       OVC080
                      BECMG 1203/1205 27008KT 3000 HZ SCT040 BKN100
                       BECMG 1209/1215 1500 TSRA SCT030 FEW035CB
                       BKN080
                      BECMG 1215/1217 VRB02KT 2500 BR -RA SCT035
                       BKN100=
202008111100 TAF VIDP 111100Z 1112/1218 09005KT 3000 HZ BR SCT030 BKN100
                      TEMPO 1112/1115 FEW040CB
                      BECMG 1118/1120 14006KT 2500 BR -RA
                      TEMPO 1123/1203 2310G20KT 2000 -TSRA SCT025
                       FEW035CB OVC080
                      BECMG 1204/1206 3000 BR SCT035 SCT100
                      TEMPO 1209/1212 FEW040CB
                      BECMG 1212/1215 29006KT 2500 HZ SCT030 BKN100=
202008110500 TAF VIDP 110500Z 1106/1212 27004KT 2200 BR SCT035 BKN100
                      BECMG 1108/1112 24010G20KT 1200 TSRA SCT030
                       FEW035CB OVC080
                      BECMG 1115/1118 27005KT 3000 BR -RA
                      TEMPO 1120/1122 29010G20KT 1500 TSRA SCT025
                       FEW035CB OVC080
                      BECMG 1123/1203 30010G20KT 2000 TSRA -RA
                       BECMG 1204/1208 3000 BR SCT035 BKN100
                      TEMPO 1210/1212 27010G20KT 1500 TSRA SCT030
                       FEW035CB OVC080=
202008102300 TAF VIDP 102300Z 1100/1206 09003KT 2000 BR -RA SCT035 BKN090
                      TEMPO 1102/1106 15010G20KT 1200 TSRA SCT080
                       FEW035CB OVC080
                      BECMG 1107/1109 15008KT 3200 HZ SCT035 BKN100
                       TEMPO 1110/1114 2000 TSRA SCT030 FEW035CB
                       BKN090
                      BECMG 1118/1120 27005KT 3000 BR -RA
                      TEMPO 1122/1203 29010G20KT 1500 TSRA SCT025
                       FEW035CB OVC080=
202008101700 TAF VIDP 101700Z 1018/1124 15005KT 2800 BR -RA SCT035 BKN100
                      TEMPO 1021/1102 1500 TSRA SCT030 FEW035CB
                       OVC080
                      BECMG 1104/1106 09006KT 3000 HZ SCT035 BKN090
                       BECMG
                      TEMPO 1108/1112 32010G20KT 2000 TSRA SCT030
                       FEW035CB BKN090
                      BECMG 1120/1122 15004KT 3000 BR SCT035 BKN100=
202008101100 TAF VIDP 101100Z 1012/1118 13008G18KT 3000 HZ -RA SCT030 FEW035CB
                       BKN100
                      BECMG 1012/1015 12010G20KT TSRA -RA SCT030
                       FEW035CB BKN080
                      BECMG 1018/1020 12008KT 2500 BR SCT025 BKN090
                       BECMG 1022/11003 14015G25KT 1500 TSRA FEW035CB
                       BECMG 1105/1108 18006KT 2000 BR SCT030 BKN090
                       BECMG 1108/1110 22010KT 3000 BR HZ
                      BECMG 1112/1115 12015G25KT 1500 -TSRA FEW040CB=
202008100500 TAF VIDP 100500Z 1006/1112 12004KT 2000 BR SCT030 OVC090
                      BECMG 1007/1009 13008KT 3000 BR
                      BECMG 1009/1015 13008G18KT 1500 -TSRA SCT025
                       FEW035CB BKN080
                      BECMG 1018/1020 12008KT 2500 BR SCT025 BKN080
                       BECMG 1022/1103 13015G25KT 1500 TSRA FEW035CB
                       BECMG 1104/1106 17006KT 2000 BR SCT030 BKN090
                       BECMG 1107/1109 21010KT 3000 BR
                      BECMG 1109/1112 2000 -TSRA FEW040CB=
202008092300 TAF VIDP 092300Z 1000/1106 09005KT 2500 BR RA SCT030 BKN090
                      BECMG 1000/1004 15010G25KT 1500 TSRA FEW035CB
                       OVC080
                      BECMG 1004/1006 11006KT 3000 HZ BR FEW030
                       SCT100
                      BECMG 1006/1008 14010KT 4000 HZ -RA SCT030
                       BKN090
                      BECMG 1009/1015 1500 TSRA FEW035CB OVC080
                       BECMG 1020/1022 09005KT 2500 BR RA FEW030
                       SCT090
                      BECMG 11004/1106 12008KT 3500 HZ RA SCT025
                       BKN090=
202008091700 TAF VIDP 091700Z 0918/1024 11005KT 3000 BR -RA SCT030 FEW035CB
                       BKN090
                      BECMG 0920/0922 14006KT 2200 BR RA FEW035
                       SCT090
                      BECMG 0922/1003 15010G25KT 1500 TSRA FEW035CB
                       OVC080
                      BECMG 1003/1005 09006KT 3000 HZ SCT030 SCT100
                       BECMG 1006/1008 12010KT 4000 HZ -RA
                      BECMG 1009/1015 1500 TSRA FEW035CB OVC080
                       BECMG 1018/1020 09005KT 2500 BR=
202008091100 TAF VIDP 091100Z 0912/1018 13010KT 2500 BR -TSRA SCT025 FEW030CB
                       OVC080
                      BECMG 0916/0918 15006KT 2000 BR -RA SCT030
                       BKN090
                      BECMG 0923/1003 15010G25KT 1500 TSRA FEW035CB
                       OVC090
                      BECMG 1005/1007 09010KT 3500 -RA HZ SCT035
                       BKN090
                      BECMG 1008/1012 FEW040CB
                      BECMG 1015/1017 09004KT 2500 -RA BR=
202008090500 TAF VIDP 090500Z 0906/1012 29006KT 4000 HZ SCT035 SCT100
                      TEMPO 0910/0914 2000 -TSRA SCT030 FEW035CB
                       BKN090
                      BECMG 0917/0919 VRB02KT 3000 BR
                      TEMPO 0922/1002 2000 -TSRA SCT035 FEW035CB
                       BKN090
                      BECMG 1004/1006 15005KT 3500 HZ -RA
                      BECMG 1008/1010 29010G20KT 2000 RA SCT030
                       BKN090=
202008082300 TAF VIDP 082300Z 0900/1006 34006KT 2000 BR -RA SCT030 BKN080
                      BECMG 0900/0903 FEW040CB
                      BECMG 0904/0906 3500 HZ
                      BECMG 0907/0909 09008KT 4500 HZ
                      BECMG 0909/0915 33020G30KT 1000 TSRA FEW040CB
                       OVC080
                      BECMG 0917/0919 VRB02KT 2500 BR -RA
                      TEMPO 0922/0924 FEW040CB
                      BECMG 1004/1005 VRB02KT 3500 BR -RA=
202008081700 TAF VIDP 081700Z 0818/0924 15006KT 2500 BR FEW030 SCT090
                      BECMG 0821/0903 SCT030 BKN090 FEW040CB
                      BECMG 0904/0906 09008KT 3500 HZ
                      BECMG 0907/0909 04008KT 4500 HZ
                      BECMG 0909/0915 33020G30KT 1000 TSRA FEW040CB
                       OVC080
                      BECMG 0917/0919 VRB02KT 2500 BR -RA
                      TEMPO 0922/0924 FEW040CB=
202008081100 TAF VIDP 081100Z 0812/0918 21005KT 3500 HZ -TSRA SCT030 FEW035CB
                       BKN090
                      BECMG 0815/0817 27005KT 3000 HZ SCT035 BKN100
                       TEMPO 0821/0902 25010G20KT 1500 TSRA SCT025
                       FEW035CB OVC080
                      BECMG 0905/0907 32008KT 3500 HZ SCT035 SCT100
                       TEMPO 0909/0915 2000 -TSRA SCT030 FEW035CB
                       BKN090=
202008080500 TAF VIDP 080500Z 0806/0912 09005KT 3500 HZ FEW035 SCT100
                      BECMG 0807/0809 12008KT 5000 HZ SCT035 BKN090
                       BECMG 0809/0815 2000 -TSRA FEW040CB OVC080
                       BECMG 0818/0820 17006KT 3000 HZ -RA FEW030
                       SCT090
                      BECMG 0822/0903 27015G25KT 1500 TSRA FEW035CB
                       BECMG 0904/0906 11006KT 3500 HZ -RA SCT030
                       BKN090
                      BECMG 0908/0912 FEW035CB=
202008072300 TAF VIDP 072300Z 0800/0906 13006KT 2500 BR FEW030 SCT090
                      BECMG 0803/0805 3000 -RA BR SCT030 BKN090
                       BECMG 0807/0809 16008KT 4000 HZ
                      BECMG 0808/0814 2000 -TSRA FEW040CB
                      BECMG 0815/0817 22010KT 3000 HZ -RA SCT030
                       BKN090
                      BECMG 0822/0903 27015G25KT 1500 TSRA FEW040CB
                       BECMG 0904/0906 27006KT 3000 -RA SCT030
                       BKN090=
202008071700 TAF VIDP 071700Z 0718/0824 14005KT 3000 HZ SCT030 BKN090
                      BECMG 0723/0803 11008KT 2000 -RA BR
                      BECMG 0800/0806 FEW035CB
                      BECMG 0805/0807 15010KT 4000 -RA HZ
                      BECMG 0810/0814 FEW035CB
                      BECMG 0815/0817 23010KT 3000 HZ RA SCT035
                       BECMG 0820/0824 FEW040CB=
202008071100 TAF VIDP 071100Z 0712/0818 11008KT 4000 HZ SCT030 SCT090
                      BECMG 0712/0715 12015G25KT 1500 TSRA FEW035CB
                       BKN090
                      BECMG 0720/0721 14006KT 3000 HZ FEW030 SCT100
                       BECMG 0722/0802 FEW040CB
                      BECMG 0801/0803 09005KT 2500 BR -RA SCT035
                       BKN090
                      BECMG 0806/0815 24020G30KT 1500 TSRA FEW040CB
                       OVC080=
202008070500 TAF VIDP 070500Z 0706/0812 14008G18KT 3000 HZ SCT030 BKN090
                      BECMG 0707/0709 13010KT 4500 HZ
                      TEMPO 0709/0712 FEW040CB
                      BECMG 0716/0718 2500 HZ BR
                      BECMG 0721/0803 FEW040CB
                      BECMG 0800/0802 13006KT 1800 BR -RA
                      BECMG 0804/0806 2500 HZ SCT035 BKN090
                      BECMG 0807/0809 24008KT 3500 HZ
                      BECMG 0808/0812 24020G30KT 1000 TSRA FEW040CB
                       OVC080=
202008062300 TAF VIDP 062300Z 0700/0806 11008G18KT 3000 BR FEW035 SCT100
                      BECMG 0704/0706 11008KT 5000 HZ SCT035 SCT100
                       TEMPO 0709/0713 2000 TSRA SCT030 FEW035CB
                       BKN090
                      BECMG 0718/0720 18004KT 3000 BR SCT035 BKN100
                       TEMPO 0722/0802 2000 -TSRA SCT030 FEW035CB
                       OVC080
                      BECMG 0804/0806 07005KT 3000 HZ SCT035 SCT100=
202008061700 TAF VIDP 061700Z 0618/0724 09007G17KT 4000 BR FEW035 SCT100
                      BECMG 0623/0701 09008KT 3000 BR -RA SCT030
                       BKN090
                      BECMG 0704/0706 11007G17KT 4000 HZ SCT035
                       SCT100
                      TEMPO 0708/0713 2000 TSRA SCT030 FEW035CB
                       BKN090
                      BECMG 0718/0720 09006KT 3000 BR SCT035 SCT100=
202008052300 TAF VIDP 052300Z 0600/0706 09005KT 2000 BR RA FEW030 SCT090
                      BECMG 0600/0604 11010G25KT TSRA SCT030 FEW035CB
                       BKN080
                      BECMG 0605/0607 14008KT 3000 HZ -RA SCT030
                       BKN100
                      BECMG 0609/0614 12010G25KT 1500 TSRA FEW035CB
                       OVC080
                      BECMG 0620/0622 09006KT 2500 BR FEW030 SCT100
                       BECMG 0704/0706 12008KT 3500 HZ RA SCT030
                       BKN090=
202008051700 TAF VIDP 051700Z 0518/0624 07005KT 2500 BR SCT035 BKN100
                      BECMG 0523/0603 09010G20KT 1500 TSRA SCT030
                       FEW035CB OVC080
                      BECMG 0605/0607 12010KT 3000 HZ -RA SCT030
                       SCT100
                      BECMG 0609/0614 14010G25KT 1500 TSRA FEW035CB
                       BKN080
                      BECMG 0620/0622 09008KT 2500 BR FEW030 SCT100=
202008050500 TAF VIDP 050500Z 0506/0612 09010G20KT 3000 -TSRA HZ SCT030 BKN090
                       BECMG 0508/0510 09008KT 4000 HZ SCT035 BKN100
                       TEMPO 0511/0514 2000 -TSRA SCT030 FEW035CB
                       BKN090
                      BECMG 0518/0520 03004KT 3000 BR FEW040 SCT100
                       TEMPO 0522/0602 2500 BR RA SCT035 BKN090
                       BECMG 0605/0607 11008KT 3500 HZ
                      TEMPO 0610/0612 2500 -TSRA SCT030 FEW035CB
                       BKN090=
202008042300 TAF VIDP 042300Z 0500/0606 13008KT 1800 BR RA
                      TEMPO 0500/0503 FEW040CB
                      BECMG 0504/0505 2500 BR HZ
                      BECMG 0507/0509 4500 HZ SCT035 BKN090
                      BECMG 0509/0515 35020G30KT 1000 TSRA FEW040CB
                       OVC080
                      BECMG 0517/0519 11008G18KT 2500 BR RA
                      BECMG 0604/0605 3500 BR HZ SCT030 BKN080=
202008041700 TAF VIDP 041700Z 0418/0524 15006KT 2500 HZ BR SCT100
                      BECMG 0421/0423 1800 BR FEW035 SCT090
                      TEMPO 0422/0424 FEW040CB
                      BECMG 0504/0506 2500 BR HZ
                      BECMG 0507/0509 4500 HZ SCT035 BKN090
                      BECMG 0509/0515 35020G30KT 1000 TSRA FEW040CB
                       OVC080
                      BECMG 0517/0519 11008G18KT 2500 BR -RA=
202008041100 TAF VIDP 041100Z 0412/0518 29008KT 3000 HZ SCT100
                      BECMG 0422/0502 09008KT 2500 BR RA SCT030
                       BKN100
                      BECMG 0504/0506 11008G18KT 3500 HZ
                      TEMPO 0509/0513 1500 TSRA SCT030 FEW035CB
                       BKN100
                      BECMG 0514/0516 13008KT 3000 HZ SCT030 BKN100=
202008040500 TAF VIDP 040500Z 0406/0512 27006KT 3500 HZ SCT035 BKN100
                      TEMPO 0409/0415 23015G25KT 1500 TSRA FEW040CB
                       OVC080
                      BECMG 0417/0419 25006KT 2500 BR HZ
                      BECMG 0504/0506 29006KT 4000 BR HZ FEW035
                       SCT090
                      BECMG 0507/0509 4500 HZ SCT035 BKN080
                      TEMPO 0509/0512 FEW040CB=
202008021700 TAF VIDP 021700Z 0218/0324 VRB02KT 3500 BR FEW040 SCT100
                      TEMPO 0222/0302 2000 TSRA SCT030 FEW035CB
                       BKN090
                      BECMG 0304/0306 27008KT 3000 HZ SCT035 SCT100
                       TEMPO 0309/0313 2000 -TSRA SCT030 FEW035CB
                       BKN090
                      BECMG 0320/0322 15005KT 3000 BR -RA SCT035
                       BKN090=
202008012300 TAF VIDP 012300Z 0200/0306 11005KT 2000BR -RA SCT030 FEW035CB BKN100
                       BECMG 0200/0203 1500 TSRA FEW040CB OVC080
                       BECMG 0204/0206 27008KT 3500 HZ SCT035 SCT100
                       BECMG 0209/0215 29015G25KT 1500 TSRA SCT030
                       FEW035CB BKN080
                      BECMG 0218/0220 25005KT 2500 HZ BR FEW035
                       SCT090
                      BECMG 0221/0301 1500 TSRA FEW035CB BKN100
                       BECMG 0304/0306 12006KT 3000 HZ BR SCT030
                       SCT090=

