
##########################################################
# Query made at 07/09/2023 14:48:37 UTC
# Time interval: from 06/01/2020 00:00  to 06/30/2020 23:59  UTC
##########################################################

##########################################################
# VIDP, New Delhi / Palam (India)
# WMO index: 42181
# Latitude 28-34-00N. Longitude 077-07-00E. Altitude 225 m.
##########################################################

###################################
#  METAR/SPECI from VIDP
###################################
202006302330 METAR VIDP 302330Z 10005KT 3000 HZ SCT035 FEW040CB BKN100 31/25 Q1001 NOSIG=
202006302300 METAR VIDP 302300Z 11006KT 3000 HZ SCT035 FEW040CB BKN100 31/25 Q1001 NOSIG=
202006302230 METAR VIDP 302230Z 10005KT 3000 HZ SCT035 FEW040CB BKN100 31/25 Q1000 NOSIG=
202006302200 METAR VIDP 302200Z 11006KT 3000 HZ SCT100 32/25 Q1000 NOSIG=
202006302130 METAR VIDP 302130Z 09007KT 3000 HZ SCT100 32/25 Q1000 NOSIG=
202006302100 METAR VIDP 302100Z 09007KT 3000 HZ SCT100 32/25 Q1000 NOSIG=
202006302030 METAR VIDP 302030Z 09006KT 3000 HZ FEW040 SCT100 32/25 Q1001 NOSIG=
202006302000 METAR VIDP 302000Z 08006KT 3000 HZ SCT100 32/25 Q1001 NOSIG=
202006301930 METAR VIDP 301930Z 09006KT 3000 HZ SCT100 32/25 Q1001 NOSIG=
202006301900 METAR VIDP 301900Z 09005KT 3000 HZ FEW100 33/25 Q1001 NOSIG=
202006301830 METAR VIDP 301830Z 09005KT 3000 HZ FEW100 33/25 Q1002 NOSIG=
202006301800 METAR VIDP 301800Z 09004KT 3000 HZ FEW100 33/25 Q1002 NOSIG=
202006301730 METAR VIDP 301730Z 09004KT 3000 HZ FEW100 33/25 Q1002 NOSIG=
202006301700 METAR VIDP 301700Z 10004KT 3000 HZ FEW100 33/25 Q1001 NOSIG=
202006301630 METAR VIDP 301630Z 11005KT 3000 HZ FEW100 33/25 Q1001 NOSIG=
202006301600 METAR VIDP 301600Z 11005KT 3000 HZ FEW100 33/25 Q1000 NOSIG=
202006301530 METAR VIDP 301530Z 12006KT 3000 HZ FEW100 34/25 Q1000 NOSIG=
202006301500 METAR VIDP 301500Z 12006KT 3500 HZ FEW040 SCT100 34/25 Q1000 BECMG 3000 HZ=
202006301430 METAR VIDP 301430Z 12006KT 3500 HZ FEW040 SCT100 34/25 Q0999 NOSIG=
202006301400 METAR VIDP 301400Z 10009KT 3500 HZ SCT040 BKN100 34/25 Q0999 NOSIG=
202006301330 METAR VIDP 301330Z 12008KT 3500 HZ SCT040 BKN100 35/25 Q0998 NOSIG=
202006301300 METAR VIDP 301300Z 12009KT 3500 HZ SCT040 BKN100 35/25 Q0998 NOSIG=
202006301230 METAR VIDP 301230Z 11009KT 3500 HZ SCT040 BKN100 35/25 Q0998 NOSIG=
202006301200 METAR VIDP 301200Z 10008KT 3500 HZ FEW040 SCT100 37/25 Q0998 NOSIG=
202006301130 METAR VIDP 301130Z 10007KT 3500 HZ FEW040 SCT100 37/25 Q0999 NOSIG=
202006301100 METAR VIDP 301100Z 11007KT 3500 HZ FEW040 SCT100 37/25 Q0999 NOSIG=
202006301030 METAR VIDP 301030Z 12006KT 3500 HZ FEW040 SCT100 37/25 Q1000 NOSIG=
202006301000 METAR VIDP 301000Z 12006KT 3500 HZ FEW040 SCT100 37/25 Q1000 NOSIG=
202006300930 METAR VIDP 300930Z 07004KT 3500 HZ FEW040 SCT100 37/25 Q1000 NOSIG=
202006300900 METAR VIDP 300900Z 13006KT 3500 HZ FEW040 SCT100 36/25 Q1001 NOSIG=
202006300830 METAR VIDP 300830Z 12007KT 3500 HZ FEW040 SCT100 36/25 Q1001 NOSIG=
202006300800 METAR VIDP 300800Z 12006KT 3500 HZ FEW040 SCT100 36/25 Q1002 NOSIG=
202006300730 METAR VIDP 300730Z 13006KT 3500 HZ FEW040 SCT100 36/25 Q1002 NOSIG=
202006300700 METAR VIDP 300700Z 11005KT 3500 HZ FEW100 35/25 Q1002 NOSIG=
202006300630 METAR VIDP 300630Z 11006KT 3500 HZ FEW100 35/25 Q1003 NOSIG=
202006300600 METAR VIDP 300600Z 11006KT 3500 HZ SCT100 34/25 Q1003 NOSIG=
202006300530 METAR VIDP 300530Z 11006KT 3200 HZ SCT100 34/25 Q1003 NOSIG=
202006300500 METAR VIDP 300500Z 12006KT 2800 HZ FEW035 SCT100 33/26 Q1003 BECMG 3000 HZ=
202006300430 METAR VIDP 300430Z 13006KT 2800 HZ SCT035 BKN100 32/26 Q1003 NOSIG=
202006300400 METAR VIDP 300400Z 12007KT 2500 HZ SCT035 BKN100 32/26 Q1004 NOSIG=
202006300330 METAR VIDP 300330Z 12006KT 2500 HZ SCT035 FEW040CB BKN100 31/26 Q1003 NOSIG=
202006300300 METAR VIDP 300300Z 11006KT 2200 BR SCT030 FEW035CB BKN100 31/27 Q1003 TEMPO 24015G25KT 0800 TSRA=
202006300230 METAR VIDP 300230Z 12007KT 1500 R28/1800 R29/P2000 BR SCT030 FEW035CB BKN090 30/26 Q1003 TEMPO 24015G25KT 0800 TSRA=
202006300200 METAR VIDP 300200Z 13010KT 1500 R28/1800 R29/P2000 BR SCT030 FEW035CB OVC080 29/25 Q1003 TEMPO 24015G25KT 0800 TSRA=
202006300130 METAR VIDP 300130Z 12010KT 1800 R28/1800 R29/P2000 BR SCT035 FEW040CB BKN100 28/24 Q1003 TEMPO 24015G25KT 1500 TSRA=
202006300100 METAR VIDP 300100Z 10007KT 2200 BR SCT035 FEW040CB BKN100 28/24 Q1002 TEMPO 24015G25KT 1500 TSRA=
202006300030 METAR VIDP 300030Z 11007KT 2500 BR FEW035 SCT100 28/24 Q1002 NOSIG=
202006300000 METAR VIDP 300000Z 11007KT 2500 BR FEW035 SCT100 28/24 Q1002 NOSIG=
202006292330 METAR VIDP 292330Z 12006KT 2500 HZ FEW035 SCT100 28/22 Q1002 NOSIG=
202006292300 METAR VIDP 292300Z 11005KT 2500 HZ FEW035 SCT100 28/22 Q1002 NOSIG=
202006292230 METAR VIDP 292230Z 11005KT 2500 HZ SCT035 BKN100 28/22 Q1001 NOSIG=
202006292200 METAR VIDP 292200Z 12006KT 2500 HZ SCT035 BKN100 28/23 Q1001 NOSIG=
202006292130 METAR VIDP 292130Z 11007KT 2500 HZ SCT035 BKN100 28/23 Q1001 NOSIG=
202006292100 METAR VIDP 292100Z 11007KT 2800 HZ SCT035 BKN100 28/23 Q1001 NOSIG=
202006292030 METAR VIDP 292030Z 12007KT 2800 HZ SCT035 BKN100 28/23 Q1001 NOSIG=
202006292000 METAR VIDP 292000Z 11005KT 2800 HZ SCT035 BKN100 28/23 Q1001 NOSIG=
202006291930 METAR VIDP 291930Z 11005KT 2800 HZ SCT035 BKN100 28/23 Q1001 NOSIG=
202006291900 METAR VIDP 291900Z 11006KT 3000 HZ SCT035 BKN100 28/23 Q1001 NOSIG=
202006291830 METAR VIDP 291830Z 10006KT 3000 HZ SCT035 BKN100 29/23 Q1001 NOSIG=
202006291800 METAR VIDP 291800Z 11005KT 3000 HZ SCT035 BKN100 29/23 Q1002 NOSIG=
202006291730 METAR VIDP 291730Z 13005KT 3000 HZ SCT035 BKN100 29/23 Q1002 NOSIG=
202006291700 METAR VIDP 291700Z 16004KT 3000 HZ SCT035 BKN100 29/23 Q1002 NOSIG=
202006291630 METAR VIDP 291630Z 14006KT 3000 HZ SCT035 BKN100 30/22 Q1001 NOSIG=
202006291600 METAR VIDP 291600Z 16005KT 3000 HZ SCT035 BKN100 30/22 Q1001 NOSIG=
202006291530 METAR VIDP 291530Z 15010KT 3000 HZ SCT035 BKN100 31/21 Q1000 NOSIG=
202006291500 METAR COR VIDP 291500Z 00000KT 3000 HZ SCT035 BKN100 31/21 Q0999 NOSIG=
202006291430 METAR VIDP 291430Z 00000KT 2800 HZ SCT035 FEW040CB BKN090 30/21 Q0999 BECMG 3000 HZ=
202006291400 METAR VIDP 291400Z 12009KT 2500 HZ SCT035 FEW040CB BKN090 29/21 Q0999 TEMPO 33020G30KT 1500 TSRA=
202006291330 METAR VIDP 291330Z 12007KT 2200 TS SCT035 FEW040CB BKN090 28/21 Q0998 TEMPO 33020G30KT 1500 TSRA=
202006291300 METAR VIDP 291300Z 10020G30KT 1200 R28/P2000 R29/P2000 TS SCT035 FEW040CB BKN090 28/21 Q1000 NOSIG=
202006291230 METAR VIDP 291230Z 03020G30KT 0800 R28/1800 R29/1000 DS SCT035 FEW040CB OVC080 33/20 Q0999 NOSIG=
202006291200 METAR VIDP 291200Z 03010G20KT 2500 BLDU SCT035 FEW040CB BKN100 36/26 Q0999 TEMPO 33020G30KT 1500 TSRA=
202006291130 METAR VIDP 291130Z 02010KT 2500 DU SCT035 FEW040CB BKN100 38/25 Q0998 TEMPO 33020G30KT 1500 TSRA=
202006291100 METAR VIDP 291100Z 03007KT 2500 DU SCT035 FEW040CB BKN100 39/25 Q0998 NOSIG=
202006291030 METAR VIDP 291030Z 35006KT 3000 DU SCT035 FEW040CB BKN100 40/24 Q0998 NOSIG=
202006291000 METAR VIDP 291000Z 32003KT 3200 DU SCT035 FEW040CB BKN100 40/24 Q0999 BECMG 3000 DU=
202006290930 METAR VIDP 290930Z 35008KT 3500 DU SCT035 FEW040CB BKN100 40/23 Q0999 NOSIG=
202006290900 METAR VIDP 290900Z 34009KT 3500 DU SCT035 FEW040CB BKN100 40/23 Q1000 NOSIG=
202006290830 METAR VIDP 290830Z 33007G17KT 3500 DU FEW035 FEW040CB SCT100 40/23 Q1000 NOSIG=
202006290800 METAR VIDP 290800Z 30008G18KT 4000 DU SCT040 BKN100 40/22 Q1001 NOSIG=
202006290730 METAR VIDP 290730Z 29008G18KT 4000 DU FEW040 SCT100 40/23 Q1001 NOSIG=
202006290700 METAR VIDP 290700Z 29008G18KT 4000 DU FEW040 SCT100 40/23 Q1001 NOSIG=
202006290630 METAR VIDP 290630Z 29009G19KT 4000 DU SCT100 39/22 Q1001 NOSIG=
202006290600 METAR VIDP 290600Z 28010KT 4500 HZ FEW100 39/22 Q1002 NOSIG=
202006290530 METAR VIDP 290530Z 29010KT 4500 HZ NSC 39/22 Q1002 NOSIG=
202006290500 METAR VIDP 290500Z 28010KT 4500 HZ NSC 39/22 Q1002 NOSIG=
202006290430 METAR VIDP 290430Z 29010KT 4500 HZ NSC 38/22 Q1001 NOSIG=
202006290400 METAR VIDP 290400Z 27012KT 4500 HZ NSC 38/22 Q1001 NOSIG=
202006290330 METAR VIDP 290330Z 26009KT 4500 HZ NSC 38/22 Q1001 NOSIG=
202006290300 METAR VIDP 290300Z 26008KT 3500 HZ NSC 37/22 Q1001 NOSIG=
202006290230 METAR VIDP 290230Z 25006KT 2500 HZ FEW100 36/22 Q1001 BECMG 3000 HZ=
202006290200 METAR VIDP 290200Z 25004KT 2500 HZ FEW035 SCT100 34/21 Q1000 NOSIG=
202006290130 METAR VIDP 290130Z 26004KT 2200 HZ FEW035 SCT100 34/21 Q1000 NOSIG=
202006290100 METAR VIDP 290100Z 26005KT 2200 HZ SCT035 BKN100 34/21 Q0999 NOSIG=
202006290030 METAR VIDP 290030Z 24005KT 2200 HZ SCT035 BKN100 34/21 Q0999 NOSIG=
202006290000 METAR VIDP 290000Z 25005KT 2200 HZ SCT035 BKN100 34/21 Q0999 NOSIG=
202006282330 METAR VIDP 282330Z 26006KT 2200 HZ SCT030 FEW040CB BKN100 34/21 Q0999 NOSIG=
202006282300 METAR VIDP 282300Z 27006KT 2200 HZ SCT030 FEW040CB BKN100 35/20 Q0999 NOSIG=
202006282230 METAR VIDP 282230Z 26005KT 2200 HZ SCT030 FEW040CB BKN100 35/21 Q0999 NOSIG=
202006282200 METAR VIDP 282200Z 28006KT 2200 HZ SCT030 FEW040CB BKN100 35/21 Q0999 NOSIG=
202006282130 METAR VIDP 282130Z 28005KT 2200 HZ SCT040 FEW040CB BKN100 35/22 Q0999 NOSIG=
202006282100 METAR VIDP 282100Z 27003KT 2200 HZ SCT040 BKN100 35/22 Q0999 NOSIG=
202006282030 METAR VIDP 282030Z 28003KT 2200 HZ FEW040 SCT100 35/22 Q0999 NOSIG=
202006282000 METAR VIDP 282000Z 23003KT 2200 HZ SCT040 BKN100 35/23 Q0998 NOSIG=
202006281930 METAR VIDP 281930Z 00000KT 2200 HZ SCT040 BKN100 35/23 Q0998 NOSIG=
202006281900 METAR VIDP 281900Z 27003KT 2200 HZ SCT040 BKN100 35/23 Q0998 NOSIG=
202006281830 METAR VIDP 281830Z 00000KT 2200 HZ SCT040 BKN100 36/24 Q0998 NOSIG=
202006281800 METAR VIDP 281800Z 25004KT 2200 HZ SCT040 BKN100 36/24 Q0998 NOSIG=
202006281730 METAR VIDP 281730Z 23004KT 2200 HZ SCT040 BKN100 37/23 Q0998 NOSIG=
202006281700 METAR VIDP 281700Z 23004KT 2200 HZ SCT040 BKN100 37/22 Q0998 NOSIG=
202006281630 METAR VIDP 281630Z 27003KT 2200 HZ FEW040 SCT100 38/22 Q0997 NOSIG=
202006281600 METAR VIDP 281600Z 27004KT 2200 HZ FEW040 SCT100 38/22 Q0997 NOSIG=
202006281530 METAR VIDP 281530Z 00000KT 2200 HZ SCT040 BKN100 38/22 Q0997 NOSIG=
202006281500 METAR VIDP 281500Z 25004KT 2200 HZ SCT040 BKN100 39/22 Q0996 NOSIG=
202006281430 METAR VIDP 281430Z 00000KT 2500 HZ SCT040 BKN100 39/22 Q0996 NOSIG=
202006281400 METAR VIDP 281400Z 27006KT 2500 HZ SCT040 BKN100 39/22 Q0996 NOSIG=
202006281330 METAR VIDP 281330Z 28006KT 2500 HZ SCT040 BKN100 39/22 Q0996 NOSIG=
202006281300 METAR VIDP 281300Z 27008KT 2500 BLDU SCT040 BKN100 39/22 Q0996 NOSIG=
202006281230 METAR VIDP 281230Z 28008KT 2500 BLDU SCT040 BKN100 40/22 Q0996 NOSIG=
202006281200 METAR VIDP 281200Z 27008G18KT 2500 BLDU SCT040 BKN100 40/22 Q0996 NOSIG=
202006281130 METAR VIDP 281130Z 27010G20KT 2500 BLDU SCT040 SCT100 41/22 Q0996 NOSIG=
202006281100 METAR VIDP 281100Z 27012G22KT 2500 BLDU SCT040 BKN100 41/23 Q0996 NOSIG=
202006281030 METAR VIDP 281030Z 27010G20KT 2500 BLDU SCT040 BKN100 41/23 Q0997 NOSIG=
202006281000 METAR VIDP 281000Z 28012G22KT 2500 BLDU SCT040 BKN100 41/23 Q0997 NOSIG=
202006280930 METAR COR VIDP 280930Z 28012G22KT 2500 BLDU SCT040 BKN100 41/23 Q0998 NOSIG=
202006280900 METAR VIDP 280900Z 27014G24KT 3200 BLDU SCT040 SCT100 41/23 Q0998 BECMG 3000 BLDU=
202006280830 METAR VIDP 280830Z 27014G24KT 3500 BLDU FEW040 SCT100 40/23 Q0998 NOSIG=
202006280800 METAR VIDP 280800Z 26012G22KT 3500 BLDU FEW040 SCT100 40/23 Q0999 NOSIG=
202006280730 METAR VIDP 280730Z 28010G20KT 3500 BLDU FEW040 SCT100 40/23 Q0999 NOSIG=
202006280700 METAR VIDP 280700Z 27011G22KT 3500 BLDU FEW040 SCT100 39/23 Q0999 NOSIG=
202006280630 METAR VIDP 280630Z 28012G22KT 3500 BLDU FEW040 SCT100 39/23 Q0999 NOSIG=
202006280600 METAR VIDP 280600Z 27011G21KT 3500 BLDU FEW040 SCT100 39/23 Q0999 NOSIG=
202006280530 METAR VIDP 280530Z 27014G24KT 3500 BLDU FEW040 SCT100 39/23 Q0999 NOSIG=
202006280500 METAR VIDP 280500Z 26016G26KT 3500 BLDU FEW040 SCT100 38/23 Q0999 NOSIG=
202006280430 METAR VIDP 280430Z 27014G24KT 3500 BLDU FEW040 SCT100 38/23 Q0999 NOSIG=
202006280400 METAR VIDP 280400Z 25012G22KT 3500 BLDU FEW040 SCT100 37/22 Q0999 NOSIG=
202006280330 METAR VIDP 280330Z 24011G21KT 3500 BLDU FEW040 SCT100 36/23 Q0999 NOSIG=
202006280300 METAR VIDP 280300Z 25007G17KT 3500 HZ FEW040 SCT100 35/23 Q0999 NOSIG=
202006280230 METAR VIDP 280230Z 25007G17KT 3500 HZ FEW040 SCT100 35/23 Q0999 NOSIG=
202006280200 METAR VIDP 280200Z 25008KT 3200 HZ SCT100 33/23 Q0999 NOSIG=
202006280130 METAR VIDP 280130Z 24006KT 2800 HZ SCT100 33/23 Q0999 BECMG 3000 HZ=
202006280100 METAR VIDP 280100Z 24006KT 2800 HZ SCT100 33/23 Q0998 NOSIG=
202006280030 METAR VIDP 280030Z 20004KT 2500 HZ FEW100 32/24 Q0998 NOSIG=
202006280000 METAR VIDP 280000Z 23004KT 2500 HZ FEW100 31/24 Q0998 NOSIG=
202006272330 METAR VIDP 272330Z 25004KT 2500 HZ SCT100 31/24 Q0997 NOSIG=
202006272300 METAR VIDP 272300Z 00000KT 2500 HZ SCT100 31/24 Q0997 NOSIG=
202006272230 METAR VIDP 272230Z 00000KT 3000 HZ SCT100 31/24 Q0998 NOSIG=
202006272200 METAR VIDP 272200Z 00000KT 3000 HZ SCT100 31/24 Q0998 NOSIG=
202006272130 METAR VIDP 272130Z 00000KT 3000 HZ SCT100 32/24 Q0998 NOSIG=
202006272100 METAR VIDP 272100Z 00000KT 3000 HZ SCT100 32/24 Q0998 NOSIG=
202006272030 METAR VIDP 272030Z 16004KT 3000 HZ SCT100 32/24 Q0998 NOSIG=
202006272000 METAR VIDP 272000Z 00000KT 2800 HZ SCT100 33/24 Q0998 BECMG 3000 HZ=
202006271930 METAR VIDP 271930Z 20003KT 2800 HZ SCT100 33/23 Q0998 NOSIG=
202006271900 METAR VIDP 271900Z 22003KT 2800 HZ SCT100 33/23 Q0998 NOSIG=
202006271830 METAR VIDP 271830Z 21003KT 2800 HZ SCT100 33/23 Q0998 NOSIG=
202006271800 METAR VIDP 271800Z 20003KT 2800 HZ SCT100 33/23 Q0998 NOSIG=
202006271730 METAR VIDP 271730Z 24003KT 2800 HZ SCT100 34/24 Q0998 NOSIG=
202006271700 METAR VIDP 271700Z 24003KT 2800 HZ SCT100 34/24 Q0998 NOSIG=
202006271630 METAR VIDP 271630Z 24004KT 2800 HZ SCT100 33/23 Q0998 NOSIG=
202006271600 METAR VIDP 271600Z 24004KT 2800 HZ SCT100 33/23 Q0998 NOSIG=
202006271530 METAR VIDP 271530Z 24004KT 2800 HZ SCT100 34/22 Q0998 NOSIG=
202006271500 METAR VIDP 271500Z 23003KT 3000 HZ SCT100 34/22 Q0997 NOSIG=
202006271430 METAR VIDP 271430Z 24005KT 3000 HZ FEW035 SCT100 34/22 Q0997 NOSIG=
202006271400 METAR VIDP 271400Z 26006KT 3000 HZ SCT035 BKN100 35/21 Q0998 NOSIG=
202006271330 METAR VIDP 271330Z 26006KT 3000 DU SCT035 BKN100 36/21 Q0997 NOSIG=
202006271300 METAR VIDP 271300Z 27008KT 3000 DU SCT035 BKN100 36/21 Q0997 NOSIG=
202006271230 METAR VIDP 271230Z 27008KT 3000 DU SCT035 BKN100 37/22 Q0997 NOSIG=
202006271200 METAR VIDP 271200Z 27008KT 3000 DU SCT030 BKN100 37/22 Q0997 NOSIG=
202006271130 METAR VIDP 271130Z 27008G18KT 2800 BLDU SCT030 BKN100 37/24 Q0997 BECMG 3000 BLDU=
202006271100 METAR VIDP 271100Z 27008G18KT 2200 BLDU SCT030 FEW035CB BKN100 37/24 Q0998 NOSIG=
202006271030 METAR VIDP 271030Z 27012G22KT 2200 BLDU SCT030 FEW035CB BKN100 38/22 Q0998 NOSIG=
202006271000 METAR VIDP 271000Z 29012G22KT 3500 BLDU SCT030 FEW035CB BKN100 40/23 Q0998 NOSIG=
202006270930 METAR VIDP 270930Z 28012G22KT 3500 BLDU SCT035 FEW040CB BKN100 40/23 Q0998 NOSIG=
202006270900 METAR VIDP 270900Z 27012G22KT 3500 BLDU SCT035 BKN100 40/23 Q0998 NOSIG=
202006270830 METAR VIDP 270830Z 28014G24KT 3500 BLDU SCT035 BKN100 40/23 Q0999 NOSIG=
202006270800 METAR VIDP 270800Z 27015G25KT 3000 HZ SCT035 FEW040CB BKN100 39/23 Q0999 NOSIG=
202006270730 METAR VIDP 270730Z 27015G25KT 3000 HZ SCT035 FEW040CB BKN100 39/23 Q0999 NOSIG=
202006270700 METAR VIDP 270700Z 27015G25KT 3000 HZ SCT035 FEW040CB BKN100 39/23 Q1000 NOSIG=
202006270630 METAR VIDP 270630Z 28015G25KT 3000 HZ SCT035 FEW040CB BKN100 38/23 Q1000 NOSIG=
202006270600 METAR VIDP 270600Z 27010G20KT 3000 HZ SCT035 BKN100 38/23 Q1000 NOSIG=
202006270530 METAR VIDP 270530Z 27009G18KT 3000 HZ SCT035 BKN100 36/24 Q1000 NOSIG=
202006270500 METAR VIDP 270500Z 26008G18KT 3000 HZ SCT035 BKN100 35/24 Q1000 NOSIG=
202006270430 METAR VIDP 270430Z 26010G20KT 3000 HZ SCT035 BKN100 34/24 Q1000 NOSIG=
202006270400 METAR VIDP 270400Z 26010G20KT 3000 HZ SCT035 BKN100 33/24 Q1000 NOSIG=
202006270330 METAR VIDP 270330Z 26010G20KT 3000 HZ SCT035 BKN100 33/24 Q1000 NOSIG=
202006270300 METAR VIDP 270300Z 26009KT 3000 HZ FEW035 SCT100 33/24 Q1000 NOSIG=
202006270230 METAR VIDP 270230Z 25008KT 3000 HZ FEW040 33/24 Q1000 NOSIG=
202006270200 METAR VIDP 270200Z 22006KT 3000 HZ FEW040 33/24 Q1000 NOSIG=
202006270130 METAR VIDP 270130Z 22006KT 3000 HZ FEW035 FEW040CB SCT100 32/24 Q1000 NOSIG=
202006270100 METAR VIDP 270100Z 23005KT 3000 HZ FEW035 FEW040CB SCT100 32/24 Q0999 NOSIG=
202006270030 METAR VIDP 270030Z 22005KT 3000 HZ FEW035 FEW040CB SCT100 31/24 Q0999 NOSIG=
202006270000 METAR VIDP 270000Z 22005KT 3000 HZ FEW040 SCT100 31/23 Q0999 NOSIG=
202006262330 METAR VIDP 262330Z 22004KT 3000 HZ FEW100 30/23 Q0999 NOSIG=
202006262300 METAR VIDP 262300Z 21004KT 3000 HZ FEW100 30/23 Q0999 NOSIG=
202006262230 METAR VIDP 262230Z 23003KT 3000 HZ FEW100 30/23 Q0998 NOSIG=
202006262200 METAR VIDP 262200Z 25003KT 3000 HZ FEW100 30/23 Q0998 NOSIG=
202006262130 METAR VIDP 262130Z 26003KT 3000 HZ FEW100 31/23 Q0998 NOSIG=
202006262100 METAR VIDP 262100Z 25003KT 3000 HZ FEW100 31/23 Q0998 NOSIG=
202006262030 METAR VIDP 262030Z 26003KT 3000 HZ FEW100 31/23 Q0998 NOSIG=
202006262000 METAR VIDP 262000Z 00000KT 3000 HZ FEW100 31/24 Q0999 NOSIG=
202006261930 METAR VIDP 261930Z 00000KT 3000 HZ FEW100 31/24 Q0999 NOSIG=
202006261900 METAR VIDP 261900Z 25004KT 3000 HZ FEW100 32/25 Q0999 NOSIG=
202006261830 METAR VIDP 261830Z 24004KT 3000 HZ FEW100 32/25 Q1000 NOSIG=
202006261800 METAR COR VIDP 261800Z 24004KT 3000 HZ FEW100 32/25 Q1000 NOSIG=
202006261730 METAR VIDP 261730Z 24003KT 3000 HZ FEW100 32/24 Q1000 NOSIG=
202006261700 METAR VIDP 261700Z 24004KT 3500 HZ FEW040 SCT100 32/24 Q1000 BECMG 3000 HZ=
202006261630 METAR VIDP 261630Z 25004KT 3500 HZ FEW040 SCT100 32/24 Q1000 NOSIG=
202006261600 METAR VIDP 261600Z 24004KT 3500 HZ FEW040 SCT100 32/24 Q1000 NOSIG=
202006261530 METAR VIDP 261530Z 25006KT 4000 HZ FEW040 SCT100 32/24 Q0999 NOSIG=
202006261500 METAR VIDP 261500Z 26006KT 4000 HZ FEW040 SCT100 32/25 Q0999 NOSIG=
202006261430 METAR VIDP 261430Z 27007KT 4000 HZ SCT035 SCT100 33/25 Q0999 NOSIG=
202006261400 METAR VIDP 261400Z 27008KT 4500 HZ SCT035 SCT100 33/24 Q0998 NOSIG=
202006261330 METAR VIDP 261330Z 27009KT 4500 HZ SCT035 SCT100 33/24 Q0998 NOSIG=
202006261300 METAR VIDP 261300Z 27009KT 4500 HZ SCT035 SCT100 34/25 Q0998 NOSIG=
202006261230 METAR VIDP 261230Z 26010KT 4500 HZ SCT035 SCT100 34/25 Q0998 NOSIG=
202006261200 METAR VIDP 261200Z 26011KT 4500 HZ SCT035 SCT100 35/24 Q0998 NOSIG=
202006261130 METAR VIDP 261130Z 27011KT 5000 HZ SCT035 SCT100 36/24 Q0998 NOSIG=
202006261100 METAR COR VIDP 261100Z 28009KT 5000 HZ SCT035 SCT100 36/23 Q0998 NOSIG=
202006261030 METAR VIDP 261030Z 29008KT 5000 HZ SCT035 SCT100 37/23 Q0998 NOSIG=
202006261000 METAR VIDP 261000Z 29008KT 4500 HZ SCT035 SCT100 36/23 Q0998 BECMG 5000 HZ=
202006260930 METAR VIDP 260930Z 28010KT 4500 HZ SCT035 SCT100 36/23 Q0999 NOSIG=
202006260900 METAR VIDP 260900Z 27010KT 4500 HZ SCT035 SCT100 36/23 Q1000 NOSIG=
202006260830 METAR VIDP 260830Z 27010KT 4000 HZ SCT035 SCT100 36/23 Q1000 NOSIG=
202006260800 METAR VIDP 260800Z 30010KT 3500 HZ SCT035 FEW040CB SCT100 35/23 Q1000 NOSIG=
202006260730 METAR VIDP 260730Z 31010KT 3500 HZ SCT035 FEW040CB SCT100 35/24 Q1001 NOSIG=
202006260700 METAR VIDP 260700Z 30010KT 2800 HZ SCT035 FEW040CB SCT100 35/24 Q1001 BECMG 3000 HZ=
202006260630 METAR VIDP 260630Z 26009KT 2200 HZ SCT035 FEW040CB SCT100 32/23 Q1001 NOSIG=
202006260600 METAR VIDP 260600Z 28013KT 1400 R28/2000 R29/2000 BR SCT035 FEW040CB SCT100 31/27 Q1001 BECMG 1500 HZ=
202006260530 METAR VIDP 260530Z 24008G18KT 1100 R28/1100 R29/2000 -TSRA SCT035 FEW040CB BKN080 30/27 Q1002 NOSIG=
202006260500 METAR VIDP 260500Z 25009KT 2500 HZ SCT035 FEW040CB BKN100 35/25 Q1002 TEMPO 29020G30KT 1500 TSRA=
202006260430 METAR VIDP 260430Z 26006KT 2500 HZ FEW035 FEW040CB SCT100 35/24 Q1001 TEMPO 29020G30KT 1500 TSRA=
202006260400 METAR VIDP 260400Z 25005KT 2000 HZ FEW035 FEW040CB SCT100 34/25 Q1001 TEMPO 29020G30KT 1500 TSRA=
202006260330 METAR VIDP 260330Z 23004KT 1800 R28/P2000 R29/P2000 HZ FEW100 33/26 Q1001 NOSIG=
202006260300 METAR VIDP 260300Z 18003KT 1500 R28/P2000 R29/P2000 HZ FEW100 32/26 Q1001 NOSIG=
202006260230 METAR VIDP 260230Z 00000KT 1400 R28/P2000 R29/P2000 HZ FEW100 31/26 Q1001 BECMG 1500 HZ=
202006260200 METAR VIDP 260200Z 14004KT 1200 R28/P2000 R29/P2000 BR FEW100 30/26 Q1000 NOSIG=
202006260130 METAR VIDP 260130Z 15004KT 1200 R28/P2000 R29/P2000 BR FEW100 30/26 Q1000 NOSIG=
202006260100 METAR VIDP 260100Z 13004KT 1200 R28/P2000 R29/P2000 BR FEW100 30/26 Q1000 NOSIG=
202006260030 METAR VIDP 260030Z 00000KT 1500 R28/P2000 R29/P2000 BR FEW100 30/26 Q1001 NOSIG=
202006260000 METAR VIDP 260000Z 00000KT 1500 R28/P2000 R29/P2000 BR FEW100 30/26 Q1001 NOSIG=
202006252330 METAR VIDP 252330Z 00000KT 1600 R28/P2000 R29/P2000 BR SCT100 30/26 Q1000 BECMG 1500 BR=
202006252300 METAR VIDP 252300Z 00000KT 1800 R28/P2000 R29/P2000 BR SCT100 30/26 Q1000 NOSIG=
202006252230 METAR VIDP 252230Z 06004KT 2200 BR SCT100 29/26 Q1000 NOSIG=
202006252200 METAR VIDP 252200Z 00000KT 2200 BR SCT100 29/26 Q1000 NOSIG=
202006252130 METAR VIDP 252130Z 00000KT 2200 BR SCT100 29/25 Q1000 NOSIG=
202006252100 METAR VIDP 252100Z 00000KT 2200 BR SCT100 29/25 Q1000 NOSIG=
202006252030 METAR VIDP 252030Z 00000KT 2200 BR SCT100 29/25 Q1000 NOSIG=
202006252000 METAR VIDP 252000Z 00000KT 2200 BR SCT100 29/25 Q1000 NOSIG=
202006251930 METAR VIDP 251930Z 00000KT 2200 HZ SCT100 30/25 Q1000 NOSIG=
202006251900 METAR VIDP 251900Z 00000KT 2200 HZ SCT100 31/25 Q1000 NOSIG=
202006251830 METAR VIDP 251830Z 00000KT 2500 HZ SCT100 31/25 Q1000 NOSIG=
202006251800 METAR VIDP 251800Z 00000KT 2500 HZ SCT100 31/25 Q1001 NOSIG=
202006251730 METAR VIDP 251730Z 00000KT 3000 HZ SCT100 31/25 Q1001 NOSIG=
202006251700 METAR VIDP 251700Z 00000KT 3000 HZ SCT100 32/24 Q1001 NOSIG=
202006251630 METAR VIDP 251630Z 00000KT 3000 HZ SCT100 32/24 Q1001 NOSIG=
202006251600 METAR VIDP 251600Z 23004KT 3000 HZ SCT100 32/25 Q1000 NOSIG=
202006251530 METAR VIDP 251530Z 23005KT 3200 HZ SCT100 32/25 Q1000 BECMG 3000 HZ=
202006251500 METAR VIDP 251500Z 33004KT 3200 HZ SCT100 32/25 Q1000 NOSIG=
202006251430 METAR VIDP 251430Z 28004KT 3500 HZ SCT100 32/24 Q0999 NOSIG=
202006251400 METAR VIDP 251400Z 25003KT 4000 HZ FEW035 SCT100 34/24 Q0999 NOSIG=
202006251330 METAR VIDP 251330Z 05003KT 4000 HZ FEW035 SCT100 34/24 Q0998 NOSIG=
202006251300 METAR VIDP 251300Z 27005KT 4000 HZ FEW035 SCT100 34/24 Q0998 NOSIG=
202006251230 METAR VIDP 251230Z 27005KT 4000 HZ FEW035 SCT100 34/24 Q0998 NOSIG=
202006251200 METAR VIDP 251200Z 26003KT 3500 HZ SCT035 SCT100 35/24 Q0998 NOSIG=
202006251130 METAR VIDP 251130Z 27005KT 3500 HZ SCT035 SCT100 33/24 Q0998 NOSIG=
202006251100 METAR VIDP 251100Z 10005KT 2800 HZ SCT035 FEW040CB SCT100 32/25 Q0998 BECMG 3000=
202006251030 METAR VIDP 251030Z 09005KT 2500 HZ SCT035 FEW040CB SCT100 31/25 Q0998 TEMPO TSRA=
202006251000 METAR VIDP 251000Z 07003KT 2000 HZ SCT035 FEW040CB BKN100 30/25 Q0999 TEMPO TSRA=
202006250930 METAR VIDP 250930Z 05007KT 1400 R28/2000 R29/2000 DU SCT035 FEW040CB BKN100 30/25 Q1000 TEMPO 1500 TSRA=
202006250900 METAR VIDP 250900Z 31015G25KT 0900 R28/2000 R29/1100 BLDU SCT035 FEW040CB SCT100 32/24 Q1001 TEMPO TSRA=
202006250830 METAR VIDP 250830Z 33009KT 5000 HZ SCT035 FEW040CB SCT100 37/23 Q1000 TEMPO 29015G25KT 1500 TSRA=
202006250800 METAR VIDP 250800Z 29009KT 5000 HZ SCT035 FEW040CB SCT100 37/23 Q1000 NOSIG=
202006250730 METAR VIDP 250730Z 28006KT 5000 HZ SCT040 SCT100 37/23 Q1000 NOSIG=
202006250700 METAR VIDP 250700Z 28006KT 5000 HZ FEW040 SCT100 36/22 Q1001 NOSIG=
202006250630 METAR VIDP 250630Z 30006KT 5000 HZ FEW040 SCT100 36/22 Q1001 NOSIG=
202006250600 METAR VIDP 250600Z 26005KT 4500 HZ FEW040 SCT100 35/22 Q1002 BECMG 5000 HZ=
202006250530 METAR VIDP 250530Z 30004KT 4000 HZ FEW040 SCT100 35/23 Q1002 NOSIG=
202006250500 METAR VIDP 250500Z 29004KT 4000 HZ FEW040 SCT100 35/23 Q1002 NOSIG=
202006250430 METAR VIDP 250430Z 28004KT 3500 HZ FEW100 34/23 Q1002 NOSIG=
202006250400 METAR VIDP 250400Z 25003KT 3000 HZ SCT100 34/24 Q1002 NOSIG=
202006250330 METAR VIDP 250330Z 26004KT 3000 HZ SCT100 32/25 Q1002 NOSIG=
202006250300 METAR VIDP 250300Z 25003KT 3000 HZ SCT040 BKN100 32/25 Q1002 NOSIG=
202006250230 METAR VIDP 250230Z 25003KT 2500 HZ SCT040 BKN100 32/25 Q1002 BECMG 3000 HZ=
202006250200 METAR VIDP 250200Z 00000KT 2500 HZ SCT040 BKN100 30/25 Q1001 NOSIG=
202006250130 METAR VIDP 250130Z 00000KT 2500 BR SCT040 BKN100 29/25 Q1001 NOSIG=
202006250100 METAR VIDP 250100Z 00000KT 2500 BR SCT040 BKN100 29/25 Q1001 NOSIG=
202006250030 METAR VIDP 250030Z 00000KT 3000 BR SCT040 BKN100 29/25 Q1001 NOSIG=
202006250000 METAR VIDP 250000Z 25003KT 3000 BR SCT040 BKN100 29/25 Q1001 NOSIG=
202006242330 METAR VIDP 242330Z 26004KT 3000 BR FEW040 SCT100 29/26 Q1001 NOSIG=
202006242300 METAR VIDP 242300Z 27005KT 3000 BR FEW100 29/26 Q1002 NOSIG=
202006242230 METAR VIDP 242230Z 26005KT 3000 BR FEW100 29/26 Q1002 NOSIG=
202006242200 METAR VIDP 242200Z 00000KT 3200 BR FEW100 29/26 Q1002 BECMG 3000 BR=
202006242130 METAR VIDP 242130Z 00000KT 3500 BR FEW100 29/26 Q1002 NOSIG=
202006242100 METAR VIDP 242100Z 00000KT 3500 BR FEW100 29/26 Q1003 NOSIG=
202006242030 METAR VIDP 242030Z 00000KT 3500 BR FEW100 29/25 Q1003 NOSIG=
202006242000 METAR VIDP 242000Z 00000KT 3500 BR FEW100 29/25 Q1003 NOSIG=
202006241930 METAR VIDP 241930Z 00000KT 3500 BR FEW100 29/25 Q1003 NOSIG=
202006241900 METAR VIDP 241900Z 00000KT 3500 HZ FEW100 30/25 Q1003 NOSIG=
202006241830 METAR VIDP 241830Z 12003KT 3500 HZ FEW100 30/25 Q1004 NOSIG=
202006241800 METAR VIDP 241800Z 12005KT 3500 HZ FEW100 30/25 Q1004 NOSIG=
202006241730 METAR VIDP 241730Z 13005KT 3500 HZ FEW040 SCT100 30/25 Q1004 NOSIG=
202006241700 METAR VIDP 241700Z 12004KT 3500 HZ FEW040 SCT100 30/25 Q1003 NOSIG=
202006241630 METAR VIDP 241630Z 11006KT 3500 HZ FEW040 SCT100 30/25 Q1003 NOSIG=
202006241600 METAR VIDP 241600Z 12005KT 3500 HZ FEW040 SCT100 31/25 Q1002 NOSIG=
202006241530 METAR VIDP 241530Z 11004KT 3500 HZ FEW040 SCT100 31/26 Q1002 NOSIG=
202006241500 METAR VIDP 241500Z 11005KT 3500 HZ FEW040 SCT100 32/26 Q1002 NOSIG=
202006241430 METAR VIDP 241430Z 13006KT 3500 HZ FEW040 SCT100 32/26 Q1001 NOSIG=
202006241400 METAR VIDP 241400Z 10007KT 3500 HZ FEW040 SCT100 32/25 Q1001 NOSIG=
202006241330 METAR VIDP 241330Z 11007KT 3500 HZ FEW040 SCT100 32/25 Q1001 NOSIG=
202006241300 METAR VIDP 241300Z 09008KT 3500 HZ SCT040 BKN100 33/26 Q1001 NOSIG=
202006241230 METAR VIDP 241230Z 08007KT 3500 HZ FEW040 SCT100 33/25 Q1001 NOSIG=
202006241200 METAR VIDP 241200Z 08008KT 3500 HZ FEW040 SCT100 33/25 Q1001 NOSIG=
202006241130 METAR VIDP 241130Z 08008KT 3500 HZ FEW040 SCT100 33/25 Q1001 NOSIG=
202006241100 METAR VIDP 241100Z 09009KT 3500 HZ FEW040 SCT100 34/26 Q1001 NOSIG=
202006241030 METAR VIDP 241030Z 09009KT 3500 HZ SCT040 SCT100 34/26 Q1002 NOSIG=
202006241000 METAR VIDP 241000Z 08008KT 3500 HZ SCT040 SCT100 33/25 Q1002 NOSIG=
202006240930 METAR VIDP 240930Z 09008KT 3500 HZ SCT040 SCT100 33/25 Q1003 NOSIG=
202006240900 METAR VIDP 240900Z 11008KT 3500 HZ FEW035 FEW040CB SCT100 32/25 Q1003 NOSIG=
202006240830 METAR VIDP 240830Z 11012KT 3500 HZ SCT035 FEW040CB BKN100 31/25 Q1003 TEMPO 14015G25KT 1500 TSRA=
202006240800 METAR VIDP 240800Z 10012KT 3500 HZ SCT035 FEW040CB BKN100 31/25 Q1003 TEMPO 14015G25KT 1500 TSRA=
202006240730 METAR VIDP 240730Z 09011KT 3500 BR SCT030 FEW035CB BKN100 29/26 Q1004 TEMPO 14015G25KT 1500 TSRA=
202006240700 METAR VIDP 240700Z 09012KT 3500 BR SCT030 FEW035CB BKN100 29/26 Q1004 TEMPO 14015G25KT 1500 TSRA=
202006240630 METAR VIDP 240630Z 10014G24KT 3000 HZ SCT030 FEW035CB BKN100 30/25 Q1005 TEMPO 14015G25KT 1500 TSRA=
202006240600 METAR VIDP 240600Z 10011KT 3500 HZ SCT030 FEW035CB BKN100 32/25 Q1005 TEMPO 14015G25KT 1500 TSRA=
202006240530 METAR COR VIDP 240530Z 11011KT 3500 HZ SCT030 FEW035CB BKN100 33/25 Q1005 TEMPO 14015G25KT 1500 TSRA=
202006240500 METAR VIDP 240500Z 13010KT 3500 HZ SCT030 FEW035CB BKN100 33/25 Q1005 NOSIG=
202006240430 METAR COR VIDP 240430Z 12007KT 3500 HZ SCT030 FEW035CB BKN100 33/25 Q1004 NOSIG=
202006240400 METAR VIDP 240400Z 12007KT 3500 HZ SCT030 FEW035CB BKN100 32/25 Q1004 NOSIG=
202006240330 METAR VIDP 240330Z 10008KT 3500 HZ SCT030 FEW035CB BKN100 31/25 Q1004 NOSIG=
202006240300 METAR VIDP 240300Z 11007KT 3500 HZ SCT035 BKN100 31/25 Q1005 NOSIG=
202006240230 METAR VIDP 240230Z 13008KT 3500 HZ SCT035 BKN100 31/24 Q1004 NOSIG=
202006240200 METAR VIDP 240200Z 11008KT 3500 HZ SCT035 BKN100 30/24 Q1004 NOSIG=
202006240130 METAR VIDP 240130Z 11008KT 3500 HZ SCT035 BKN100 30/24 Q1004 NOSIG=
202006240100 METAR VIDP 240100Z 11008KT 3000 HZ SCT035 BKN100 29/24 Q1003 NOSIG=
202006240030 METAR VIDP 240030Z 11005KT 3000 HZ SCT035 BKN100 29/24 Q1003 NOSIG=
202006240000 METAR VIDP 240000Z 11005KT 3000 HZ SCT035 BKN100 29/24 Q1003 NOSIG=
202006232330 METAR VIDP 232330Z 09004KT 3000 HZ SCT035 BKN100 29/24 Q1003 NOSIG=
202006232300 METAR VIDP 232300Z 12007KT 3000 HZ SCT035 BKN100 29/24 Q1002 NOSIG=
202006232230 METAR VIDP 232230Z 12007KT 3500 HZ SCT035 BKN100 29/24 Q1002 NOSIG=
202006232200 METAR VIDP 232200Z 12007KT 3500 HZ SCT035 FEW040CB BKN100 30/25 Q1002 NOSIG=
202006232130 METAR VIDP 232130Z 13006KT 3500 HZ SCT035 BKN100 30/25 Q1002 NOSIG=
202006232100 METAR VIDP 232100Z 12006KT 3500 HZ SCT035 BKN100 30/25 Q1003 NOSIG=
202006232030 METAR VIDP 232030Z 13008KT 3500 HZ SCT035 BKN100 30/25 Q1003 NOSIG=
202006232000 METAR VIDP 232000Z 12009KT 3500 HZ FEW035 SCT100 30/25 Q1004 NOSIG=
202006231930 METAR VIDP 231930Z 11009KT 3000 HZ FEW035 SCT100 31/25 Q1004 NOSIG=
202006231900 METAR VIDP 231900Z 12008KT 3000 HZ FEW035 SCT100 31/25 Q1004 NOSIG=
202006231830 METAR VIDP 231830Z 12008KT 3000 HZ FEW035 SCT100 31/25 Q1004 NOSIG=
202006231800 METAR VIDP 231800Z 11009KT 3000 HZ FEW035 SCT100 32/25 Q1004 NOSIG=
202006231730 METAR VIDP 231730Z 10009KT 3000 HZ FEW035 SCT100 32/25 Q1004 NOSIG=
202006231700 METAR VIDP 231700Z 11008KT 3200 HZ FEW035 SCT100 33/25 Q1004 BECMG VIS 3000=
202006231630 METAR VIDP 231630Z 11008KT 3200 HZ FEW035 SCT100 33/25 Q1003 NOSIG=
202006231600 METAR VIDP 231600Z 11008KT 3500 HZ FEW035 SCT100 33/25 Q1002 NOSIG=
202006231530 METAR VIDP 231530Z 10009KT 3500 HZ FEW035 SCT100 33/25 Q1002 NOSIG=
202006231500 METAR VIDP 231500Z 10008KT 3500 HZ FEW035 SCT100 33/24 Q1001 NOSIG=
202006231430 METAR VIDP 231430Z 10009KT 4000 HZ FEW035 SCT100 33/25 Q1002 NOSIG=
202006231400 METAR VIDP 231400Z 10008KT 4000 HZ FEW035 SCT100 34/25 Q1002 NOSIG=
202006231330 METAR VIDP 231330Z 11009KT 4000 HZ FEW035 SCT100 34/25 Q1001 NOSIG=
202006231300 METAR VIDP 231300Z 08010KT 4000 HZ FEW035 SCT100 34/25 Q1001 NOSIG=
202006231230 METAR VIDP 231230Z 08010KT 4000 HZ FEW035 SCT100 34/24 Q1000 NOSIG=
202006231200 METAR VIDP 231200Z 09010KT 4000 HZ FEW035 SCT100 34/24 Q1000 NOSIG=
202006231130 METAR VIDP 231130Z 08008KT 4000 HZ FEW035 SCT100 35/24 Q1000 NOSIG=
202006231100 METAR VIDP 231100Z 08009KT 4000 HZ FEW035 SCT100 35/24 Q1000 NOSIG=
202006231030 METAR VIDP 231030Z 06009KT 4000 HZ FEW035 SCT100 35/23 Q1000 NOSIG=
202006231000 METAR VIDP 231000Z 07010KT 4000 HZ FEW035 SCT100 35/23 Q1001 NOSIG=
202006230930 METAR VIDP 230930Z 07011KT 4000 HZ FEW035 SCT100 35/23 Q1001 NOSIG=
202006230900 METAR VIDP 230900Z 07006G16KT 4000 HZ SCT035 BKN100 35/24 Q1001 NOSIG=
202006230830 METAR VIDP 230830Z 09006G16KT 4000 HZ SCT035 BKN100 35/24 Q1002 NOSIG=
202006230800 METAR VIDP 230800Z 08006G16KT 4000 HZ SCT035 SCT100 36/24 Q1002 NOSIG=
202006230730 METAR VIDP 230730Z 07005G15KT 4000 HZ SCT035 SCT100 36/24 Q1003 NOSIG=
202006230700 METAR VIDP 230700Z 06010KT 4000 HZ SCT035 SCT100 35/24 Q1003 NOSIG=
202006230630 METAR VIDP 230630Z 06009KT 4000 HZ SCT035 FEW040CB SCT100 35/24 Q1003 NOSIG=
202006230600 METAR VIDP 230600Z 08007KT 4000 HZ SCT035 FEW040TCU SCT100 34/24 Q1004 NOSIG=
202006230530 METAR VIDP 230530Z 08009KT 4000 HZ SCT035 FEW040TCU SCT100 34/24 Q1004 NOSIG=
202006230500 METAR VIDP 230500Z 10008KT 3500 HZ SCT035 FEW040TCU SCT100 33/25 Q1004 NOSIG=
202006230430 METAR VIDP 230430Z 10007KT 3000 HZ FEW040 SCT100 33/25 Q1004 NOSIG=
202006230400 METAR VIDP 230400Z 11008KT 3000 HZ FEW040 SCT100 32/24 Q1004 NOSIG=
202006230330 METAR VIDP 230330Z 11008KT 3000 HZ FEW040 SCT100 32/25 Q1003 NOSIG=
202006230300 METAR VIDP 230300Z 11008KT 3000 HZ FEW040 SCT100 31/25 Q1003 NOSIG=
202006230230 METAR VIDP 230230Z 11007KT 3000 HZ FEW100 31/25 Q1003 NOSIG=
202006230200 METAR VIDP 230200Z 12006KT 3000 HZ FEW100 31/25 Q1003 NOSIG=
202006230130 METAR VIDP 230130Z 12005KT 3000 HZ FEW100 30/24 Q1003 NOSIG=
202006230100 METAR VIDP 230100Z 11005KT 3000 HZ NSC 30/24 Q1002 NOSIG=
202006230030 METAR VIDP 230030Z 10005KT 3000 HZ NSC 29/24 Q1002 NOSIG=
202006230000 METAR VIDP 230000Z 11005KT 3000 HZ NSC 29/24 Q1001 NOSIG=
202006222330 METAR VIDP 222330Z 10005KT 3000 HZ NSC 29/24 Q1001 NOSIG=
202006222300 METAR VIDP 222300Z 11006KT 3000 HZ NSC 29/24 Q1001 NOSIG=
202006222230 METAR VIDP 222230Z 10006KT 3000 HZ NSC 30/24 Q1001 NOSIG=
202006222200 METAR VIDP 222200Z 10008KT 3000 HZ NSC 30/24 Q1001 NOSIG=
202006222130 METAR VIDP 222130Z 11010KT 3000 HZ NSC 30/24 Q1001 NOSIG=
202006222100 METAR VIDP 222100Z 11007KT 3000 HZ NSC 31/24 Q1001 NOSIG=
202006222030 METAR VIDP 222030Z 11007KT 3000 HZ NSC 31/24 Q1001 NOSIG=
202006222000 METAR VIDP 222000Z 11006KT 3000 HZ NSC 31/24 Q1001 NOSIG=
202006221930 METAR VIDP 221930Z 11007KT 3000 HZ NSC 31/24 Q1001 NOSIG=
202006221900 METAR VIDP 221900Z 11006KT 3000 HZ NSC 32/24 Q1001 NOSIG=
202006221830 METAR VIDP 221830Z 09004KT 3000 HZ NSC 32/24 Q1001 NOSIG=
202006221800 METAR VIDP 221800Z 10004KT 3000 HZ NSC 33/24 Q1001 NOSIG=
202006221730 METAR VIDP 221730Z 10005KT 3000 HZ NSC 33/24 Q1001 NOSIG=
202006221700 METAR VIDP 221700Z 09006KT 3000 HZ NSC 33/23 Q1001 NOSIG=
202006221630 METAR VIDP 221630Z 09004KT 3000 HZ NSC 33/23 Q1001 NOSIG=
202006221600 METAR VIDP 221600Z 07003KT 3000 HZ NSC 33/23 Q1000 NOSIG=
202006221530 METAR VIDP 221530Z 06003KT 3000 HZ NSC 34/23 Q1000 NOSIG=
202006221500 METAR VIDP 221500Z 06003KT 3500 HZ FEW035 34/23 Q1000 BECMG 3000 HZ=
202006221430 METAR VIDP 221430Z 05004KT 3500 HZ FEW100 34/23 Q0999 NOSIG=
202006221400 METAR VIDP 221400Z 02005KT 4000 HZ FEW100 35/22 Q0998 NOSIG=
202006221330 METAR VIDP 221330Z 03004KT 4000 HZ FEW100 35/22 Q0998 NOSIG=
202006221300 METAR VIDP 221300Z 03005KT 4000 HZ FEW035 36/21 Q0998 NOSIG=
202006221230 METAR VIDP 221230Z 34006KT 4500 HZ FEW035 37/20 Q0998 NOSIG=
202006221200 METAR VIDP 221200Z 35006KT 4500 HZ FEW035 37/20 Q0998 NOSIG=
202006221130 METAR VIDP 221130Z 33006KT 4500 HZ FEW035 37/21 Q0998 NOSIG=
202006221100 METAR VIDP 221100Z 34005KT 5000 HZ FEW035 37/21 Q0998 NOSIG=
202006221030 METAR VIDP 221030Z 35005KT 5000 HZ FEW035 37/21 Q0999 NOSIG=
202006221000 METAR VIDP 221000Z 04005KT 5000 HZ FEW035 37/20 Q0999 NOSIG=
202006220930 METAR VIDP 220930Z 03005KT 5000 HZ FEW035 37/20 Q0999 NOSIG=
202006220900 METAR VIDP 220900Z 32005KT 5000 HZ FEW035 36/20 Q0999 NOSIG=
202006220830 METAR VIDP 220830Z 34005KT 4500 HZ FEW035 36/20 Q1000 BECMG 5000 HZ=
202006220800 METAR VIDP 220800Z 02004KT 4000 HZ FEW035 35/21 Q1001 NOSIG=
202006220730 METAR VIDP 220730Z 30006KT 4000 HZ SCT100 35/21 Q1001 NOSIG=
202006220700 METAR VIDP 220700Z 32007KT 4000 HZ SCT100 34/22 Q1001 NOSIG=
202006220630 METAR VIDP 220630Z 05005KT 4000 HZ SCT100 34/23 Q1001 NOSIG=
202006220600 METAR VIDP 220600Z 05005KT 4000 HZ SCT100 33/23 Q1001 NOSIG=
202006220530 METAR VIDP 220530Z 32006KT 4000 HZ SCT100 32/22 Q1002 NOSIG=
202006220500 METAR VIDP 220500Z 33007KT 3500 HZ SCT100 32/21 Q1002 NOSIG=
202006220430 METAR VIDP 220430Z 30006KT 3200 HZ SCT035 SCT100 31/24 Q1001 NOSIG=
202006220400 METAR VIDP 220400Z 00000KT 2800 HZ SCT035 BKN100 30/24 Q1001 BECMG 3000 HZ=
202006220330 METAR VIDP 220330Z 16005KT 2500 BR SCT035 BKN100 28/24 Q1001 NOSIG=
202006220300 METAR VIDP 220300Z 14007KT 2200 BR SCT030 BKN100 26/25 Q1002 NOSIG=
202006220230 METAR VIDP 220230Z 12007KT 2200 BR SCT030 FEW035CB BKN100 26/25 Q1002 TEMPO 29025G35KT 1500 TSRA=
202006220200 METAR VIDP 220200Z 06006KT 2500 BR SCT030 FEW035CB BKN100 27/24 Q1001 TEMPO 29025G35KT 1500 TSRA=
202006220130 METAR VIDP 220130Z 06006KT 2200 BR SCT030 FEW035CB BKN100 27/24 Q1001 TEMPO 29025G35KT 1500 TSRA=
202006220100 METAR VIDP 220100Z 06007KT 1800 R28/P2000 R29/P2000 -TSRA SCT020 FEW025CB OVC080 26/25 Q1001 TEMPO 29025G35KT 1500 TSRA=
202006220030 METAR VIDP 220030Z 32015G25KT 2200 BR SCT035 FEW040CB BKN100 29/25 Q1001 TEMPO 29025G35KT 0800 DS TSRA=
202006220000 METAR VIDP 220000Z 32006KT 2200 HZ SCT035 FEW040CB BKN100 30/24 Q1001 TEMPO 29025G35KT 0800 DS TSRA=
202006212330 METAR VIDP 212330Z 12003KT 2200 BR SCT035 FEW040CB BKN100 30/25 Q1000 TEMPO 29025G35KT 0800 DS TSRA=
202006212300 METAR VIDP 212300Z 10006KT 2200 HZ SCT035 FEW040CB BKN100 30/24 Q1000 TEMPO 29025G35KT 0800 DS TSRA=
202006212230 METAR VIDP 212230Z 09004KT 2200 HZ SCT035 FEW040CB BKN100 30/24 Q1000 TEMPO 29025G35KT 0800 DS TSRA=
202006212200 METAR VIDP 212200Z 10004KT 2200 HZ SCT035 FEW040CB BKN100 30/24 Q1000 NOSIG=
202006212130 METAR VIDP 212130Z 14004KT 2200 HZ FEW035CB SCT100 30/25 Q1000 NOSIG=
202006212100 METAR VIDP 212100Z 13005KT 2200 HZ SCT100 31/25 Q1000 NOSIG=
202006212030 METAR VIDP 212030Z 14005KT 2200 HZ SCT100 31/25 Q1000 NOSIG=
202006212000 METAR VIDP 212000Z 12004KT 2500 HZ SCT100 31/25 Q1000 NOSIG=
202006211930 METAR VIDP 211930Z 13005KT 3000 HZ SCT100 31/25 Q1000 NOSIG=
202006211900 METAR VIDP 211900Z 12005KT 3000 HZ SCT100 31/25 Q1000 NOSIG=
202006211830 METAR VIDP 211830Z 11005KT 3000 HZ SCT100 31/24 Q1000 NOSIG=
202006211800 METAR VIDP 211800Z 10006KT 3000 HZ SCT100 32/24 Q1000 NOSIG=
202006211730 METAR VIDP 211730Z 10004KT 3000 HZ SCT100 32/24 Q1000 NOSIG=
202006211700 METAR VIDP 211700Z 12007KT 3000 HZ SCT100 32/24 Q1000 NOSIG=
202006211630 METAR VIDP 211630Z 12007KT 3000 HZ SCT100 32/24 Q1000 NOSIG=
202006211600 METAR VIDP 211600Z 10006KT 3000 HZ SCT100 32/24 Q1000 NOSIG=
202006211530 METAR VIDP 211530Z 10006KT 3000 HZ SCT100 33/24 Q0999 NOSIG=
202006211500 METAR VIDP 211500Z 11005KT 3000 HZ SCT100 33/24 Q0999 NOSIG=
202006211430 METAR VIDP 211430Z 10005KT 3200 HZ SCT100 33/24 Q0999 BECMG 3000 HZ=
202006211400 METAR VIDP 211400Z 06005KT 3200 HZ FEW100 34/23 Q0998 NOSIG=
202006211330 METAR VIDP 211330Z 07005KT 3200 HZ FEW100 34/23 Q0998 NOSIG=
202006211300 METAR VIDP 211300Z 06005KT 3500 HZ FEW100 35/23 Q0999 NOSIG=
202006211230 METAR VIDP 211230Z 05006KT 3500 HZ FEW100 35/23 Q0998 NOSIG=
202006211200 METAR VIDP 211200Z 04005KT 3500 HZ FEW100 35/23 Q0998 NOSIG=
202006211130 METAR VIDP 211130Z 05007KT 3500 HZ FEW100 35/23 Q0999 NOSIG=
202006211100 METAR VIDP 211100Z 06004KT 3500 HZ FEW100 35/23 Q0999 NOSIG=
202006211030 METAR VIDP 211030Z 08004KT 3500 HZ FEW100 36/23 Q0999 NOSIG=
202006211000 METAR VIDP 211000Z 20006KT 3500 HZ SCT100 36/23 Q1000 NOSIG=
202006210930 METAR VIDP 210930Z 10005KT 3200 HZ SCT100 35/24 Q1000 NOSIG=
202006210900 METAR VIDP 210900Z 14006KT 3200 HZ SCT100 35/24 Q1001 NOSIG=
202006210830 METAR VIDP 210830Z 10006KT 2800 HZ SCT040 BKN100 34/24 Q1001 BECMG 3000 HZ=
202006210800 METAR VIDP 210800Z 08007KT 2500 HZ SCT040 BKN100 33/24 Q1001 NOSIG=
202006210730 METAR VIDP 210730Z 09007KT 2500 HZ SCT040 BKN100 33/24 Q1001 NOSIG=
202006210700 METAR VIDP 210700Z 35004KT 2500 HZ SCT040 BKN100 32/23 Q1001 NOSIG=
202006210630 METAR VIDP 210630Z 26004KT 2500 HZ SCT040 BKN100 33/23 Q1001 NOSIG=
202006210600 METAR VIDP 210600Z 24005KT 3000 HZ SCT040 BKN100 34/21 Q1001 NOSIG=
202006210530 METAR VIDP 210530Z 27005KT 3000 HZ SCT040 BKN100 34/21 Q1001 NOSIG=
202006210500 METAR VIDP 210500Z 28005KT 3000 HZ SCT040 BKN100 33/22 Q1002 NOSIG=
202006210430 METAR VIDP 210430Z 27003KT 3000 HZ SCT040 BKN100 32/22 Q1002 NOSIG=
202006210400 METAR VIDP 210400Z 06005KT 3000 HZ SCT035 FEW040CB BKN090 31/23 Q1002 NOSIG=
202006210330 METAR VIDP 210330Z 20007KT 2800 HZ SCT035 FEW040CB BKN090 30/23 Q1002 BECMG 3000 HZ=
202006210300 METAR VIDP 210300Z 18006KT 2500 HZ SCT035 FEW040CB BKN090 29/23 Q1002 NOSIG=
202006210230 METAR VIDP 210230Z 00000KT 2200 HZ SCT035 FEW040CB BKN090 28/23 Q1002 TEMPO 29025G35KT 1500 TSRA=
202006210200 METAR VIDP 210200Z 07005KT 2000 BR SCT035 FEW040CB BKN090 27/24 Q1001 TEMPO 29025G35KT 1500 TSRA=
202006210130 METAR VIDP 210130Z 07006KT 2000 BR SCT035 FEW040CB BKN090 27/24 Q1001 TEMPO 29025G35KT 1500 TSRA=
202006210100 METAR VIDP 210100Z 00000KT 2000 BR SCT035 FEW040CB BKN090 27/24 Q1001 TEMPO 29025G35KT 1500 TSRA=
202006210030 METAR VIDP 210030Z 00000KT 2000 BR SCT035 FEW040CB BKN090 27/24 Q1001 TEMPO 29025G35KT 1500 TSRA=
202006210000 METAR VIDP 210000Z 30007KT 2000 BR SCT035 FEW040CB BKN090 27/24 Q1001 TEMPO 29025G35KT 1500 DS TSRA=
202006202330 METAR VIDP 202330Z 06005KT 2000 BR SCT035 FEW040CB BKN090 27/23 Q1000 TEMPO 29025G35KT 1500 DS TSRA=
202006202300 METAR VIDP 202300Z 05007KT 2000 -TSRA SCT035 FEW040CB BKN090 28/22 Q1000 TEMPO 29025G35KT 1500 DS TSRA=
202006202230 METAR VIDP 202230Z 35006KT 2000 -TSRA SCT035 FEW040CB BKN090 30/21 Q1000 TEMPO 26020G30KT 1500 TSRA=
202006202200 METAR COR VIDP 202200Z 28004KT 2000 HZ SCT035 FEW040CB BKN090 30/21 Q1001 TEMPO 26020G30KT 1500 TSRA=
202006202130 METAR VIDP 202130Z 20004KT 2000 HZ SCT035 FEW040CB BKN090 30/20 Q1000 TEMPO 26020G30KT 1500 TSRA=
202006202100 METAR VIDP 202100Z 16004KT 2000 HZ SCT035 FEW040CB BKN090 30/20 Q1000 TEMPO 26020G30KT 1500 TSRA=
202006202030 METAR VIDP 202030Z 13006KT 2000 HZ SCT035 FEW040CB BKN090 30/20 Q1000 TEMPO 26020G30KT TSRA=
202006202000 METAR VIDP 202000Z 15006KT 2500 HZ SCT035 FEW040CB BKN090 30/20 Q1001 NOSIG=
202006201930 METAR VIDP 201930Z 00000KT 2500 HZ SCT035 BKN090 31/20 Q1001 NOSIG=
202006201900 METAR VIDP 201900Z 00000KT 2500 HZ SCT035 BKN090 31/20 Q1001 NOSIG=
202006201830 METAR VIDP 201830Z 00000KT 2500 HZ SCT035 BKN090 31/20 Q1001 NOSIG=
202006201800 METAR VIDP 201800Z 00000KT 2500 HZ SCT035 BKN090 31/20 Q1001 NOSIG=
202006201730 METAR VIDP 201730Z 00000KT 2500 HZ SCT035 BKN090 31/20 Q1001 NOSIG=
202006201700 METAR VIDP 201700Z 13004KT 2500 HZ SCT035 BKN090 31/20 Q1001 NOSIG=
202006201630 METAR VIDP 201630Z 00000KT 2500 HZ SCT035 BKN090 31/21 Q1001 NOSIG=
202006201600 METAR COR VIDP 201600Z 34004KT 2500 HZ SCT035 FEW040CB BKN090 31/21 Q1000 NOSIG=
202006201530 METAR VIDP 201530Z 34004KT 2500 HZ SCT035 FEW040CB BKN090 31/21 Q1000 TEMPO 23015G25KT TSRA=
202006201500 METAR VIDP 201500Z 12003KT 2500 HZ SCT035 FEW040CB BKN090 31/21 Q1000 TEMPO 23015G25KT TSRA=
202006201430 METAR VIDP 201430Z 24005KT 2500 HZ SCT035 FEW040CB BKN090 31/21 Q1000 TEMPO 23015G25KT TSRA=
202006201400 METAR VIDP 201400Z 26008KT 2500 HZ SCT035 FEW040CB BKN090 32/21 Q1001 TEMPO 23015G25KT TSRA=
202006201330 METAR VIDP 201330Z 26009KT 2500 HZ SCT035 FEW040CB BKN090 32/21 Q1001 TEMPO 23015G25KT TSRA=
202006201300 METAR VIDP 201300Z 25008KT 2500 HZ SCT035 FEW040CB BKN090 33/21 Q1000 TEMPO 23015G25KT TSRA=
202006201230 METAR VIDP 201230Z 25008G18KT 2500 HZ SCT035 FEW040CB BKN090 34/22 Q0999 TEMPO 23015G25KT TSRA=
202006201200 METAR VIDP 201200Z 27006KT 2500 TS SCT035 FEW040CB BKN090 34/23 Q0999 TEMPO 23020G30KT 0800 DS TS=
202006201130 METAR VIDP 201130Z 16005KT 2800 HZ SCT035 FEW040CB BKN090 37/22 Q0999 TEMPO 23020G30KT 0800 DS TS=
202006201100 METAR VIDP 201100Z 27003KT 3500 HZ SCT035 FEW040CB BKN100 37/22 Q0999 TEMPO 23020G30KT 0800 DS TS=
202006201030 METAR VIDP 201030Z 31004KT 3500 HZ SCT035 FEW040CB SCT100 37/22 Q0999 TEMPO 23020G30KT 0800 DS TS=
202006201000 METAR VIDP 201000Z 23004KT 3500 HZ SCT035 FEW040CB SCT100 36/21 Q0999 TEMPO 23020G30KT 0800 DS TS=
202006200930 METAR VIDP 200930Z 22006KT 3500 HZ SCT035 FEW040CB SCT100 37/21 Q1000 NOSIG=
202006200900 METAR VIDP 200900Z 23003KT 3500 HZ SCT035 FEW040CB SCT100 36/21 Q1000 NOSIG=
202006200830 METAR VIDP 200830Z 12004KT 3500 HZ SCT035 BKN100 35/20 Q1001 NOSIG=
202006200800 METAR VIDP 200800Z 11006KT 3500 HZ SCT035 BKN100 34/20 Q1001 NOSIG=
202006200730 METAR VIDP 200730Z 11006KT 3500 HZ SCT035 BKN100 33/21 Q1002 NOSIG=
202006200700 METAR VIDP 200700Z 10006KT 3000 HZ SCT035 BKN100 32/21 Q1002 NOSIG=
202006200630 METAR VIDP 200630Z 02006KT 3000 HZ SCT035 FEW040CB BKN100 31/21 Q1002 NOSIG=
202006200600 METAR VIDP 200600Z 06007KT 3000 HZ SCT035 FEW040CB BKN100 30/21 Q1002 NOSIG=
202006200530 METAR VIDP 200530Z 02008KT 3000 HZ SCT035 FEW040CB BKN100 30/21 Q1003 TEMPO 32020G30KT 1500 TSRA=
202006200500 METAR VIDP 200500Z 36010G20KT 3000 HZ SCT040 FEW040CB BKN100 30/21 Q1003 TEMPO 32020G30KT 1500 TSRA=
202006200430 METAR VIDP 200430Z 27009KT 3000 HZ SCT035 FEW040CB BKN100 29/21 Q1002 TEMPO 32020G30KT 1500 TSRA=
202006200400 METAR VIDP 200400Z 25010G20KT 1400 R28/1400 R29/1500 -RA SCT030 FEW035CB OVC080 27/22 Q1002 TEMPO 32020G30KT 0800 TSRA=
202006200330 METAR VIDP 200330Z 27020G30KT 1400 R28/1800 R29/P2000 BLDU SCT030 FEW035CB OVC080 30/20 Q1002 TEMPO 32020G30KT 0800 DS TS=
202006200300 METAR VIDP 200300Z 30014G24KT 1500 R28/P2000 R29/P2000 BLDU SCT030 FEW035CB OVC080 30/20 Q1002 TEMPO 32020G30KT 0800 TS DS=
202006200230 METAR COR VIDP 200230Z 31007G17KT 2500 BLDU SCT035 FEW040CB OVC080 33/19 Q1002 TEMPO 32020G30KT 0800 DS TS=
202006200200 METAR VIDP 200200Z 26007KT 4000 HZ SCT035 FEW040CB BKN100 31/19 Q1001 TEMPO 32020G30KT 0800 TS DS=
202006200130 METAR VIDP 200130Z 24005KT 3500 HZ SCT035 FEW040CB BKN100 31/18 Q1001 TEMPO 32020G30KT 0800 TS DS=
202006200100 METAR VIDP 200100Z 21004KT 3500 HZ SCT035 FEW040CB BKN100 30/18 Q1000 TEMPO 32020G30KT 0800 TS DS=
202006200030 METAR VIDP 200030Z 00000KT 3500 HZ SCT035 FEW040CB BKN100 30/18 Q1000 TEMPO 32020G30KT 0800 TS DS=
202006200000 METAR VIDP 200000Z 11010KT 3500 HZ SCT035 FEW040CB BKN100 30/19 Q1000 TEMPO 32020G30KT 0800 TS DS=
202006192330 METAR VIDP 192330Z 05008G18KT 3000 TS SCT035 FEW040CB BKN100 32/25 Q1000 TEMPO 32020G30KT 0800 TS DS=
202006192300 METAR VIDP 192300Z 14005KT 3000 TS SCT035 FEW040CB BKN100 32/25 Q1000 TEMPO 32020G30KT 0800 TS DS=
202006192230 METAR VIDP 192230Z 19004KT 3200 HZ FEW035 FEW040CB SCT100 32/25 Q1000 NOSIG=
202006192200 METAR VIDP 192200Z 12006KT 3200 HZ SCT100 32/25 Q1000 NOSIG=
202006192130 METAR VIDP 192130Z 12007KT 3500 HZ FEW100 32/26 Q0999 NOSIG=
202006192100 METAR VIDP 192100Z 11007KT 3500 HZ FEW100 32/26 Q0999 NOSIG=
202006192030 METAR VIDP 192030Z 11009KT 3500 HZ FEW100 33/26 Q1000 NOSIG=
202006192000 METAR VIDP 192000Z 12010KT 3500 HZ FEW100 34/26 Q1000 NOSIG=
202006191930 METAR VIDP 191930Z 14009KT 3200 HZ FEW100 34/26 Q1000 NOSIG=
202006191900 METAR VIDP 191900Z 13009KT 3000 HZ FEW100 34/26 Q1000 NOSIG=
202006191830 METAR VIDP 191830Z 12009KT 2800 HZ FEW100 34/26 Q1000 BECMG 3000 HZ=
202006191800 METAR VIDP 191800Z 09010KT 2800 DU FEW100 35/25 Q1000 NOSIG=
202006191730 METAR VIDP 191730Z 10009KT 2800 DU FEW100 35/25 Q1000 NOSIG=
202006191700 METAR VIDP 191700Z 09008KT 2800 DU FEW100 36/25 Q1000 NOSIG=
202006191630 METAR VIDP 191630Z 11007KT 2800 HZ FEW100 36/25 Q0999 NOSIG=
202006191600 METAR VIDP 191600Z 11007KT 2800 HZ FEW100 36/25 Q0999 NOSIG=
202006191530 METAR VIDP 191530Z 10007KT 2800 HZ FEW100 36/25 Q0998 NOSIG=
202006191500 METAR VIDP 191500Z 10008KT 2500 DU FEW100 36/25 Q0998 NOSIG=
202006191430 METAR VIDP 191430Z 10010KT 2500 DU FEW100 37/25 Q0997 NOSIG=
202006191400 METAR VIDP 191400Z 10009KT 2500 DU FEW100 38/25 Q0997 NOSIG=
202006191330 METAR VIDP 191330Z 11008KT 2500 DU FEW040 SCT100 38/25 Q0996 NOSIG=
202006191300 METAR VIDP 191300Z 01007KT 2500 DU FEW040 FEW040CB SCT100 39/24 Q0996 NOSIG=
202006191230 METAR VIDP 191230Z 28004KT 2500 DU FEW040 FEW040CB SCT100 40/23 Q0996 NOSIG=
202006191200 METAR VIDP 191200Z 33005KT 2500 DU FEW040 FEW040CB SCT100 41/21 Q0996 NOSIG=
202006191130 METAR VIDP 191130Z 29004KT 2500 DU FEW040 FEW040CB SCT100 41/21 Q0996 NOSIG=
202006191100 METAR VIDP 191100Z 29006KT 2500 DU FEW100 41/21 Q0997 NOSIG=
202006191030 METAR VIDP 191030Z 29009KT 2500 DU FEW040 SCT100 41/21 Q0997 NOSIG=
202006191000 METAR VIDP 191000Z 29010KT 2500 DU FEW040 SCT100 41/22 Q0997 NOSIG=
202006190930 METAR VIDP 190930Z 29007KT 2500 DU FEW040 SCT100 41/22 Q0998 NOSIG=
202006190900 METAR VIDP 190900Z 32008KT 2500 DU FEW040 SCT100 40/23 Q0998 NOSIG=
202006190830 METAR VIDP 190830Z 26007KT 2500 DU NSC 40/21 Q0998 NOSIG=
202006190800 METAR VIDP 190800Z 30007KT 2500 DU NSC 40/21 Q0999 NOSIG=
202006190730 METAR VIDP 190730Z 28007KT 2200 BLDU NSC 40/22 Q0999 NOSIG=
202006190700 METAR VIDP 190700Z 32008KT 2200 BLDU NSC 39/22 Q0999 NOSIG=
202006190630 METAR VIDP 190630Z 30008KT 2200 BLDU NSC 39/22 Q1000 NOSIG=
202006190600 METAR VIDP 190600Z 30009KT 2200 BLDU NSC 39/22 Q1000 NOSIG=
202006190530 METAR VIDP 190530Z 31008KT 2200 BLDU NSC 38/22 Q1000 NOSIG=
202006190500 METAR VIDP 190500Z 28006KT 2500 BLDU NSC 37/23 Q1000 NOSIG=
202006190430 METAR VIDP 190430Z 24004KT 3000 HZ NSC 36/22 Q1000 NOSIG=
202006190400 METAR VIDP 190400Z 27004KT 3000 HZ NSC 36/22 Q1000 NOSIG=
202006190330 METAR VIDP 190330Z 21003KT 3000 HZ NSC 35/23 Q1000 NOSIG=
202006190300 METAR VIDP 190300Z 16003KT 3000 HZ NSC 34/24 Q1000 NOSIG=
202006190230 METAR VIDP 190230Z 14006KT 3000 HZ NSC 33/24 Q1000 NOSIG=
202006190200 METAR VIDP 190200Z 15005KT 3000 HZ NSC 33/24 Q1000 NOSIG=
202006190130 METAR VIDP 190130Z 14006KT 2800 HZ FEW100 32/24 Q1000 BECMG 3000 HZ=
202006190100 METAR VIDP 190100Z 14007KT 2500 HZ FEW100 32/24 Q0999 BECMG 3000 HZ=
202006190030 METAR VIDP 190030Z 15007KT 2500 HZ FEW100 31/24 Q0999 NOSIG=
202006190000 METAR VIDP 190000Z 13007KT 2500 HZ SCT100 31/24 Q0999 NOSIG=
202006182330 METAR VIDP 182330Z 12008KT 2800 HZ SCT100 32/24 Q0999 NOSIG=
202006182300 METAR VIDP 182300Z 13011KT 3000 HZ FEW100 32/24 Q0998 NOSIG=
202006182230 METAR VIDP 182230Z 12009KT 3000 HZ FEW100 32/24 Q0998 NOSIG=
202006182200 METAR VIDP 182200Z 11007KT 3000 HZ FEW100 32/24 Q0998 NOSIG=
202006182130 METAR VIDP 182130Z 12008KT 3000 HZ FEW100 33/24 Q0998 NOSIG=
202006182100 METAR VIDP 182100Z 12007KT 3000 HZ FEW100 33/24 Q0998 NOSIG=
202006182030 METAR VIDP 182030Z 11008KT 3000 HZ FEW100 34/24 Q0998 NOSIG=
202006182000 METAR VIDP 182000Z 12007KT 3000 HZ FEW100 34/24 Q0998 NOSIG=
202006181930 METAR VIDP 181930Z 11007KT 3500 HZ FEW100 34/23 Q0998 BECMG 3000 HZ=
202006181900 METAR VIDP 181900Z 11007KT 3500 HZ FEW100 35/23 Q0998 NOSIG=
202006181830 METAR VIDP 181830Z 10008KT 3500 HZ FEW100 36/23 Q0998 NOSIG=
202006181800 METAR VIDP 181800Z 10007KT 3500 HZ SCT100 36/23 Q0997 BECMG 3000 HZ=
202006181730 METAR VIDP 181730Z 11007KT 3500 HZ SCT100 36/23 Q0997 NOSIG=
202006181700 METAR VIDP 181700Z 11008KT 3500 HZ SCT100 36/23 Q0997 NOSIG=
202006181630 METAR VIDP 181630Z 10008KT 3500 HZ FEW100 36/23 Q0997 NOSIG=
202006181600 METAR VIDP 181600Z 11008KT 3500 HZ FEW100 37/22 Q0997 NOSIG=
202006181530 METAR VIDP 181530Z 10007KT 3500 HZ FEW100 38/21 Q0997 NOSIG=
202006181500 METAR VIDP 181500Z 10006KT 4000 HZ FEW100 38/20 Q0996 NOSIG=
202006181430 METAR VIDP 181430Z 08007KT 4000 HZ FEW100 39/18 Q0995 NOSIG=
202006181400 METAR VIDP 181400Z 31005KT 4000 HZ FEW100 40/17 Q0995 NOSIG=
202006181330 METAR VIDP 181330Z 30005KT 4500 HZ NSC 41/17 Q0995 NOSIG=
202006181300 METAR VIDP 181300Z 31007KT 5000 HZ NSC 41/16 Q0994 NOSIG=
202006181230 METAR VIDP 181230Z 30009KT 5000 HZ NSC 42/16 Q0994 NOSIG=
202006181200 METAR VIDP 181200Z 31009KT 5000 HZ NSC 43/16 Q0994 NOSIG=
202006181130 METAR VIDP 181130Z 30009KT 5000 HZ FEW100 43/16 Q0994 NOSIG=
202006181100 METAR VIDP 181100Z 30006KT 5000 HZ FEW100 42/17 Q0994 NOSIG=
202006181030 METAR VIDP 181030Z 29006KT 4500 HZ FEW100 42/17 Q0995 BECMG 5000 HZ=
202006181000 METAR VIDP 181000Z 27004KT 4500 HZ FEW100 42/18 Q0995 NOSIG=
202006180930 METAR VIDP 180930Z 22003KT 4500 HZ FEW100 42/18 Q0995 NOSIG=
202006180900 METAR VIDP 180900Z 27006KT 4000 HZ FEW100 41/19 Q0996 NOSIG=
202006180830 METAR VIDP 180830Z 26003KT 4000 HZ FEW100 41/19 Q0996 NOSIG=
202006180800 METAR VIDP 180800Z 27005KT 4000 DU FEW100 40/21 Q0997 NOSIG=
202006180730 METAR VIDP 180730Z 25004KT 4000 DU FEW100 40/22 Q0997 NOSIG=
202006180700 METAR VIDP 180700Z 24004KT 4000 DU FEW100 39/22 Q0997 NOSIG=
202006180630 METAR VIDP 180630Z 22006KT 4000 DU FEW100 38/22 Q0998 NOSIG=
202006180600 METAR VIDP 180600Z 18004KT 4000 HZ NSC 38/22 Q0998 NOSIG=
202006180530 METAR VIDP 180530Z 17005KT 4000 HZ NSC 37/22 Q0998 NOSIG=
202006180500 METAR VIDP 180500Z 16007KT 4000 HZ NSC 37/23 Q0998 NOSIG=
202006180430 METAR VIDP 180430Z 13006KT 3500 HZ NSC 36/23 Q0998 NOSIG=
202006180400 METAR VIDP 180400Z 13006KT 3200 HZ NSC 35/23 Q0998 NOSIG=
202006180330 METAR VIDP 180330Z 13007KT 2800 HZ NSC 34/23 Q0999 BECMG 3000 HZ=
202006180300 METAR VIDP 180300Z 11007KT 2500 HZ NSC 33/24 Q0999 NOSIG=
202006180230 METAR VIDP 180230Z 10005KT 2200 HZ NSC 32/24 Q0999 NOSIG=
202006180200 METAR VIDP 180200Z 12005KT 2200 HZ NSC 32/24 Q0998 NOSIG=
202006180130 METAR VIDP 180130Z 12006KT 2200 HZ NSC 31/24 Q0998 NOSIG=
202006180100 METAR VIDP 180100Z 11006KT 2500 HZ NSC 30/24 Q0998 NOSIG=
202006180030 METAR VIDP 180030Z 12005KT 2500 HZ NSC 29/23 Q0998 NOSIG=
202006180000 METAR VIDP 180000Z 11005KT 3000 HZ NSC 30/24 Q0997 NOSIG=
202006172330 METAR VIDP 172330Z 12005KT 3000 HZ NSC 30/24 Q0997 NOSIG=
202006172300 METAR VIDP 172300Z 13005KT 3000 HZ NSC 30/24 Q0997 NOSIG=
202006172230 METAR VIDP 172230Z 15005KT 3000 HZ NSC 30/24 Q0997 NOSIG=
202006172200 METAR COR VIDP 172200Z 14006KT 3200 HZ NSC 31/24 Q0997 BECMG 3000 HZ=
202006172130 METAR VIDP 172130Z 14006KT 3200 HZ NSC 31/23 Q0997 NOSIG=
202006172100 METAR VIDP 172100Z 12008KT 3500 HZ NSC 31/23 Q0997 NOSIG=
202006172030 METAR VIDP 172030Z 13006KT 3500 HZ NSC 31/23 Q0997 NOSIG=
202006172000 METAR VIDP 172000Z 12006KT 3500 HZ NSC 32/23 Q0997 NOSIG=
202006171930 METAR VIDP 171930Z 12007KT 3500 HZ NSC 32/24 Q0997 NOSIG=
202006171900 METAR VIDP 171900Z 13006KT 3500 HZ NSC 32/24 Q0997 NOSIG=
202006171830 METAR VIDP 171830Z 12007KT 3500 HZ NSC 33/24 Q0997 NOSIG=
202006171800 METAR VIDP 171800Z 12009KT 3500 HZ NSC 33/24 Q0997 NOSIG=
202006171730 METAR VIDP 171730Z 12008KT 4000 HZ NSC 34/24 Q0997 NOSIG=
202006171700 METAR VIDP 171700Z 10008KT 4000 HZ NSC 35/24 Q0997 NOSIG=
202006171630 METAR VIDP 171630Z 10008KT 4000 HZ NSC 35/24 Q0997 NOSIG=
202006171600 METAR VIDP 171600Z 10008KT 4000 HZ NSC 35/24 Q0996 NOSIG=
202006171530 METAR VIDP 171530Z 10009KT 4000 HZ NSC 36/24 Q0996 NOSIG=
202006171500 METAR VIDP 171500Z 10010KT 4000 HZ NSC 36/24 Q0995 NOSIG=
202006171430 METAR VIDP 171430Z 10010KT 4000 HZ NSC 37/23 Q0995 NOSIG=
202006171400 METAR VIDP 171400Z 08007KT 4000 HZ NSC 38/22 Q0994 NOSIG=
202006171330 METAR VIDP 171330Z 07007KT 4500 HZ NSC 38/21 Q0994 NOSIG=
202006171300 METAR VIDP 171300Z 06007KT 4500 HZ NSC 39/20 Q0994 NOSIG=
202006171230 METAR VIDP 171230Z 07005KT 5000 HZ FEW035 40/19 Q0993 NOSIG=
202006171200 METAR VIDP 171200Z 06007KT 5000 HZ FEW035 40/18 Q0994 NOSIG=
202006171130 METAR VIDP 171130Z 05006KT 5000 HZ FEW035 40/19 Q0994 NOSIG=
202006171100 METAR VIDP 171100Z 06006KT 5000 HZ FEW035 40/20 Q0994 NOSIG=
202006171030 METAR VIDP 171030Z 02005KT 5000 HZ FEW035 40/20 Q0994 NOSIG=
202006171000 METAR VIDP 171000Z 09005KT 5000 HZ FEW035 40/22 Q0995 NOSIG=
202006170930 METAR VIDP 170930Z 07006KT 5000 HZ FEW035 40/22 Q0995 NOSIG=
202006170900 METAR VIDP 170900Z 06006KT 5000 HZ FEW035 40/23 Q0995 NOSIG=
202006170830 METAR VIDP 170830Z 12006KT 5000 HZ FEW035 39/23 Q0996 NOSIG=
202006170800 METAR VIDP 170800Z 14006KT 4500 HZ NSC 39/24 Q0996 BECMG 5000 HZ=
202006170730 METAR VIDP 170730Z 13006KT 4000 HZ NSC 39/23 Q0996 NOSIG=
202006170700 METAR VIDP 170700Z 12007KT 4000 HZ NSC 38/23 Q0996 NOSIG=
202006170630 METAR VIDP 170630Z 10007KT 4000 HZ NSC 37/24 Q0997 NOSIG=
202006170600 METAR VIDP 170600Z 11007KT 4000 HZ NSC 37/24 Q0997 NOSIG=
202006170530 METAR VIDP 170530Z 12007KT 4000 HZ NSC 36/24 Q0997 NOSIG=
202006170500 METAR VIDP 170500Z 10008KT 4000 HZ NSC 35/24 Q0997 NOSIG=
202006170430 METAR VIDP 170430Z 11009KT 4000 HZ NSC 34/24 Q0997 NOSIG=
202006170400 METAR VIDP 170400Z 11009KT 3500 HZ NSC 34/24 Q0997 NOSIG=
202006170330 METAR VIDP 170330Z 10009KT 3500 HZ NSC 33/24 Q0998 NOSIG=
202006170300 METAR VIDP 170300Z 11012KT 3000 HZ NSC 33/24 Q0998 NOSIG=
202006170230 METAR VIDP 170230Z 11012KT 2800 HZ FEW100 32/24 Q0998 BECMG 3000 HZ=
202006170200 METAR VIDP 170200Z 10010KT 2500 HZ FEW100 31/24 Q0998 NOSIG=
202006170130 METAR VIDP 170130Z 10010KT 3000 HZ FEW100 31/24 Q0998 NOSIG=
202006170100 METAR VIDP 170100Z 10010KT 3000 HZ FEW100 31/24 Q0998 NOSIG=
202006170030 METAR VIDP 170030Z 10009KT 3000 HZ FEW100 31/23 Q0997 NOSIG=
202006170000 METAR VIDP 170000Z 10006KT 3200 HZ FEW100 31/23 Q0997 BECMG 3000 HZ=
202006162330 METAR VIDP 162330Z 12007KT 3500 HZ FEW100 31/23 Q0996 NOSIG=
202006162300 METAR VIDP 162300Z 12008KT 3500 HZ FEW100 32/23 Q0996 NOSIG=
202006162230 METAR VIDP 162230Z 13009KT 3500 HZ FEW100 32/23 Q0996 NOSIG=
202006162200 METAR VIDP 162200Z 13009KT 3500 HZ FEW100 32/23 Q0996 NOSIG=
202006162130 METAR VIDP 162130Z 12008KT 3500 HZ FEW100 32/23 Q0996 NOSIG=
202006162100 METAR VIDP 162100Z 12010KT 3500 HZ FEW100 33/23 Q0996 NOSIG=
202006162030 METAR VIDP 162030Z 13010KT 3500 HZ FEW100 33/22 Q0996 NOSIG=
202006162000 METAR VIDP 162000Z 12010KT 3500 HZ FEW100 33/22 Q0997 NOSIG=
202006161930 METAR VIDP 161930Z 12009KT 3500 HZ FEW100 33/22 Q0997 NOSIG=
202006161900 METAR VIDP 161900Z 11007KT 3500 HZ FEW100 34/21 Q0997 NOSIG=
202006161830 METAR VIDP 161830Z 10006KT 3500 HZ FEW100 34/21 Q0997 NOSIG=
202006161800 METAR VIDP 161800Z 10006KT 3500 HZ FEW100 34/21 Q0997 NOSIG=
202006161730 METAR VIDP 161730Z 10007KT 3500 HZ SCT100 35/21 Q0997 NOSIG=
202006161700 METAR VIDP 161700Z 11006KT 3500 HZ SCT100 35/21 Q0997 NOSIG=
202006161630 METAR VIDP 161630Z 11005KT 3500 HZ SCT100 36/20 Q0997 NOSIG=
202006161600 METAR VIDP 161600Z 00000KT 3500 HZ FEW040 SCT100 37/20 Q0996 NOSIG=
202006161530 METAR VIDP 161530Z 10003KT 3500 HZ FEW040 SCT100 37/20 Q0996 NOSIG=
202006161500 METAR VIDP 161500Z 00000KT 3500 HZ FEW040 SCT100 37/19 Q0995 NOSIG=
202006161430 METAR VIDP 161430Z 05003KT 3500 HZ FEW040 SCT100 38/19 Q0994 NOSIG=
202006161400 METAR VIDP 161400Z 04004KT 3500 HZ FEW040 SCT100 38/19 Q0995 NOSIG=
202006161330 METAR VIDP 161330Z 04003KT 3500 HZ FEW040 SCT100 38/19 Q0994 NOSIG=
202006161300 METAR VIDP 161300Z 04003KT 4000 HZ SCT100 39/19 Q0994 NOSIG=
202006161230 METAR VIDP 161230Z 17003KT 4000 HZ FEW035 FEW040CB SCT100 39/19 Q0994 NOSIG=
202006161200 METAR VIDP 161200Z 16004KT 4000 HZ FEW035 FEW040CB SCT100 38/19 Q0994 TEMPO 32015G25KT TSRA=
202006161130 METAR COR VIDP 161130Z 23009G19KT 3500 HZ SCT035 FEW040CB BKN100 37/19 Q0994 TEMPO 32015G25KT TSRA=
202006161100 METAR VIDP 161100Z 29004KT 3500 HZ SCT035 FEW040CB BKN100 40/18 Q0994 TEMPO 32015G25KT 3000 TSRA=
202006161030 METAR VIDP 161030Z 07005KT 4500 HZ FEW035 FEW040CB SCT100 40/19 Q0996 TEMPO 32015G25KT TSRA=
202006161000 METAR VIDP 161000Z 07004KT 5000 HZ FEW035 FEW040CB SCT100 40/19 Q0995 NOSIG=
202006160930 METAR VIDP 160930Z 08003KT 5000 HZ FEW040 SCT100 41/20 Q0995 NOSIG=
202006160900 METAR VIDP 160900Z 10004KT 5000 HZ FEW040 SCT100 41/21 Q0996 NOSIG=
202006160830 METAR VIDP 160830Z 11005KT 5000 HZ FEW040 41/21 Q0996 NOSIG=
202006160800 METAR VIDP 160800Z 11005KT 5000 HZ FEW040 40/21 Q0996 NOSIG=
202006160730 METAR VIDP 160730Z 09006KT 5000 HZ FEW040 40/22 Q0997 NOSIG=
202006160700 METAR VIDP 160700Z 11004KT 5000 HZ FEW100 39/22 Q0997 NOSIG=
202006160630 METAR VIDP 160630Z 12005KT 5000 HZ FEW100 39/22 Q0997 NOSIG=
202006160600 METAR VIDP 160600Z 13005KT 4500 HZ FEW100 38/22 Q0998 BECMG 5000 HZ=
202006160530 METAR VIDP 160530Z 14006KT 4000 HZ FEW040 SCT100 37/22 Q0998 NOSIG=
202006160500 METAR VIDP 160500Z 16004KT 4000 HZ FEW040 SCT100 36/23 Q0998 NOSIG=
202006160430 METAR VIDP 160430Z 16004KT 3500 HZ SCT040 BKN100 35/23 Q0998 NOSIG=
202006160400 METAR VIDP 160400Z 13004KT 3500 HZ SCT040 SCT100 35/23 Q0998 NOSIG=
202006160330 METAR VIDP 160330Z 15004KT 3500 HZ SCT040 34/23 Q0998 NOSIG=
202006160300 METAR VIDP 160300Z 13003KT 4000 HZ SCT040 34/23 Q0998 NOSIG=
202006160230 METAR VIDP 160230Z 12004KT 4000 HZ SCT040 BKN100 33/22 Q0998 NOSIG=
202006160200 METAR VIDP 160200Z 16003KT 4000 HZ SCT040 BKN100 32/22 Q0998 NOSIG=
202006160130 METAR VIDP 160130Z 15004KT 3500 HZ SCT040 BKN100 32/22 Q0998 NOSIG=
202006160100 METAR VIDP 160100Z 12004KT 3500 HZ SCT040 BKN100 32/22 Q0997 NOSIG=
202006160030 METAR VIDP 160030Z 15008KT 3000 HZ FEW040 SCT100 32/23 Q0997 NOSIG=
202006160000 METAR VIDP 160000Z 14010KT 3000 HZ FEW040 SCT100 31/23 Q0997 NOSIG=
202006152330 METAR VIDP 152330Z 15009KT 3000 HZ FEW100 31/23 Q0996 NOSIG=
202006152300 METAR VIDP 152300Z 15008G18KT 3200 HZ FEW100 32/23 Q0997 BECMG 3000 HZ=
202006152230 METAR VIDP 152230Z 15011KT 3500 HZ FEW100 32/23 Q0997 NOSIG=
202006152200 METAR VIDP 152200Z 14010KT 3500 HZ FEW100 32/23 Q0997 NOSIG=
202006152130 METAR VIDP 152130Z 15010KT 3500 HZ NSC 33/23 Q0997 NOSIG=
202006152100 METAR VIDP 152100Z 14008KT 3500 HZ NSC 33/23 Q0997 NOSIG=
202006152030 METAR VIDP 152030Z 13008KT 3500 HZ FEW100 33/22 Q0997 NOSIG=
202006152000 METAR VIDP 152000Z 13008KT 3500 HZ FEW100 33/22 Q0998 NOSIG=
202006151930 METAR VIDP 151930Z 11007KT 3500 HZ FEW100 34/22 Q0998 NOSIG=
202006151900 METAR VIDP 151900Z 10006KT 3500 HZ FEW100 34/21 Q0998 NOSIG=
202006151830 METAR VIDP 151830Z 11005KT 3500 HZ FEW100 35/20 Q0998 NOSIG=
202006151800 METAR VIDP 151800Z 10006KT 3500 HZ FEW100 35/20 Q0998 NOSIG=
202006151730 METAR VIDP 151730Z 12005KT 3500 HZ FEW100 35/20 Q0998 NOSIG=
202006151700 METAR VIDP 151700Z 14004KT 3500 HZ FEW100 36/19 Q0998 NOSIG=
202006151630 METAR VIDP 151630Z 13004KT 3500 HZ FEW100 36/19 Q0998 NOSIG=
202006151600 METAR VIDP 151600Z 10005KT 3500 HZ FEW100 36/18 Q0997 NOSIG=
202006151530 METAR VIDP 151530Z 10005KT 3500 HZ FEW100 36/19 Q0997 NOSIG=
202006151500 METAR VIDP 151500Z 00000KT 3500 HZ FEW100 37/18 Q0996 NOSIG=
202006151430 METAR VIDP 151430Z 00000KT 3500 HZ FEW100 38/18 Q0996 NOSIG=
202006151400 METAR VIDP 151400Z 25004KT 4000 HZ FEW040 39/17 Q0996 NOSIG=
202006151330 METAR VIDP 151330Z 26004KT 4500 HZ FEW040 39/17 Q0996 NOSIG=
202006151300 METAR VIDP 151300Z 28006KT 5000 HZ FEW040 40/18 Q0996 NOSIG=
202006151230 METAR VIDP 151230Z 29007KT 5000 HZ FEW040 40/19 Q0996 NOSIG=
202006151200 METAR VIDP 151200Z 29008KT 5000 HZ FEW040 41/18 Q0995 NOSIG=
202006151130 METAR VIDP 151130Z 27009KT 5000 HZ FEW040 41/18 Q0996 NOSIG=
202006151100 METAR VIDP 151100Z 27009KT 5000 HZ FEW040 SCT100 41/18 Q0996 NOSIG=
202006151030 METAR VIDP 151030Z 27007KT 5000 HZ FEW040 SCT100 41/19 Q0996 NOSIG=
202006151000 METAR VIDP 151000Z 30006KT 5000 HZ SCT040 SCT100 41/19 Q0997 NOSIG=
202006150930 METAR VIDP 150930Z 27005KT 5000 HZ SCT040 SCT100 41/19 Q0997 NOSIG=
202006150900 METAR VIDP 150900Z 25004KT 5000 HZ FEW040 SCT100 41/19 Q0998 NOSIG=
202006150830 METAR VIDP 150830Z 30005KT 5000 HZ FEW040 SCT100 40/19 Q0999 NOSIG=
202006150800 METAR VIDP 150800Z 30004KT 5000 HZ FEW040 SCT100 40/20 Q0999 NOSIG=
202006150730 METAR VIDP 150730Z 31003KT 5000 HZ FEW040 SCT100 40/20 Q1000 NOSIG=
202006150700 METAR VIDP 150700Z 29005KT 5000 HZ FEW040 39/20 Q1000 NOSIG=
202006150630 METAR VIDP 150630Z 32004KT 5000 HZ FEW040 38/20 Q1001 NOSIG=
202006150600 METAR VIDP 150600Z 30005KT 4500 HZ FEW040 38/20 Q1001 BECMG 5000 HZ=
202006150530 METAR VIDP 150530Z 27005KT 4500 HZ NSC 37/21 Q1001 NOSIG=
202006150500 METAR VIDP 150500Z 28007KT 4000 HZ NSC 37/21 Q1001 NOSIG=
202006150430 METAR VIDP 150430Z 27007KT 4000 HZ NSC 36/21 Q1001 NOSIG=
202006150400 METAR VIDP 150400Z 25007KT 3500 HZ NSC 35/22 Q1001 NOSIG=
202006150330 METAR VIDP 150330Z 26006KT 3500 HZ NSC 34/22 Q1001 NOSIG=
202006150300 METAR VIDP 150300Z 25005KT 3500 HZ NSC 34/22 Q1001 NOSIG=
202006150230 METAR VIDP 150230Z 25004KT 3500 HZ NSC 34/22 Q1001 NOSIG=
202006150200 METAR VIDP 150200Z 25005KT 3500 HZ NSC 34/22 Q1001 NOSIG=
202006150130 METAR VIDP 150130Z 24004KT 3500 HZ FEW100 33/21 Q1000 NOSIG=
202006150100 METAR VIDP 150100Z 00000KT 3000 HZ FEW100 32/21 Q1001 NOSIG=
202006150030 METAR VIDP 150030Z 00000KT 3000 HZ FEW100 32/21 Q1001 NOSIG=
202006150000 METAR VIDP 150000Z 00000KT 3000 HZ FEW100 32/22 Q1000 NOSIG=
202006142330 METAR VIDP 142330Z 00000KT 3000 HZ FEW100 32/22 Q1000 NOSIG=
202006142300 METAR VIDP 142300Z 00000KT 3000 HZ FEW100 32/22 Q1000 NOSIG=
202006142230 METAR VIDP 142230Z 00000KT 3000 HZ FEW100 32/23 Q1000 NOSIG=
202006142200 METAR VIDP 142200Z 15003KT 3000 HZ FEW100 32/23 Q1000 NOSIG=
202006142130 METAR VIDP 142130Z 14004KT 3000 HZ FEW100 32/23 Q1000 NOSIG=
202006142100 METAR VIDP 142100Z 14005KT 3000 HZ FEW100 32/23 Q1000 NOSIG=
202006142030 METAR VIDP 142030Z 14006KT 3000 HZ FEW100 33/23 Q1000 NOSIG=
202006142000 METAR VIDP 142000Z 13004KT 3000 HZ FEW100 33/24 Q1000 NOSIG=
202006141930 METAR VIDP 141930Z 14005KT 3000 HZ FEW100 33/24 Q1000 NOSIG=
202006141900 METAR VIDP 141900Z 14007KT 3000 HZ FEW100 33/24 Q1000 NOSIG=
202006141830 METAR VIDP 141830Z 13008KT 3000 HZ FEW100 33/24 Q1001 NOSIG=
202006141800 METAR VIDP 141800Z 13005KT 3000 HZ SCT100 34/24 Q1001 NOSIG=
202006141730 METAR VIDP 141730Z 00000KT 3000 HZ SCT100 34/24 Q1001 NOSIG=
202006141700 METAR VIDP 141700Z 00000KT 3000 HZ SCT100 35/22 Q1001 NOSIG=
202006141630 METAR VIDP 141630Z 00000KT 3000 HZ SCT100 35/22 Q1001 NOSIG=
202006141600 METAR COR VIDP 141600Z 00000KT 3000 HZ SCT100 35/22 Q1001 NOSIG=
202006141530 METAR VIDP 141530Z 00000KT 3000 HZ SCT100 36/22 Q1001 NOSIG=
202006141500 METAR VIDP 141500Z 06003KT 3500 HZ SCT100 36/22 Q1000 BECMG 3000 HZ=
202006141430 METAR VIDP 141430Z 03004KT 4000 HZ SCT100 37/22 Q0999 NOSIG=
202006141400 METAR VIDP 141400Z 34007KT 4000 HZ SCT100 38/23 Q0999 NOSIG=
202006141330 METAR VIDP 141330Z 35006KT 4500 HZ SCT100 38/23 Q0999 NOSIG=
202006141300 METAR VIDP 141300Z 36006KT 4500 HZ FEW035 38/23 Q0999 NOSIG=
202006141230 METAR VIDP 141230Z 35005KT 4500 HZ FEW035 38/23 Q0998 NOSIG=
202006141200 METAR VIDP 141200Z 34005KT 4500 HZ FEW035 SCT100 38/23 Q0998 NOSIG=
202006141130 METAR VIDP 141130Z 33006KT 4500 HZ SCT035 SCT100 38/23 Q0998 NOSIG=
202006141100 METAR VIDP 141100Z 34006KT 4500 HZ SCT035 SCT100 39/22 Q0999 NOSIG=
202006141030 METAR VIDP 141030Z 35006KT 4000 HZ SCT035 SCT100 39/22 Q0999 NOSIG=
202006141000 METAR VIDP 141000Z 33006KT 4000 HZ SCT035 SCT100 39/22 Q0999 NOSIG=
202006140930 METAR VIDP 140930Z 32006KT 3500 HZ SCT035 BKN100 39/22 Q0999 NOSIG=
202006140900 METAR VIDP 140900Z 32006KT 3500 HZ SCT035 BKN100 39/23 Q1000 NOSIG=
202006140830 METAR COR VIDP 140830Z 34004KT 3500 HZ SCT035 BKN100 38/23 Q1000 NOSIG=
202006140800 METAR VIDP 140800Z 08004KT 3500 HZ SCT035 BKN100 37/24 Q1001 NOSIG=
202006140730 METAR VIDP 140730Z 05004KT 3500 HZ SCT035 BKN100 38/24 Q1001 NOSIG=
202006140700 METAR VIDP 140700Z 33004KT 3500 HZ SCT035 FEW040TCU BKN100 37/24 Q1002 NOSIG=
202006140630 METAR VIDP 140630Z 08004KT 3500 HZ SCT040 BKN100 37/24 Q1002 NOSIG=
202006140600 METAR VIDP 140600Z 14004KT 3500 HZ SCT040 BKN100 36/24 Q1002 NOSIG=
202006140530 METAR VIDP 140530Z 04004KT 3200 HZ FEW040 SCT100 36/24 Q1003 NOSIG=
202006140500 METAR VIDP 140500Z 13005KT 2800 HZ FEW100 36/25 Q1003 BECMG 3000 HZ=
202006140430 METAR VIDP 140430Z 13004KT 2500 HZ FEW100 35/25 Q1003 NOSIG=
202006140400 METAR VIDP 140400Z 12004KT 2200 HZ FEW100 34/25 Q1003 NOSIG=
202006140330 METAR VIDP 140330Z 08003KT 1800 R28/P2000 R29/P2000 HZ FEW100 34/25 Q1003 NOSIG=
202006140300 METAR VIDP 140300Z 08004KT 1600 R28/P2000 R29/P2000 HZ FEW100 33/25 Q1003 NOSIG=
202006140230 METAR VIDP 140230Z 07004KT 1500 R28/P2000 R29/P2000 HZ FEW100 32/24 Q1002 NOSIG=
202006140200 METAR VIDP 140200Z 06004KT 1500 R28/P2000 R29/P2000 DU SCT100 32/24 Q1002 NOSIG=
202006140130 METAR VIDP 140130Z 04005KT 1500 R28/P2000 R29/P2000 DU SCT100 31/24 Q1002 NOSIG=
202006140100 METAR VIDP 140100Z 03003KT 1600 R28/1800 R29/P2000 DU SCT100 29/23 Q1002 BECMG 1500 DU=
202006140030 METAR VIDP 140030Z 02004KT 1800 R28/P2000 R29/P2000 HZ FEW040 SCT100 29/23 Q1002 NOSIG=
202006140000 METAR VIDP 140000Z 03004KT 2100 HZ FEW040 SCT100 29/23 Q1001 NOSIG=
202006132330 METAR VIDP 132330Z 04004KT 2100 HZ FEW040 SCT100 29/23 Q1001 NOSIG=
202006132300 METAR VIDP 132300Z 05004KT 2100 HZ FEW040 SCT100 29/23 Q1001 NOSIG=
202006132230 METAR VIDP 132230Z 00000KT 2100 HZ FEW040 SCT100 29/23 Q1001 NOSIG=
202006132200 METAR VIDP 132200Z 00000KT 2100 HZ FEW040 SCT100 29/23 Q1001 NOSIG=
202006132130 METAR VIDP 132130Z 00000KT 2100 HZ FEW040 SCT100 29/23 Q1001 NOSIG=
202006132100 METAR VIDP 132100Z 00000KT 2100 HZ FEW040 SCT100 29/23 Q1001 NOSIG=
202006132030 METAR VIDP 132030Z 00000KT 2100 HZ FEW040 SCT100 29/23 Q1001 NOSIG=
202006132000 METAR VIDP 132000Z 00000KT 2500 HZ FEW040 SCT100 29/23 Q1001 NOSIG=
202006131930 METAR VIDP 131930Z 27004KT 2700 HZ FEW040 SCT100 29/23 Q1001 NOSIG=
202006131900 METAR VIDP 131900Z 00000KT 3000 HZ FEW040 SCT100 30/23 Q1001 NOSIG=
202006131830 METAR VIDP 131830Z 00000KT 3000 HZ FEW040 SCT100 30/23 Q1001 NOSIG=
202006131800 METAR VIDP 131800Z 00000KT 3000 HZ FEW040 SCT100 30/22 Q1001 NOSIG=
202006131730 METAR VIDP 131730Z 00000KT 3000 HZ FEW040 SCT100 30/22 Q1001 NOSIG=
202006131700 METAR VIDP 131700Z 00000KT 3000 HZ FEW040 SCT100 30/22 Q1001 NOSIG=
202006131630 METAR VIDP 131630Z 00000KT 3000 HZ FEW040 SCT100 30/22 Q1001 NOSIG=
202006131600 METAR VIDP 131600Z 00000KT 3000 HZ FEW040 SCT100 30/22 Q1000 NOSIG=
202006131530 METAR VIDP 131530Z 00000KT 3000 HZ FEW040 SCT100 30/22 Q1000 NOSIG=
202006131500 METAR VIDP 131500Z 06003KT 3000 HZ FEW040 SCT100 30/21 Q0999 NOSIG=
202006131430 METAR VIDP 131430Z 05005KT 3200 HZ FEW040 SCT100 31/21 Q0999 BECMG 3000 HZ=
202006131400 METAR VIDP 131400Z 07007KT 3200 HZ SCT035 SCT100 31/21 Q0998 NOSIG=
202006131330 METAR VIDP 131330Z 06007KT 3200 HZ SCT035 SCT100 31/21 Q0998 NOSIG=
202006131300 METAR VIDP 131300Z 01009KT 3200 HZ SCT035 BKN100 31/21 Q0999 NOSIG=
202006131230 METAR VIDP 131230Z 34010G20KT 3200 HZ SCT035 BKN100 31/21 Q0999 NOSIG=
202006131200 METAR VIDP 131200Z 32010G20KT 3200 HZ SCT035 BKN100 33/19 Q0999 NOSIG=
202006131130 METAR VIDP 131130Z 26006KT 2800 HZ SCT035 FEW040CB BKN090 32/19 Q0999 BECMG 3000 HZ=
202006131100 METAR VIDP 131100Z 09003KT 2800 HZ SCT035 FEW040CB BKN080 31/19 Q0998 TEMPO 25015G25KT 0800 DS TS=
202006131030 METAR VIDP 131030Z 03007KT 2500 HZ SCT035 FEW040CB OVC080 30/19 Q0999 TEMPO 25015G25KT 0800 DS TS=
202006131000 METAR VIDP 131000Z 30009KT 2500 HZ SCT035 FEW040CB OVC080 30/22 Q0999 TEMPO 25015G25KT 0800 DS TS=
202006130930 METAR VIDP 130930Z 25007G17KT 2200 HZ SCT035 FEW040CB OVC080 30/22 Q0999 TEMPO 25015G25KT 0800 DS TS=
202006130900 METAR VIDP 130900Z 24010G20KT 2200 BLDU SCT035 FEW040CB OVC080 33/22 Q0999 NOSIG=
202006130830 METAR VIDP 130830Z 20006KT 2500 HZ SCT035 FEW040CB OVC080 34/22 Q0999 TEMPO 23015G25KT 1500 DS TS=
202006130800 METAR VIDP 130800Z 20009KT 2500 TS SCT035 FEW040CB BKN100 36/24 Q0999 TEMPO 23015G25KT 1500 DS TS=
202006130730 METAR VIDP 130730Z 14008KT 2500 TS SCT035 FEW040CB BKN100 36/24 Q0999 TEMPO 23015G25KT 0800 DS TS=
202006130700 METAR VIDP 130700Z 12007G17KT 2500 HZ SCT035 FEW040CB BKN100 37/24 Q0999 TEMPO 23015G25KT 0800 DS TS=
202006130630 METAR VIDP 130630Z 11008KT 3500 HZ FEW035 FEW040CB SCT100 38/24 Q0999 TEMPO 23015G25KT DS TS=
202006130600 METAR VIDP 130600Z 11007KT 3500 HZ FEW035 FEW040CB SCT100 38/24 Q1000 TEMPO 23015G25KT TSRA=
202006130530 METAR VIDP 130530Z 11007KT 3500 HZ FEW100 38/23 Q1000 NOSIG=
202006130500 METAR VIDP 130500Z 12006KT 3500 HZ FEW100 38/23 Q1000 NOSIG=
202006130430 METAR VIDP 130430Z 12005KT 3000 HZ FEW100 37/23 Q1000 NOSIG=
202006130400 METAR VIDP 130400Z 14006KT 2800 HZ SCT100 36/23 Q1001 BECMG 3000 HZ=
202006130330 METAR VIDP 130330Z 11007KT 2500 HZ SCT100 36/24 Q1001 NOSIG=
202006130300 METAR VIDP 130300Z 12007KT 2500 HZ SCT100 35/23 Q1001 NOSIG=
202006130230 METAR VIDP 130230Z 11007KT 2200 HZ SCT100 34/23 Q1000 NOSIG=
202006130200 METAR VIDP 130200Z 10005KT 2200 HZ SCT100 33/23 Q1000 NOSIG=
202006130130 METAR VIDP 130130Z 10005KT 2200 HZ SCT100 32/23 Q1000 NOSIG=
202006130100 METAR VIDP 130100Z 10005KT 2200 HZ SCT100 31/23 Q1000 NOSIG=
202006130030 METAR VIDP 130030Z 11004KT 2500 HZ SCT100 31/23 Q0999 NOSIG=
202006130000 METAR VIDP 130000Z 10004KT 3000 HZ SCT100 31/23 Q0999 NOSIG=
202006122330 METAR VIDP 122330Z 10003KT 3000 HZ SCT100 32/23 Q0999 NOSIG=
202006122300 METAR VIDP 122300Z 10003KT 3000 HZ SCT100 32/23 Q0999 NOSIG=
202006122230 METAR VIDP 122230Z 12003KT 3200 HZ SCT100 32/23 Q0999 BECMG 3000 HZ=
202006122200 METAR VIDP 122200Z 13003KT 3500 HZ SCT100 32/23 Q0998 NOSIG=
202006122130 METAR VIDP 122130Z 00000KT 3500 HZ SCT100 32/23 Q0998 NOSIG=
202006122100 METAR VIDP 122100Z 15005KT 3500 HZ SCT100 33/23 Q0998 NOSIG=
202006122030 METAR VIDP 122030Z 13005KT 3500 HZ SCT100 33/23 Q0998 NOSIG=
202006122000 METAR VIDP 122000Z 13004KT 3500 HZ SCT100 33/23 Q0998 NOSIG=
202006121930 METAR VIDP 121930Z 14004KT 3500 HZ SCT100 33/23 Q0998 NOSIG=
202006121900 METAR VIDP 121900Z 12005KT 3500 HZ SCT100 34/23 Q0998 NOSIG=
202006121830 METAR VIDP 121830Z 12005KT 3500 HZ FEW040 SCT100 34/23 Q0999 NOSIG=
202006121800 METAR VIDP 121800Z 12004KT 3500 HZ FEW040 SCT100 35/23 Q0999 NOSIG=
202006121730 METAR VIDP 121730Z 13004KT 3500 HZ FEW040 SCT100 35/23 Q0999 NOSIG=
202006121700 METAR VIDP 121700Z 12003KT 3500 HZ FEW040 SCT100 35/23 Q0998 NOSIG=
202006121630 METAR VIDP 121630Z 12002KT 3500 HZ FEW040 SCT100 35/22 Q0998 NOSIG=
202006121600 METAR VIDP 121600Z 00000KT 3500 HZ FEW040 SCT100 37/21 Q0997 NOSIG=
202006121530 METAR VIDP 121530Z 00000KT 3500 HZ FEW040 SCT100 37/21 Q0997 NOSIG=
202006121500 METAR VIDP 121500Z 00000KT 3500 HZ FEW040 SCT100 37/21 Q0997 NOSIG=
202006121430 METAR VIDP 121430Z 06004KT 3500 HZ FEW040 SCT100 37/21 Q0996 NOSIG=
202006121400 METAR VIDP 121400Z 04005KT 3500 HZ FEW040 SCT100 38/20 Q0996 NOSIG=
202006121330 METAR VIDP 121330Z 05005KT 3500 HZ FEW040 SCT100 38/20 Q0996 NOSIG=
202006121300 METAR VIDP 121300Z 06006KT 3500 HZ FEW040 SCT100 39/19 Q0996 NOSIG=
202006121230 METAR VIDP 121230Z 05006KT 3500 HZ FEW040 SCT100 39/19 Q0996 NOSIG=
202006121200 METAR VIDP 121200Z 04006KT 3500 DU FEW040 SCT100 39/19 Q0996 NOSIG=
202006121130 METAR VIDP 121130Z 03006KT 3500 DU FEW035 FEW040CB SCT100 40/19 Q0996 NOSIG=
202006121100 METAR VIDP 121100Z 03007KT 3000 DU FEW035 FEW040CB SCT100 40/19 Q0996 TEMPO 32020G30KT DS TSRA=
202006121030 METAR VIDP 121030Z 01006KT 3000 BLDU FEW035 FEW040CB SCT100 41/19 Q0997 TEMPO 32020G30KT DS TSRA=
202006121000 METAR VIDP 121000Z 05008G18KT 3000 BLDU FEW035 FEW040CB SCT100 40/21 Q0997 TEMPO 32020G30KT DS TSRA=
202006120930 METAR VIDP 120930Z 06005G15KT 2500 BLDU FEW035 FEW040CB SCT100 40/22 Q0997 TEMPO 32020G30KT 3000 DS TSRA=
202006120900 METAR VIDP 120900Z 04006G16KT 2500 BLDU FEW035 FEW040CB SCT100 40/22 Q0998 TEMPO 33020G30KT DS TSRA=
202006120830 METAR VIDP 120830Z 35010G20KT 2200 BLDU FEW035 FEW040CB SCT100 39/23 Q0998 TEMPO 33020G30KT 1000 DS TSRA=
202006120800 METAR COR VIDP 120800Z 32015G25KT 1500 R28/1900 R29/P2000 BLDU SCT040 FEW040CB BKN100 39/23 Q0999 TEMPO 33020G30KT 1000 DS TSRA=
202006120730 METAR VIDP 120730Z VRB02KT 2500 HZ FEW040 FEW040CB SCT100 39/23 Q0999 TEMPO 33020G30KT 1000 DS TSRA=
202006120700 METAR VIDP 120700Z 12005KT 2500 HZ FEW040 FEW040CB SCT100 39/23 Q0999 NOSIG=
202006120630 METAR VIDP 120630Z 06008KT 2500 HZ FEW040 FEW040CB SCT100 38/23 Q1000 NOSIG=
202006120600 METAR VIDP 120600Z 13006KT 2200 HZ FEW100 38/24 Q1000 NOSIG=
202006120530 METAR VIDP 120530Z 12008KT 2200 HZ NSC 37/23 Q1001 NOSIG=
202006120500 METAR VIDP 120500Z 13008KT 2200 HZ NSC 37/24 Q1001 NOSIG=
202006120430 METAR VIDP 120430Z 13007KT 2200 HZ NSC 35/24 Q1001 NOSIG=
202006120400 METAR VIDP 120400Z 14009KT 2200 HZ NSC 35/24 Q1001 NOSIG=
202006120330 METAR VIDP 120330Z 14007KT 2200 HZ NSC 35/24 Q1001 NOSIG=
202006120300 METAR VIDP 120300Z 14008KT 1500 R28/1500 R29/P2000 HZ NSC 34/25 Q1001 NOSIG=
202006120230 METAR VIDP 120230Z 13007KT 1500 R28/1500 R29/P2000 HZ NSC 33/25 Q1001 NOSIG=
202006120200 METAR VIDP 120200Z 10006KT 1500 R28/1500 R29/P2000 HZ NSC 32/25 Q1001 NOSIG=
202006120130 METAR VIDP 120130Z 12005KT 1500 R28/1500 R29/P2000 HZ NSC 32/25 Q1001 NOSIG=
202006120100 METAR VIDP 120100Z 12004KT 1800 R28/1800 R29/P2000 HZ NSC 31/25 Q1000 BECMG 1500 HZ=
202006120030 METAR VIDP 120030Z 12004KT 2200 HZ FEW100 31/24 Q1000 NOSIG=
202006120000 METAR VIDP 120000Z 11004KT 2500 HZ FEW100 30/24 Q1000 NOSIG=
202006112330 METAR VIDP 112330Z 12004KT 2500 HZ FEW100 30/23 Q1000 NOSIG=
202006112300 METAR VIDP 112300Z 10005KT 3000 HZ FEW100 31/23 Q0999 NOSIG=
202006112230 METAR VIDP 112230Z 13004KT 3000 HZ FEW100 31/23 Q0999 NOSIG=
202006112200 METAR VIDP 112200Z 12004KT 3200 HZ FEW100 32/23 Q0999 BECMG 3000 HZ=
202006112130 METAR VIDP 112130Z 13003KT 3500 HZ FEW100 33/23 Q0999 NOSIG=
202006112100 METAR VIDP 112100Z 14003KT 3500 HZ FEW100 33/23 Q0999 NOSIG=
202006112030 METAR VIDP 112030Z 13003KT 3500 HZ FEW100 33/22 Q0999 NOSIG=
202006112000 METAR VIDP 112000Z 00000KT 3500 HZ FEW100 33/22 Q0999 NOSIG=
202006111930 METAR VIDP 111930Z 15003KT 3500 HZ FEW100 34/23 Q1000 NOSIG=
202006111900 METAR VIDP 111900Z 21004KT 3500 HZ SCT100 34/23 Q1000 NOSIG=
202006111830 METAR VIDP 111830Z 19004KT 3500 HZ SCT100 35/23 Q1000 NOSIG=
202006111800 METAR VIDP 111800Z 00000KT 3500 HZ SCT100 35/23 Q1000 NOSIG=
202006111730 METAR VIDP 111730Z 12004KT 3500 HZ SCT100 35/23 Q0999 NOSIG=
202006111700 METAR VIDP 111700Z 12004KT 3500 HZ SCT100 35/23 Q0999 NOSIG=
202006111630 METAR VIDP 111630Z 00000KT 3500 HZ SCT100 35/22 Q0999 NOSIG=
202006111600 METAR VIDP 111600Z 00000KT 3500 HZ FEW100 35/21 Q0999 NOSIG=
202006111530 METAR VIDP 111530Z 00000KT 3500 HZ FEW100 36/21 Q0999 NOSIG=
202006111500 METAR VIDP 111500Z 00000KT 3500 HZ FEW100 37/21 Q0998 NOSIG=
202006111430 METAR VIDP 111430Z 00000KT 3500 HZ FEW100 37/21 Q0998 NOSIG=
202006111400 METAR VIDP 111400Z 00000KT 3500 HZ FEW100 37/21 Q0998 NOSIG=
202006111330 METAR VIDP 111330Z 26005KT 3500 HZ FEW100 37/21 Q0997 NOSIG=
202006111300 METAR VIDP 111300Z 28006KT 4000 HZ SCT100 38/21 Q0997 NOSIG=
202006111230 METAR VIDP 111230Z 28005KT 4000 HZ FEW040 SCT100 39/20 Q0997 NOSIG=
202006111200 METAR VIDP 111200Z 29006KT 4000 HZ FEW040 SCT100 39/20 Q0997 NOSIG=
202006111130 METAR VIDP 111130Z 30006KT 4000 HZ FEW040 SCT100 40/21 Q0997 NOSIG=
202006111100 METAR VIDP 111100Z 28009KT 4000 HZ FEW040 SCT100 40/21 Q0998 NOSIG=
202006111030 METAR VIDP 111030Z 28007KT 4000 HZ FEW040 SCT100 40/21 Q0998 NOSIG=
202006111000 METAR VIDP 111000Z 28008KT 4000 HZ FEW040 SCT100 40/21 Q0998 NOSIG=
202006110930 METAR VIDP 110930Z 23006KT 4000 HZ FEW040 SCT100 40/21 Q0999 NOSIG=
202006110900 METAR VIDP 110900Z 26008KT 5000 HZ FEW040 SCT100 40/21 Q1000 NOSIG=
202006110830 METAR VIDP 110830Z 27005KT 5000 HZ FEW040 39/20 Q1000 NOSIG=
202006110800 METAR VIDP 110800Z 30006KT 4500 HZ FEW040 39/20 Q1000 BECMG 5000 HZ=
202006110730 METAR VIDP 110730Z 29005KT 4000 HZ FEW040 38/21 Q1000 NOSIG=
202006110700 METAR VIDP 110700Z 26006KT 4000 HZ FEW100 38/21 Q1001 NOSIG=
202006110630 METAR VIDP 110630Z 27006KT 3500 HZ FEW100 37/21 Q1002 NOSIG=
202006110600 METAR VIDP 110600Z 28005KT 3500 HZ FEW100 36/21 Q1002 NOSIG=
202006110530 METAR VIDP 110530Z 27006KT 3000 HZ FEW100 36/21 Q1002 NOSIG=
202006110500 METAR VIDP 110500Z 29005KT 2500 HZ FEW100 36/21 Q1002 BECMG 3000 HZ=
202006110430 METAR VIDP 110430Z 28004KT 2500 HZ FEW100 36/21 Q1002 NOSIG=
202006110400 METAR VIDP 110400Z 29004KT 2200 HZ FEW100 35/21 Q1002 NOSIG=
202006110330 METAR VIDP 110330Z 29004KT 2200 HZ FEW100 34/22 Q1002 NOSIG=
202006110300 METAR VIDP 110300Z 32004KT 2200 HZ FEW100 33/23 Q1002 NOSIG=
202006110230 METAR VIDP 110230Z 04003KT 2500 HZ FEW100 32/23 Q1002 NOSIG=
202006110200 METAR VIDP 110200Z 05004KT 3000 HZ FEW100 32/24 Q1002 NOSIG=
202006110130 METAR VIDP 110130Z 05003KT 3000 HZ FEW100 31/24 Q1002 NOSIG=
202006110100 METAR VIDP 110100Z 00000KT 2800 HZ FEW040 SCT100 30/23 Q1001 BECMG 3000 HZ=
202006110030 METAR VIDP 110030Z 00000KT 2500 HZ FEW040 SCT100 29/23 Q1001 NOSIG=
202006110000 METAR VIDP 110000Z 00000KT 2800 HZ FEW040 SCT100 29/23 Q1001 NOSIG=
202006102330 METAR VIDP 102330Z 00000KT 3000 HZ FEW040 SCT100 29/23 Q1001 NOSIG=
202006102300 METAR VIDP 102300Z 00000KT 3000 HZ FEW040 SCT100 29/23 Q1001 NOSIG=
202006102230 METAR VIDP 102230Z 00000KT 3000 HZ FEW040 SCT100 29/23 Q1000 NOSIG=
202006102200 METAR VIDP 102200Z 00000KT 3000 HZ FEW040 SCT100 29/22 Q1000 NOSIG=
202006102130 METAR VIDP 102130Z 00000KT 3000 HZ FEW040 SCT100 30/23 Q1000 NOSIG=
202006102100 METAR VIDP 102100Z 00000KT 3000 HZ FEW040 SCT100 30/23 Q1000 NOSIG=
202006102030 METAR VIDP 102030Z 00000KT 3000 HZ FEW040 SCT100 30/23 Q1000 NOSIG=
202006102000 METAR VIDP 102000Z 00000KT 3000 HZ FEW040 SCT100 30/23 Q1000 NOSIG=
202006101930 METAR VIDP 101930Z 00000KT 3000 HZ FEW040 SCT100 30/23 Q1000 NOSIG=
202006101900 METAR VIDP 101900Z 00000KT 3000 HZ FEW040 SCT100 30/23 Q1001 NOSIG=
202006101830 METAR VIDP 101830Z 00000KT 3000 HZ FEW040 SCT100 30/23 Q1001 NOSIG=
202006101800 METAR VIDP 101800Z 00000KT 3000 HZ FEW040 SCT100 30/23 Q1001 NOSIG=
202006101730 METAR VIDP 101730Z 00000KT 3000 HZ FEW040 SCT100 30/23 Q1001 NOSIG=
202006101700 METAR VIDP 101700Z 00000KT 3500 HZ SCT040 SCT100 31/23 Q1001 BECMG 3000 HZ=
202006101630 METAR VIDP 101630Z 00000KT 3500 HZ SCT040 SCT100 31/23 Q1000 NOSIG=
202006101600 METAR VIDP 101600Z 00000KT 3500 HZ SCT040 SCT100 31/24 Q1000 NOSIG=
202006101530 METAR VIDP 101530Z 00000KT 3500 HZ SCT040 SCT100 31/24 Q1000 NOSIG=
202006101500 METAR COR VIDP 101500Z 00000KT 3500 HZ SCT035 FEW040CB SCT100 30/24 Q1000 NOSIG=
202006101430 METAR VIDP 101430Z 12006KT 3500 HZ SCT035 FEW040CB BKN080 30/25 Q0999 BECMG 3000 HZ=
202006101400 METAR VIDP 101400Z 30003KT 3500 BR SCT035 FEW040CB BKN080 30/26 Q1000 NOSIG=
202006101330 METAR VIDP 101330Z 25005KT 2800 BR SCT035 FEW040CB BKN080 30/27 Q1000 BECMG 3000 BR=
202006101300 METAR VIDP 101300Z 28010G20KT 2200 -TSRA SCT035 FEW040CB BKN080 30/27 Q1001 TEMPO 32020G30KT 1500 TSRA=
202006101230 METAR VIDP 101230Z 28010G20KT 2500 -TSRA SCT035 FEW040CB BKN080 33/21 Q1001 TEMPO 32020G30KT 1500 TSRA=
202006101200 METAR VIDP 101200Z 25008G18KT 3200 HZ SCT035 FEW040CB BKN100 37/19 Q0999 TEMPO 32020G30KT 1500 DS TS=
202006101130 METAR VIDP 101130Z 26012KT 3500 HZ SCT035 FEW040CB BKN100 38/19 Q0998 TEMPO 32020G30KT 1500 DS TS=
202006101100 METAR VIDP 101100Z 25013KT 4000 HZ SCT035 FEW040CB BKN100 41/18 Q0999 TEMPO 32020G30KT 1500 DS TS=
202006101030 METAR VIDP 101030Z 35005KT 5000 HZ SCT035 FEW040CB SCT100 42/18 Q0999 NOSIG=
202006101000 METAR VIDP 101000Z 03004KT 5000 HZ FEW035 FEW040CB SCT100 42/18 Q0999 NOSIG=
202006100930 METAR VIDP 100930Z 30005KT 5000 HZ FEW035 FEW040CB SCT100 42/18 Q0999 NOSIG=
202006100900 METAR VIDP 100900Z 32004KT 5000 HZ FEW035 FEW040CB SCT100 41/19 Q1000 NOSIG=
202006100830 METAR VIDP 100830Z 30005KT 5000 HZ FEW035 41/19 Q1001 NOSIG=
202006100800 METAR VIDP 100800Z 27005KT 5000 HZ FEW035 41/19 Q1001 NOSIG=
202006100730 METAR VIDP 100730Z 27005KT 5000 HZ FEW035 41/19 Q1002 NOSIG=
202006100700 METAR VIDP 100700Z 25005KT 4500 HZ FEW030 41/19 Q1002 BECMG 5000 HZ=
202006100630 METAR VIDP 100630Z 23005KT 4000 HZ NSC 40/20 Q1002 NOSIG=
202006100600 METAR VIDP 100600Z 23005KT 3500 HZ NSC 40/21 Q1002 NOSIG=
202006100530 METAR VIDP 100530Z 26006KT 3500 HZ NSC 39/21 Q1002 NOSIG=
202006100500 METAR VIDP 100500Z 22006KT 3500 HZ NSC 38/20 Q1002 NOSIG=
202006100430 METAR VIDP 100430Z 25005KT 3500 HZ NSC 37/21 Q1003 NOSIG=
202006100400 METAR VIDP 100400Z 23005KT 3500 HZ NSC 36/20 Q1003 NOSIG=
202006100330 METAR VIDP 100330Z 21004KT 3500 HZ NSC 35/21 Q1003 NOSIG=
202006100300 METAR VIDP 100300Z 25003KT 3500 HZ FEW100 35/21 Q1003 NOSIG=
202006100230 METAR VIDP 100230Z 00000KT 2800 HZ FEW100 34/21 Q1003 BECMG 3000 HZ=
202006100200 METAR VIDP 100200Z 00000KT 2500 HZ FEW100 34/21 Q1003 NOSIG=
202006100130 METAR VIDP 100130Z 00000KT 2500 HZ FEW100 33/22 Q1002 NOSIG=
202006100100 METAR VIDP 100100Z 00000KT 3000 HZ FEW100 32/22 Q1002 NOSIG=
202006100030 METAR VIDP 100030Z 00000KT 3000 HZ FEW100 31/22 Q1002 NOSIG=
202006100000 METAR VIDP 100000Z 00000KT 3000 HZ FEW100 31/22 Q1002 NOSIG=
202006092330 METAR VIDP 092330Z 00000KT 3200 HZ FEW100 32/22 Q1002 BECMG 3000 HZ=
202006092300 METAR VIDP 092300Z 00000KT 3500 HZ FEW100 32/22 Q1001 NOSIG=
202006092230 METAR VIDP 092230Z 00000KT 3500 HZ FEW100 33/22 Q1001 NOSIG=
202006092200 METAR VIDP 092200Z 00000KT 3500 HZ FEW100 33/22 Q1001 NOSIG=
202006092130 METAR VIDP 092130Z 00000KT 3500 HZ FEW100 33/23 Q1001 NOSIG=
202006092100 METAR VIDP 092100Z 00000KT 3500 HZ FEW100 33/23 Q1001 NOSIG=
202006092030 METAR VIDP 092030Z 00000KT 3500 HZ FEW100 33/22 Q1001 NOSIG=
202006092000 METAR VIDP 092000Z 00000KT 3500 HZ FEW100 33/22 Q1001 NOSIG=
202006091930 METAR VIDP 091930Z 00000KT 3500 HZ FEW100 34/22 Q1001 NOSIG=
202006091900 METAR VIDP 091900Z 00000KT 3500 HZ FEW100 34/22 Q1002 NOSIG=
202006091830 METAR VIDP 091830Z 00000KT 3500 HZ FEW100 34/22 Q1002 NOSIG=
202006091800 METAR VIDP 091800Z 00000KT 3500 HZ FEW100 34/22 Q1001 NOSIG=
202006091730 METAR VIDP 091730Z 00000KT 3500 HZ FEW100 35/22 Q1001 NOSIG=
202006091700 METAR VIDP 091700Z 10003KT 3500 HZ FEW100 35/21 Q1001 NOSIG=
202006091630 METAR VIDP 091630Z 10004KT 3500 HZ FEW100 35/21 Q1001 NOSIG=
202006091600 METAR VIDP 091600Z 05003KT 3500 HZ FEW100 36/20 Q1001 NOSIG=
202006091530 METAR VIDP 091530Z 05004KT 3500 HZ FEW100 36/21 Q1001 NOSIG=
202006091500 METAR VIDP 091500Z 06004KT 3500 HZ FEW100 36/21 Q1000 NOSIG=
202006091430 METAR VIDP 091430Z 04004KT 3500 HZ FEW100 37/21 Q1000 NOSIG=
202006091400 METAR VIDP 091400Z 35004KT 3500 HZ FEW100 38/20 Q1000 NOSIG=
202006091330 METAR VIDP 091330Z 34005KT 3500 HZ FEW100 38/19 Q0999 NOSIG=
202006091300 METAR VIDP 091300Z 33008KT 3500 HZ FEW100 38/19 Q0999 NOSIG=
202006091230 METAR VIDP 091230Z 33007KT 4000 HZ FEW100 39/19 Q0999 NOSIG=
202006091200 METAR VIDP 091200Z 36007KT 4000 HZ SCT100 39/19 Q0999 NOSIG=
202006091130 METAR VIDP 091130Z 35009KT 4000 HZ SCT100 39/19 Q1000 NOSIG=
202006091100 METAR VIDP 091100Z 35009KT 4000 HZ SCT100 39/19 Q1000 NOSIG=
202006091030 METAR VIDP 091030Z 32008KT 4000 HZ FEW040 SCT100 40/19 Q1000 NOSIG=
202006091000 METAR VIDP 091000Z 32011KT 4000 HZ FEW040 SCT100 40/19 Q1001 NOSIG=
202006090930 METAR VIDP 090930Z 30009KT 4000 HZ FEW035 SCT100 39/19 Q1001 NOSIG=
202006090900 METAR VIDP 090900Z 29009KT 4000 HZ FEW035 FEW040TCU SCT100 39/19 Q1001 NOSIG=
202006090830 METAR VIDP 090830Z 28008KT 4000 HZ FEW040 SCT100 39/19 Q1002 NOSIG=
202006090800 METAR VIDP 090800Z 28007KT 4000 HZ SCT100 39/20 Q1002 NOSIG=
202006090730 METAR VIDP 090730Z 26005KT 4000 HZ FEW100 39/21 Q1002 NOSIG=
202006090700 METAR VIDP 090700Z 25005KT 4000 HZ FEW100 39/21 Q1003 NOSIG=
202006090630 METAR VIDP 090630Z 25004KT 3500 HZ FEW100 38/21 Q1003 NOSIG=
202006090600 METAR VIDP 090600Z 23005KT 3500 HZ SCT100 38/21 Q1003 NOSIG=
202006090530 METAR VIDP 090530Z 28006KT 3500 HZ NSC 37/21 Q1003 NOSIG=
202006090500 METAR VIDP 090500Z 25004KT 3500 HZ NSC 36/21 Q1003 NOSIG=
202006090430 METAR VIDP 090430Z 22004KT 3500 HZ NSC 36/21 Q1003 NOSIG=
202006090400 METAR VIDP 090400Z 17004KT 3500 HZ NSC 36/21 Q1003 NOSIG=
202006090330 METAR VIDP 090330Z 12004KT 3000 HZ FEW100 35/21 Q1003 NOSIG=
202006090300 METAR VIDP 090300Z 11004KT 2800 HZ FEW100 34/21 Q1003 BECMG 3000 HZ=
202006090230 METAR VIDP 090230Z 12003KT 2500 HZ FEW100 33/22 Q1003 NOSIG=
202006090200 METAR VIDP 090200Z 00000KT 2500 HZ FEW100 31/22 Q1003 NOSIG=
202006090130 METAR VIDP 090130Z 00000KT 2500 HZ FEW100 31/22 Q1003 NOSIG=
202006090100 METAR VIDP 090100Z 00000KT 2500 HZ FEW100 30/22 Q1003 NOSIG=
202006090030 METAR VIDP 090030Z 00000KT 2500 HZ FEW100 29/22 Q1002 NOSIG=
202006090000 METAR VIDP 090000Z 00000KT 3000 HZ FEW100 29/22 Q1002 NOSIG=
202006082330 METAR VIDP 082330Z 00000KT 3000 HZ FEW100 30/21 Q1002 NOSIG=
202006082300 METAR VIDP 082300Z 00000KT 3000 HZ FEW100 30/22 Q1001 NOSIG=
202006082230 METAR VIDP 082230Z 15003KT 3000 HZ FEW100 30/22 Q1001 NOSIG=
202006082200 METAR VIDP 082200Z 00000KT 3000 HZ FEW100 30/22 Q1002 NOSIG=
202006082130 METAR VIDP 082130Z 14005KT 3000 HZ FEW100 30/22 Q1002 NOSIG=
202006082100 METAR VIDP 082100Z 14006KT 3000 HZ FEW100 30/22 Q1002 NOSIG=
202006082030 METAR VIDP 082030Z 00000KT 3000 HZ FEW100 31/22 Q1002 NOSIG=
202006082000 METAR VIDP 082000Z 00000KT 3000 HZ FEW100 31/22 Q1002 NOSIG=
202006081930 METAR VIDP 081930Z 00000KT 3000 HZ FEW100 31/22 Q1002 NOSIG=
202006081900 METAR VIDP 081900Z 07003KT 3200 HZ FEW100 32/22 Q1002 BECMG 3000 HZ=
202006081830 METAR VIDP 081830Z 07003KT 3200 HZ FEW100 32/21 Q1002 BECMG 3000 HZ=
202006081800 METAR VIDP 081800Z 00000KT 3500 HZ FEW100 32/21 Q1002 NOSIG=
202006081730 METAR VIDP 081730Z 00000KT 3500 HZ FEW100 32/21 Q1002 NOSIG=
202006081700 METAR VIDP 081700Z 00000KT 3500 HZ FEW100 33/21 Q1002 NOSIG=
202006081630 METAR VIDP 081630Z 11003KT 3500 HZ FEW100 33/21 Q1001 NOSIG=
202006081600 METAR VIDP 081600Z 03004KT 3500 HZ FEW100 34/20 Q1001 NOSIG=
202006081530 METAR VIDP 081530Z 03004KT 3500 HZ FEW100 34/20 Q1001 NOSIG=
202006081500 METAR VIDP 081500Z 35004KT 4000 HZ FEW100 34/20 Q1001 NOSIG=
202006081430 METAR VIDP 081430Z 34005KT 4000 HZ FEW100 35/20 Q1000 NOSIG=
202006081400 METAR VIDP 081400Z 31006KT 5000 HZ FEW100 35/20 Q1000 NOSIG=
202006081330 METAR VIDP 081330Z 32006KT 5000 HZ FEW100 35/20 Q1000 NOSIG=
202006081300 METAR VIDP 081300Z 34007KT 5000 HZ FEW100 35/19 Q1000 NOSIG=
202006081230 METAR VIDP 081230Z 33008KT 5000 HZ FEW100 36/19 Q1000 NOSIG=
202006081200 METAR VIDP 081200Z 32008KT 5000 HZ NSC 37/19 Q1000 NOSIG=
202006081130 METAR VIDP 081130Z 30008KT 5000 HZ NSC 37/19 Q1000 NOSIG=
202006081100 METAR VIDP 081100Z 30008KT 5000 HZ FEW040 37/19 Q1000 NOSIG=
202006081030 METAR VIDP 081030Z 29007G17KT 5000 HZ FEW040 37/20 Q1000 NOSIG=
202006081000 METAR VIDP 081000Z 28007KT 5000 HZ FEW040 37/20 Q1000 NOSIG=
202006080930 METAR VIDP 080930Z 29010KT 4000 HZ FEW040 37/20 Q1001 BECMG 5000 HZ=
202006080900 METAR VIDP 080900Z 28007KT 3500 HZ FEW040 SCT100 37/20 Q1001 NOSIG=
202006080830 METAR VIDP 080830Z 29006KT 3000 HZ FEW040 SCT100 36/20 Q1002 NOSIG=
202006080800 METAR VIDP 080800Z 29005KT 3000 HZ FEW040 SCT100 36/20 Q1002 NOSIG=
202006080730 METAR VIDP 080730Z 29006KT 2500 HZ FEW040 SCT100 35/20 Q1002 BECMG 3000 HZ=
202006080700 METAR VIDP 080700Z 27005KT 2500 HZ NSC 35/20 Q1003 NOSIG=
202006080630 METAR VIDP 080630Z 29006KT 2500 HZ NSC 35/20 Q1003 NOSIG=
202006080600 METAR VIDP 080600Z 30005KT 2500 HZ NSC 34/21 Q1003 NOSIG=
202006080530 METAR VIDP 080530Z 32003KT 2500 HZ NSC 34/21 Q1003 NOSIG=
202006080500 METAR VIDP 080500Z 24004KT 2200 FU NSC 33/21 Q1004 NOSIG=
202006080430 METAR VIDP 080430Z 10003KT 2200 FU NSC 32/21 Q1004 NOSIG=
202006080400 METAR VIDP 080400Z 09003KT 2200 FU NSC 32/21 Q1004 NOSIG=
202006080330 METAR VIDP 080330Z 15003KT 2200 HZ NSC 31/21 Q1004 NOSIG=
202006080300 METAR VIDP 080300Z 14005KT 2500 HZ NSC 31/21 Q1004 NOSIG=
202006080230 METAR VIDP 080230Z 12005KT 2500 HZ NSC 30/21 Q1004 NOSIG=
202006080200 METAR VIDP 080200Z 12005KT 2500 HZ NSC 28/22 Q1003 NOSIG=
202006080130 METAR VIDP 080130Z 10003KT 2500 HZ NSC 28/22 Q1003 NOSIG=
202006080100 METAR VIDP 080100Z 10004KT 2500 BR NSC 27/22 Q1003 NOSIG=
202006080030 METAR VIDP 080030Z 00000KT 3000 BR FEW100 26/22 Q1002 NOSIG=
202006080000 METAR VIDP 080000Z 00000KT 3000 BR FEW100 26/22 Q1002 NOSIG=
202006072330 METAR VIDP 072330Z 00000KT 3000 BR FEW040 SCT100 26/22 Q1002 NOSIG=
202006072300 METAR VIDP 072300Z 00000KT 3000 HZ FEW035 FEW040TCU SCT100 27/21 Q1002 NOSIG=
202006072230 METAR VIDP 072230Z 00000KT 3000 HZ FEW035 FEW040TCU SCT100 27/21 Q1001 NOSIG=
202006072200 METAR VIDP 072200Z 00000KT 3000 HZ FEW035 FEW040TCU SCT100 27/21 Q1001 NOSIG=
202006072130 METAR VIDP 072130Z 00000KT 3000 HZ FEW100 27/21 Q1001 NOSIG=
202006072100 METAR VIDP 072100Z 00000KT 3000 HZ FEW100 28/21 Q1002 NOSIG=
202006072030 METAR VIDP 072030Z 00000KT 3000 HZ FEW100 28/21 Q1002 NOSIG=
202006072000 METAR VIDP 072000Z 00000KT 3000 HZ NSC 28/21 Q1002 NOSIG=
202006071930 METAR VIDP 071930Z 00000KT 3000 HZ NSC 28/21 Q1002 NOSIG=
202006071900 METAR VIDP 071900Z 00000KT 3500 HZ FEW100 28/20 Q1002 NOSIG=
202006071830 METAR VIDP 071830Z 00000KT 3500 HZ FEW100 28/20 Q1002 NOSIG=
202006071800 METAR VIDP 071800Z 00000KT 3500 HZ FEW100 28/20 Q1002 NOSIG=
202006071730 METAR VIDP 071730Z 00000KT 3500 HZ FEW100 29/20 Q1002 NOSIG=
202006071700 METAR VIDP 071700Z 00000KT 3500 HZ FEW100 29/20 Q1002 NOSIG=
202006071630 METAR VIDP 071630Z 00000KT 3500 HZ FEW100 29/20 Q1001 NOSIG=
202006071600 METAR VIDP 071600Z 00000KT 3500 HZ FEW100 29/20 Q1001 NOSIG=
202006071530 METAR VIDP 071530Z 00000KT 3500 HZ FEW100 30/20 Q1001 NOSIG=
202006071500 METAR VIDP 071500Z 27003KT 3500 HZ FEW100 30/19 Q1000 NOSIG=
202006071430 METAR VIDP 071430Z 28004KT 4000 HZ FEW100 31/19 Q1000 NOSIG=
202006071400 METAR VIDP 071400Z 29005KT 4000 HZ FEW100 32/19 Q1000 NOSIG=
202006071330 METAR VIDP 071330Z 28003KT 4000 HZ FEW100 33/19 Q1000 NOSIG=
202006071300 METAR VIDP 071300Z 26004KT 4000 HZ FEW100 33/19 Q0999 NOSIG=
202006071230 METAR VIDP 071230Z 28004KT 5000 HZ FEW100 33/19 Q0999 NOSIG=
202006071200 METAR VIDP 071200Z 30004KT 4500 HZ FEW100 34/18 Q1000 BECMG 5000 HZ=
202006071130 METAR VIDP 071130Z 27004KT 4000 HZ FEW100 34/19 Q1000 NOSIG=
202006071100 METAR VIDP 071100Z 30007KT 3200 HZ FEW100 34/19 Q1001 NOSIG=
202006071030 METAR VIDP 071030Z 36005KT 2500 HZ FEW100 34/19 Q1001 BECMG 3000 HZ=
202006071000 METAR VIDP 071000Z 02007KT 2500 HZ FEW100 34/19 Q1001 NOSIG=
202006070930 METAR VIDP 070930Z 04006KT 2500 HZ FEW100 33/19 Q1001 NOSIG=
202006070900 METAR VIDP 070900Z 36007KT 2500 HZ FEW100 33/19 Q1002 NOSIG=
202006070830 METAR VIDP 070830Z 06004KT 2500 HZ FEW100 32/21 Q1002 NOSIG=
202006070800 METAR VIDP 070800Z 05004KT 1500 R28/P2000 R29/1700 HZ SCT030 FEW040CB BKN090 29/22 Q1003 NOSIG=
202006070730 METAR VIDP 070730Z 03005KT 1500 R28/P2000 R29/1800 HZ SCT030 FEW040CB BKN090 29/22 Q1003 NOSIG=
202006070700 METAR COR VIDP 070700Z 05009KT 1400 R28/1400 R29/1800 HZ SCT030 FEW040CB BKN090 29/23 Q1004 BECMG 1500 HZ=
202006070630 METAR VIDP 070630Z 05008KT 1200 R28/1300 R29/1600 HZ SCT030 FEW040CB BKN090 28/23 Q1004 NOSIG=
202006070600 METAR VIDP 070600Z 02007KT 1200 R28/1400 R29/1500 BR SCT030 FEW040CB OVC090 27/23 Q1005 NOSIG=
202006070530 METAR VIDP 070530Z 03005KT 0800 R28/1200 -TSRA SCT030 FEW040CB OVC090 27/24 Q1005 NOSIG=
202006070500 METAR VIDP 070500Z 31010G20KT 0800 R28/1800 R29/P2000 BLDU SCT030 FEW040CB OVC090 28/23 Q1006 TEMPO 27020G30KT 1500 DS TSRA=
202006070430 METAR VIDP 070430Z 30020G30KT 0800 DS SCT030 FEW040CB OVC090 29/21 Q1005 TEMPO 27020G30KT 1500 DS TSRA=
202006070400 METAR VIDP 070400Z 12004KT 4000 HZ SCT035 FEW040CB SCT100 28/21 Q1004 TEMPO 27020G30KT 1500 DS TSRA=
202006070330 METAR VIDP 070330Z 10005KT 4000 HZ SCT035 FEW040CB SCT100 28/21 Q1004 TEMPO 27020G30KT TSRA=
202006070300 METAR VIDP 070300Z 10005KT 4000 HZ SCT035 FEW040CB SCT100 27/21 Q1004 TEMPO 27020G30KT TSRA=
202006070230 METAR VIDP 070230Z 12004KT 4000 HZ SCT035 FEW040CB SCT100 27/21 Q1003 TEMPO 27020G30KT TSRA=
202006070200 METAR COR VIDP 070200Z 13006KT 4000 HZ SCT035 FEW040CB SCT100 26/21 Q1003 TEMPO 27020G30KT TSRA=
202006070130 METAR VIDP 070130Z 14008KT 3500 BR SCT035 FEW040CB BKN100 25/22 Q1003 TEMPO 27020G30KT TSRA=
202006070100 METAR VIDP 070100Z 14006G16KT 2500 -TSRA SCT035 FEW040CB BKN100 24/22 Q1003 TEMPO 27020G30KT TSRA=
202006070030 METAR VIDP 070030Z 18008G18KT 2200 -TSRA SCT035 FEW040CB BKN090 25/22 Q1004 TEMPO 27020G30KT 1500 TSRA=
202006070000 METAR VIDP 070000Z 19005KT 2200 TSRA SCT035 FEW040CB BKN090 27/23 Q1004 TEMPO 27020G30KT 1500 TSRA=
202006062330 METAR COR VIDP 062330Z 18006KT 2200 TSRA SCT035 FEW040CB BKN100 28/23 Q1003 TEMPO 27020G30KT 1500 TSRA=
202006062305 METAR VIDP 12003KT 2500 HZ SCT100 28/22 Q1002 NOSIG=
202006062300 METAR COR VIDP 062300Z 12003KT 2500 HZ FEW035 FEW040CB SCT100 28/22 Q1002 NOSIG=
202006062230 METAR VIDP 062230Z 12004KT 2500 HZ SCT100 28/22 Q1002 NOSIG=
202006062200 METAR VIDP 062200Z 11004KT 2500 HZ SCT100 28/22 Q1002 NOSIG=
202006062130 METAR VIDP 062130Z 09003KT 2500 HZ SCT100 29/22 Q1002 NOSIG=
202006062100 METAR VIDP 062100Z 09004KT 2500 HZ SCT100 29/22 Q1002 NOSIG=
202006062030 METAR VIDP 062030Z 10003KT 2500 HZ SCT100 29/22 Q1002 NOSIG=
202006062000 METAR VIDP 062000Z 10004KT 3000 HZ FEW100 29/22 Q1002 NOSIG=
202006061930 METAR VIDP 061930Z 00000KT 3000 HZ FEW100 30/22 Q1002 NOSIG=
202006061900 METAR VIDP 061900Z 00000KT 3000 HZ FEW100 30/22 Q1002 NOSIG=
202006061830 METAR VIDP 061830Z 00000KT 3200 HZ FEW100 30/21 Q1002 BECMG 3000 HZ=
202006061800 METAR VIDP 061800Z 00000KT 3200 HZ FEW100 30/21 Q1002 NOSIG=
202006061730 METAR VIDP 061730Z 00000KT 3200 HZ FEW100 30/21 Q1002 NOSIG=
202006061700 METAR VIDP 061700Z 00000KT 3200 HZ FEW100 30/21 Q1002 NOSIG=
202006061630 METAR VIDP 061630Z 12004KT 3500 HZ FEW100 30/21 Q1002 NOSIG=
202006061600 METAR VIDP 061600Z 14005KT 3500 HZ FEW100 31/21 Q1002 NOSIG=
202006061530 METAR VIDP 061530Z 14004KT 3500 HZ FEW100 31/20 Q1002 NOSIG=
202006061500 METAR VIDP 061500Z 13004KT 4000 HZ FEW100 32/20 Q1001 NOSIG=
202006061430 METAR VIDP 061430Z 14004KT 4000 HZ FEW100 32/19 Q1001 NOSIG=
202006061400 METAR VIDP 061400Z 15003KT 4000 HZ FEW100 33/20 Q1001 NOSIG=
202006061330 METAR VIDP 061330Z 11004KT 4500 HZ SCT100 34/19 Q1000 NOSIG=
202006061300 METAR VIDP 061300Z 11003KT 5000 HZ SCT100 34/19 Q1000 NOSIG=
202006061230 METAR VIDP 061230Z 14003KT 4500 HZ SCT100 34/19 Q1000 BECMG 5000 HZ=
202006061200 METAR VIDP 061200Z 10004KT 4500 HZ FEW035 SCT100 35/19 Q1000 NOSIG=
202006061130 METAR VIDP 061130Z 11006KT 4500 HZ SCT035 BKN100 35/19 Q1001 NOSIG=
202006061100 METAR VIDP 061100Z 13006KT 4000 HZ SCT035 FEW040CB BKN100 34/20 Q1001 NOSIG=
202006061030 METAR VIDP 061030Z 13004KT 4000 HZ SCT035 FEW040CB BKN100 34/20 Q1001 TEMPO 25020G30KT 1500 TS DS=
202006061000 METAR VIDP 061000Z 14004KT 4000 HZ SCT035 FEW040CB BKN100 34/20 Q1001 TEMPO 25020G30KT 1500 TS DS=
202006060930 METAR VIDP 060930Z 10004KT 4000 HZ SCT035 FEW040CB BKN100 34/20 Q1001 TEMPO 25020G30KT 1500 TS DS=
202006060900 METAR VIDP 060900Z 09006KT 4500 HZ SCT035 FEW040CB BKN100 34/20 Q1002 TEMPO 25020G30KT 1500 TS DS=
202006060830 METAR VIDP 060830Z 09006KT 4500 HZ SCT035 FEW040CB BKN100 34/20 Q1002 NOSIG=
202006060800 METAR VIDP 060800Z 12005KT 4500 HZ SCT035 FEW040CB BKN100 34/20 Q1003 NOSIG=
202006060730 METAR VIDP 060730Z 12005KT 4500 HZ FEW035 SCT100 34/20 Q1003 NOSIG=
202006060700 METAR VIDP 060700Z 10006KT 4500 HZ FEW040 SCT100 33/21 Q1003 NOSIG=
202006060630 METAR VIDP 060630Z 13005KT 4500 HZ SCT100 32/21 Q1004 NOSIG=
202006060600 METAR VIDP 060600Z 11004KT 4000 HZ FEW100 32/21 Q1004 NOSIG=
202006060530 METAR VIDP 060530Z 12006KT 4000 HZ FEW100 32/22 Q1004 NOSIG=
202006060500 METAR VIDP 060500Z 12005KT 3500 HZ SCT100 31/22 Q1004 NOSIG=
202006060430 METAR VIDP 060430Z 14006KT 3000 HZ SCT100 30/22 Q1004 NOSIG=
202006060400 METAR VIDP 060400Z 12006KT 2800 HZ SCT100 29/22 Q1004 BECMG 3000 HZ=
202006060330 METAR VIDP 060330Z 13005KT 2500 HZ SCT100 29/23 Q1004 NOSIG=
202006060300 METAR VIDP 060300Z 11006KT 2200 HZ FEW100 28/22 Q1004 NOSIG=
202006060230 METAR VIDP 060230Z 12007KT 1800 R28/1800 R29/P2000 BR FEW100 27/23 Q1004 NOSIG=
202006060200 METAR VIDP 060200Z 12007KT 1800 R28/1800 R29/P2000 BR FEW040 SCT100 27/23 Q1003 NOSIG=
202006060130 METAR VIDP 060130Z 10006KT 1800 R28/1800 R29/P2000 BR SCT040 BKN100 26/24 Q1003 NOSIG=
202006060100 METAR VIDP 060100Z 10008KT 2000 BR SCT040 BKN100 25/24 Q1003 NOSIG=
202006060030 METAR VIDP 060030Z 09004KT 2500 BR SCT040 BKN100 25/23 Q1003 NOSIG=
202006060000 METAR VIDP 060000Z 09005KT 2500 BR SCT040 BKN100 25/23 Q1003 NOSIG=
202006052330 METAR VIDP 052330Z 10004KT 2500 BR SCT040 BKN100 25/23 Q1003 NOSIG=
202006052300 METAR VIDP 052300Z 11006KT 2500 BR SCT040 BKN100 25/22 Q1002 NOSIG=
202006052230 METAR VIDP 052230Z 11005KT 2500 BR SCT040 BKN100 25/22 Q1003 NOSIG=
202006052200 METAR VIDP 052200Z 11006KT 2500 BR FEW040 SCT100 26/22 Q1003 NOSIG=
202006052130 METAR VIDP 052130Z 10006KT 2500 BR FEW040 SCT100 26/22 Q1003 NOSIG=
202006052100 METAR VIDP 052100Z 10006KT 2500 BR FEW040 SCT100 26/22 Q1003 NOSIG=
202006052030 METAR VIDP 052030Z 11006KT 2500 HZ FEW040 SCT100 27/22 Q1003 NOSIG=
202006052000 METAR VIDP 052000Z 10006KT 2500 HZ FEW040 SCT100 27/22 Q1003 NOSIG=
202006051930 METAR VIDP 051930Z 11005KT 2500 HZ FEW040 SCT100 27/22 Q1003 NOSIG=
202006051900 METAR VIDP 051900Z 11004KT 3000 HZ FEW040 SCT100 28/22 Q1003 NOSIG=
202006051830 METAR VIDP 051830Z 12005KT 3200 HZ FEW040 SCT100 28/22 Q1003 BECMG 3000 HZ=
202006051800 METAR VIDP 051800Z 13005KT 3500 HZ FEW040 SCT100 28/22 Q1003 NOSIG=
202006051730 METAR VIDP 051730Z 12006KT 3500 HZ FEW040 SCT100 28/22 Q1003 NOSIG=
202006051700 METAR VIDP 051700Z 11008KT 3500 HZ FEW040 SCT100 28/21 Q1003 NOSIG=
202006051630 METAR COR VIDP 051630Z 11007KT 3500 HZ FEW040 SCT100 29/21 Q1003 NOSIG=
202006051600 METAR VIDP 051600Z 09004KT 3500 HZ FEW040 SCT100 29/21 Q1002 NOSIG=
202006051530 METAR VIDP 051530Z 00000KT 4000 HZ FEW040 SCT100 29/20 Q1002 NOSIG=
202006051500 METAR VIDP 051500Z 00000KT 4000 HZ FEW040 SCT100 29/19 Q1002 NOSIG=
202006051430 METAR VIDP 051430Z 00000KT 4000 HZ SCT035 BKN100 30/18 Q1002 NOSIG=
202006051400 METAR VIDP 051400Z 00000KT 4000 HZ SCT035 BKN100 30/17 Q1002 NOSIG=
202006051330 METAR VIDP 051330Z 10003KT 4000 HZ SCT035 BKN100 30/18 Q1001 NOSIG=
202006051300 METAR VIDP 051300Z 09004KT 4000 HZ SCT035 BKN100 30/17 Q1001 NOSIG=
202006051230 METAR VIDP 051230Z 00000KT 3500 HZ SCT035 BKN100 30/17 Q1001 NOSIG=
202006051200 METAR VIDP 051200Z 11004KT 2800 HZ SCT030 BKN100 29/18 Q1001 BECMG 3000 HZ=
202006051130 METAR VIDP 051130Z 12007KT 2800 HZ SCT030 FEW035CB BKN100 28/18 Q1002 TEMPO 36015G25KT 1500 TSRA=
202006051100 METAR VIDP 051100Z 16012KT 2200 HZ SCT030 FEW035CB OVC080 29/19 Q1002 TEMPO 36015G25KT 1500 TSRA=
202006051030 METAR VIDP 051030Z 26015G25KT 1800 R28/P2000 R29/P2000 BLDU SCT030 FEW035CB OVC080 30/18 Q1002 TEMPO 26015G25KT 1500 TSRA=
202006051000 METAR VIDP 051000Z 09005KT 3000 HZ SCT030 FEW035CB OVC080 34/18 Q1002 TEMPO 26015G25KT 1500 TSRA=
202006050930 METAR VIDP 050930Z 12005KT 3000 HZ SCT030 FEW035CB BKN100 34/17 Q1002 TEMPO 26015G25KT 1500 TSRA=
202006050900 METAR VIDP 050900Z 15006KT 3000 HZ SCT035 FEW035CB BKN100 34/17 Q1002 TEMPO 26015G25KT 1500 TSRA=
202006050830 METAR VIDP 050830Z 20004KT 3000 HZ SCT035 FEW040CB BKN100 34/18 Q1002 TEMPO 26015G25KT 1500 TSRA=
202006050800 METAR VIDP 050800Z 14005KT 3000 HZ FEW040 SCT100 34/18 Q1003 NOSIG=
202006050730 METAR VIDP 050730Z 15005KT 3000 HZ FEW040 SCT100 34/18 Q1004 NOSIG=
202006050700 METAR VIDP 050700Z 27004KT 3000 HZ SCT100 33/18 Q1004 NOSIG=
202006050630 METAR VIDP 050630Z 21003KT 3000 HZ FEW040 SCT100 32/18 Q1004 NOSIG=
202006050600 METAR VIDP 050600Z 18004KT 3000 HZ SCT040 BKN100 32/19 Q1004 NOSIG=
202006050530 METAR VIDP 050530Z 19005KT 3000 HZ SCT040 BKN100 31/19 Q1005 NOSIG=
202006050500 METAR VIDP 050500Z 18005KT 3000 HZ FEW040 SCT100 31/18 Q1005 NOSIG=
202006050430 METAR VIDP 050430Z 18005KT 3000 HZ SCT100 30/19 Q1005 NOSIG=
202006050400 METAR VIDP 050400Z 12004KT 3000 HZ SCT100 30/18 Q1005 NOSIG=
202006050330 METAR VIDP 050330Z 15004KT 3000 HZ SCT100 29/18 Q1005 NOSIG=
202006050300 METAR VIDP 050300Z 14006KT 3000 HZ SCT100 29/19 Q1005 NOSIG=
202006050230 METAR VIDP 050230Z 14005KT 2800 HZ FEW040 SCT100 28/19 Q1004 BECMG 1500 HZ=
202006050200 METAR VIDP 050200Z 13004KT 2500 HZ SCT035 BKN100 27/20 Q1004 NOSIG=
202006050130 METAR VIDP 050130Z 13005KT 2500 HZ SCT035 BKN100 27/20 Q1004 NOSIG=
202006050100 METAR VIDP 050100Z 13004KT 2500 HZ SCT035 BKN100 26/19 Q1004 NOSIG=
202006050030 METAR VIDP 050030Z 14003KT 2500 HZ SCT035 BKN100 26/19 Q1003 NOSIG=
202006050000 METAR VIDP 050000Z 16004KT 2500 HZ SCT035 BKN100 26/19 Q1003 NOSIG=
202006042330 METAR VIDP 042330Z 16003KT 2500 HZ SCT035 BKN100 26/19 Q1003 NOSIG=
202006042300 METAR VIDP 042300Z 15003KT 2500 HZ SCT035 BKN100 26/19 Q1003 NOSIG=
202006042230 METAR VIDP 042230Z 15004KT 2500 HZ SCT035 BKN100 26/20 Q1003 NOSIG=
202006042200 METAR VIDP 042200Z 14004KT 2500 HZ SCT035 BKN100 26/20 Q1003 NOSIG=
202006042130 METAR VIDP 042130Z 18003KT 2500 HZ SCT035 BKN100 26/20 Q1003 NOSIG=
202006042100 METAR VIDP 042100Z 13004KT 2500 HZ SCT035 BKN100 26/20 Q1003 NOSIG=
202006042030 METAR VIDP 042030Z 00000KT 2500 HZ SCT035 BKN100 26/20 Q1003 NOSIG=
202006042000 METAR VIDP 042000Z 09004KT 2500 HZ SCT035 BKN100 26/20 Q1003 NOSIG=
202006041930 METAR VIDP 041930Z 09003KT 2500 HZ SCT035 BKN100 26/20 Q1004 NOSIG=
202006041900 METAR VIDP 041900Z 06003KT 2500 HZ SCT035 BKN100 26/20 Q1004 NOSIG=
202006041830 METAR VIDP 041830Z 03003KT 2500 HZ SCT035 BKN100 26/20 Q1004 NOSIG=
202006041800 METAR VIDP 041800Z 04004KT 2500 HZ SCT035 BKN100 26/20 Q1004 NOSIG=
202006041730 METAR VIDP 041730Z 06004KT 2500 HZ SCT035 BKN100 26/20 Q1004 NOSIG=
202006041700 METAR VIDP 041700Z 08005KT 2500 HZ SCT035 BKN100 26/20 Q1003 NOSIG=
202006041630 METAR VIDP 041630Z 00000KT 2500 HZ SCT035 BKN100 26/20 Q1003 NOSIG=
202006041600 METAR VIDP 041600Z 00000KT 2500 HZ SCT035 BKN100 26/20 Q1003 NOSIG=
202006041530 METAR VIDP 041530Z 00000KT 2500 HZ SCT035 BKN100 26/21 Q1003 NOSIG=
202006041500 METAR VIDP 041500Z 00000KT 2500 HZ SCT035 BKN080 26/20 Q1003 NOSIG=
202006041430 METAR COR VIDP 041430Z 00000KT 2500 HZ SCT030 BKN080 27/20 Q1003 NOSIG=
202006041400 METAR VIDP 041400Z 30007KT 2500 HZ SCT030 FEW040CB BKN080 27/20 Q1002 TEMPO 22020G30KT TSRA=
202006041330 METAR VIDP 041330Z 22006KT 2500 TSRA SCT030 FEW040CB BKN080 27/20 Q1002 TEMPO 22020G30KT TSRA=
202006041300 METAR VIDP 041300Z 18012G22KT 2500 TSRA SCT030 FEW040CB BKN080 26/19 Q1001 TEMPO 24020G30KT 1500 TSRA=
202006041230 METAR COR VIDP 041230Z 22008G18KT 2500 TSRA SCT030 FEW040CB BKN080 26/19 Q1002 TEMPO 24020G30KT 1500 TSRA=
202006041200 METAR VIDP 041200Z 26008G18KT 2500 HZ SCT030 FEW040CB BKN080 29/20 Q1003 TEMPO 24020G30KT 1500 TSRA=
202006041130 METAR VIDP 041130Z 14008KT 2500 HZ SCT030 FEW040CB BKN080 31/20 Q1001 TEMPO 24020G30KT 1500 TSRA=
202006041100 METAR VIDP 041100Z 13005KT 3500 HZ SCT030 FEW040CB BKN080 31/20 Q1001 TEMPO 24020G30KT 1500 TSRA=
202006041030 METAR VIDP 041030Z 17006KT 3500 HZ BKN030 FEW040CB OVC080 31/22 Q1001 TEMPO 24020G30KT 1500 TSRA=
202006041000 METAR VIDP 041000Z 21004KT 3500 HZ BKN030 FEW040CB OVC080 32/20 Q1001 TEMPO 24020G30KT 1500 TSRA=
202006040930 METAR VIDP 040930Z 12006KT 3500 HZ BKN030 FEW040CB OVC080 33/19 Q1002 TEMPO 24020G30KT 1500 TSRA=
202006040900 METAR VIDP 040900Z 09006KT 3500 HZ SCT030 FEW040CB BKN080 33/19 Q1002 TEMPO 24020G30KT 1500 TSRA=
202006040830 METAR VIDP 040830Z 09007KT 3500 HZ SCT030 FEW040CB BKN080 34/19 Q1002 TEMPO 15015G25KT 1500 TSRA DS=
202006040800 METAR VIDP 040800Z 11008KT 4000 HZ SCT035 FEW040CB BKN100 34/19 Q1003 TEMPO 15015G25KT TSRA DS=
202006040730 METAR VIDP 040730Z 11008KT 3500 HZ SCT035 FEW040CB BKN100 34/19 Q1003 NOSIG=
202006040700 METAR VIDP 040700Z 09005KT 3500 HZ SCT035 FEW040CB BKN100 34/19 Q1003 NOSIG=
202006040630 METAR VIDP 040630Z 09006KT 3000 HZ SCT040 BKN100 34/20 Q1004 NOSIG=
202006040600 METAR VIDP 040600Z 08006KT 2500 HZ SCT040 BKN100 34/20 Q1004 BECMG 3000 HZ=
202006040530 METAR VIDP 040530Z 09005KT 2200 HZ SCT040 BKN100 33/20 Q1004 NOSIG=
202006040500 METAR VIDP 040500Z 09007KT 2000 HZ SCT040 BKN100 33/20 Q1004 NOSIG=
202006040430 METAR VIDP 040430Z 09006KT 1800 R28/P2000 R29/P2000 DU SCT040 BKN100 32/21 Q1004 NOSIG=
202006040400 METAR VIDP 040400Z 09007KT 1500 R28/1700 R29/P2000 DU SCT040 BKN100 31/22 Q1004 NOSIG=
202006040330 METAR VIDP 040330Z 09005KT 1500 R28/1500 R29/P2000 DU SCT040 BKN100 31/21 Q1004 NOSIG=
202006040300 METAR VIDP 040300Z 08004KT 1500 R28/1800 R29/P2000 DU SCT040 BKN100 31/22 Q1004 NOSIG=
202006040230 METAR VIDP 040230Z 00000KT 1500 R28/1600 R29/P2000 HZ SCT040 BKN100 29/21 Q1004 NOSIG=
202006040200 METAR VIDP 040200Z 00000KT 1500 R28/1500 R29/P2000 HZ SCT035 BKN100 27/20 Q1003 NOSIG=
202006040130 METAR VIDP 040130Z 00000KT 1500 R28/1600 R29/P2000 HZ SCT035 BKN100 27/20 Q1003 NOSIG=
202006040100 METAR VIDP 040100Z 00000KT 1800 R28/1800 R29/P2000 HZ SCT035 BKN100 26/20 Q1003 TEMPO 1500 HZ=
202006040030 METAR VIDP 040030Z 00000KT 2200 HZ SCT040 BKN100 26/20 Q1003 NOSIG=
202006040000 METAR VIDP 040000Z 00000KT 2300 HZ SCT040 BKN100 26/19 Q1003 NOSIG=
202006032330 METAR VIDP 032330Z 00000KT 3000 HZ FEW040 SCT100 27/19 Q1003 NOSIG=
202006032300 METAR VIDP 032300Z 00000KT 3200 HZ FEW040 SCT100 27/19 Q1003 BECMG 3000 HZ=
202006032230 METAR VIDP 032230Z 27004KT 3500 HZ FEW040 SCT100 27/19 Q1003 NOSIG=
202006032200 METAR VIDP 032200Z 00000KT 3500 HZ FEW040 SCT100 27/19 Q1003 NOSIG=
202006032130 METAR VIDP 032130Z 00000KT 3500 HZ FEW040 SCT100 28/19 Q1003 NOSIG=
202006032100 METAR VIDP 032100Z 00000KT 3500 HZ FEW040 SCT100 28/19 Q1003 NOSIG=
202006032030 METAR VIDP 032030Z 00000KT 3500 HZ FEW040 SCT100 29/19 Q1003 NOSIG=
202006032000 METAR VIDP 032000Z 00000KT 3500 HZ FEW040 SCT100 29/19 Q1003 NOSIG=
202006031930 METAR VIDP 031930Z 00000KT 3500 HZ FEW040 SCT100 29/19 Q1004 NOSIG=
202006031900 METAR VIDP 031900Z 00000KT 3500 HZ FEW035 SCT100 30/18 Q1004 NOSIG=
202006031830 METAR VIDP 031830Z 00000KT 3500 HZ FEW035 SCT100 30/18 Q1004 NOSIG=
202006031800 METAR VIDP 031800Z 00000KT 3500 HZ FEW035 SCT100 30/18 Q1004 NOSIG=
202006031730 METAR VIDP 031730Z 00000KT 3500 HZ FEW035 SCT100 30/17 Q1004 NOSIG=
202006031700 METAR VIDP 031700Z 22003KT 3500 HZ FEW035 SCT100 30/18 Q1004 NOSIG=
202006031630 METAR VIDP 031630Z 21003KT 3500 HZ FEW035 SCT100 30/18 Q1004 NOSIG=
202006031600 METAR VIDP 031600Z 00000KT 3500 HZ FEW035 SCT100 30/18 Q1004 NOSIG=
202006031530 METAR VIDP 031530Z 25003KT 3500 HZ FEW035 SCT100 30/18 Q1004 NOSIG=
202006031500 METAR VIDP 031500Z 27004KT 3500 HZ FEW035 SCT100 31/18 Q1003 NOSIG=
202006031430 METAR VIDP 031430Z 26005KT 3500 HZ FEW035 SCT100 31/18 Q1003 NOSIG=
202006031400 METAR VIDP 031400Z 14005KT 3500 HZ SCT035 FEW040CB BKN080 32/18 Q1002 NOSIG=
202006031330 METAR VIDP 031330Z 11005KT 3500 HZ SCT035 FEW040CB BKN080 33/17 Q1002 NOSIG=
202006031300 METAR VIDP 031300Z 11005KT 3500 HZ SCT030 FEW040CB BKN080 34/17 Q1002 NOSIG=
202006031230 METAR VIDP 031230Z 11005KT 3500 HZ SCT035 BKN100 35/17 Q1002 NOSIG=
202006031200 METAR VIDP 031200Z 23006KT 3500 HZ SCT035 FEW040CB BKN100 35/17 Q1002 NOSIG=
202006031130 METAR VIDP 031130Z 19007KT 3500 HZ SCT035 FEW040CB BKN100 36/15 Q1002 NOSIG=
202006031100 METAR VIDP 031100Z 20005KT 3500 HZ SCT035 FEW040CB BKN100 36/14 Q1002 NOSIG=
202006031030 METAR VIDP 031030Z 23006KT 3500 HZ SCT035 FEW040CB BKN100 36/14 Q1002 NOSIG=
202006031000 METAR VIDP 031000Z 230006KT 4000 HZ SCT035 FEW040CB BKN100 36/15 Q1003 NOSIG=
202006030930 METAR VIDP 030930Z 25005KT 4500 HZ SCT035 FEW040CB BKN100 36/17 Q1003 NOSIG=
202006030900 METAR VIDP 030900Z 30005KT 4500 HZ SCT035 BKN100 36/18 Q1003 NOSIG=
202006030830 METAR VIDP 030830Z 27004KT 4500 HZ SCT035 FEW040CB BKN100 36/19 Q1004 NOSIG=
202006030800 METAR VIDP 030800Z 28006KT 4500 HZ SCT035 FEW040CB BKN100 35/19 Q1004 NOSIG=
202006030730 METAR VIDP 030730Z 28006KT 4500 HZ SCT035 FEW040CB BKN100 35/19 Q1005 NOSIG=
202006030700 METAR VIDP 030700Z 29004KT 4500 HZ FEW040 SCT100 35/18 Q1005 NOSIG=
202006030630 METAR VIDP 030630Z 26007KT 4500 HZ FEW100 35/18 Q1005 NOSIG=
202006030600 METAR VIDP 030600Z 28005KT 4000 HZ FEW100 35/19 Q1005 NOSIG=
202006030530 METAR VIDP 030530Z 35004KT 3500 HZ FEW100 34/20 Q1005 NOSIG=
202006030500 METAR VIDP 030500Z VRB02KT 3500 HZ NSC 33/20 Q1005 NOSIG=
202006030230 METAR VIDP 030230Z 11003KT 2500 HZ NSC 31/21 Q1005 NOSIG=
202006030200 METAR VIDP 030200Z 10003KT 2500 HZ NSC 30/22 Q1005 NOSIG=
202006030130 METAR VIDP 030130Z 10003KT 2200 HZ NSC 29/22 Q1005 NOSIG=
202006030100 METAR VIDP 030100Z 00000KT 2200 HZ NSC 27/22 Q1005 NOSIG=
202006030030 METAR VIDP 030030Z 00000KT 2500 HZ NSC 27/21 Q1004 NOSIG=
202006030000 METAR VIDP 030000Z 05003KT 2800 HZ FEW100 27/21 Q1004 NOSIG=
202006022330 METAR VIDP 022330Z 05003KT 3000 HZ SCT100 27/21 Q1004 NOSIG=
202006022300 METAR VIDP 022300Z 00000KT 3500 HZ FEW040 SCT100 28/21 Q1003 BECMG 3000 HZ=
202006022230 METAR VIDP 022230Z 00000KT 3500 HZ FEW040 SCT100 28/21 Q1003 NOSIG=
202006022200 METAR VIDP 022200Z 00000KT 4000 HZ FEW040 SCT100 28/21 Q1003 NOSIG=
202006022130 METAR VIDP 022130Z 00000KT 4000 HZ FEW040 SCT100 29/22 Q1003 NOSIG=
202006022100 METAR VIDP 022100Z 00000KT 4000 HZ FEW040 SCT100 29/22 Q1004 NOSIG=
202006022030 METAR VIDP 022030Z 00000KT 4000 HZ FEW040 SCT100 29/21 Q1004 NOSIG=
202006022000 METAR VIDP 022000Z 00000KT 4000 HZ FEW040 SCT100 29/21 Q1004 NOSIG=
202006021930 METAR VIDP 021930Z 00000KT 4000 HZ FEW040 SCT100 29/21 Q1005 NOSIG=
202006021900 METAR VIDP 021900Z 00000KT 4000 HZ FEW040 SCT100 29/20 Q1005 NOSIG=
202006021800 METAR VIDP 021800Z 00000KT 4000 HZ FEW100 30/19 Q1005 NOSIG=
202006021730 METAR VIDP 021730Z 00000KT 4000 HZ FEW100 30/19 Q1005 NOSIG=
202006021700 METAR VIDP 021700Z 00000KT 4000 HZ FEW040 30/20 Q1006 NOSIG=
202006021630 METAR VIDP 021630Z 00000KT 4000 HZ FEW040 SCT100 31/21 Q1005 NOSIG=
202006021600 METAR VIDP 021600Z 35003KT 4000 HZ FEW040 SCT100 31/21 Q1005 NOSIG=
202006021530 METAR VIDP 021530Z 02004KT 4000 HZ FEW040 SCT100 31/20 Q1005 NOSIG=
202006021500 METAR VIDP 021500Z 34006KT 4000 HZ FEW040 SCT100 32/20 Q1005 NOSIG=
202006021430 METAR VIDP 021430Z 30007KT 4000 HZ FEW040 SCT100 33/18 Q1004 NOSIG=
202006021400 METAR VIDP 021400Z 25003KT 4000 HZ FEW030 FEW035CB SCT100 35/16 Q1003 NOSIG=
202006021330 METAR VIDP 021330Z 28003KT 4500 HZ FEW030 FEW035CB SCT100 35/15 Q1003 NOSIG=
202006021300 METAR VIDP 021300Z 26004KT 4500 HZ FEW030 FEW035CB SCT100 35/15 Q1003 NOSIG=
202006021230 METAR VIDP 021230Z 25005KT 4500 HZ FEW030 FEW035CB SCT100 36/14 Q1003 NOSIG=
202006021200 METAR VIDP 021200Z 25004KT 4500 HZ FEW030 FEW035CB SCT100 36/14 Q1003 NOSIG=
202006021130 METAR VIDP 021130Z 25005KT 4500 HZ FEW030 FEW035CB SCT100 36/14 Q1003 NOSIG=
202006021100 METAR VIDP 021100Z 23004KT 4500 HZ FEW030 SCT100 36/15 Q1003 NOSIG=
202006021030 METAR VIDP 021030Z 26005KT 4500 HZ FEW030 SCT100 36/16 Q1004 NOSIG=
202006021000 METAR VIDP 021000Z 25005KT 4500 HZ FEW030 SCT100 36/17 Q1004 NOSIG=
202006020930 METAR VIDP 020930Z 24004KT 4500 HZ FEW030 SCT100 35/17 Q1005 NOSIG=
202006020900 METAR VIDP 020900Z 26007KT 4500 HZ FEW030 SCT100 35/18 Q1005 NOSIG=
202006020830 METAR VIDP 020830Z 25005KT 4500 HZ FEW035 SCT100 35/19 Q1006 NOSIG=
202006020800 METAR VIDP 020800Z 25007KT 4500 HZ FEW035 SCT100 34/18 Q1006 NOSIG=
202006020730 METAR VIDP 020730Z 25007KT 4500 HZ FEW100 34/18 Q1007 NOSIG=
202006020700 METAR VIDP 020700Z 25007KT 4500 HZ FEW100 34/18 Q1007 NOSIG=
202006020630 METAR VIDP 020630Z 22006KT 4500 HZ FEW100 33/18 Q1007 NOSIG=
202006020500 METAR VIDP 020500Z 09005KT 4000 HZ FEW100 30/18 Q1008 NOSIG=
202006020430 METAR VIDP 020430Z 08005KT 4000 HZ SCT100 29/18 Q1008 NOSIG=
202006020400 METAR VIDP 020400Z 05007KT 3500 HZ FEW035 SCT100 28/18 Q1008 NOSIG=
202006020330 METAR VIDP 020330Z 05009KT 3200 HZ FEW035 SCT100 28/19 Q1008 NOSIG=
202006020300 METAR VIDP 020300Z 03009KT 2800 HZ FEW035 SCT100 27/19 Q1009 BECMG 3000 HZ=
202006020230 METAR VIDP 020230Z 03009KT 2500 HZ FEW035 FEW040CB SCT100 26/19 Q1008 TEMPO 27015G25KT 1500 TSRA=
202006020200 METAR VIDP 020200Z 34012KT 2100 HZ SCT035 FEW040CB BKN100 26/20 Q1008 TEMPO 27015G25KT 1500 TSRA=
202006020130 METAR COR VIDP 020130Z 35009KT 2100 HZ SCT030 FEW040CB BKN080 26/20 Q1008 TEMPO 27015G25KT 1500 TSRA=
202006020100 METAR COR VIDP 020100Z 29008KT 2100 HZ SCT030 FEW040CB BKN080 26/20 Q1008 TEMPO 27015G25KT 1500 TSRA=
202006020030 METAR VIDP 020030Z 27008KT 2500 HZ SCT030 FEW040CB BKN080 26/21 Q1007 TEMPO 327015G25KT 1500 TSRA=
202006020000 METAR VIDP 020000Z 00000KT 3500 HZ FEW035 FEW040CB SCT100 27/21 Q1006 NOSIG=
202006012330 METAR VIDP 012330Z 00000KT 3500 HZ FEW035 FEW040CB SCT100 27/21 Q1006 NOSIG=
202006012300 METAR VIDP 012300Z 00000KT 3500 HZ FEW035 FEW040CB SCT100 27/21 Q1006 NOSIG=
202006012230 METAR VIDP 012230Z 00000KT 3500 HZ SCT100 27/23 Q1006 NOSIG=
202006012200 METAR VIDP 012200Z 00000KT 3500 HZ SCT100 29/22 Q1006 NOSIG=
202006012130 METAR VIDP 012130Z 00000KT 3500 HZ SCT100 28/23 Q1006 NOSIG=
202006012100 METAR VIDP 012100Z 00000KT 3500 HZ SCT100 28/23 Q1006 NOSIG=
202006012030 METAR VIDP 012030Z 00000KT 3500 HZ SCT100 28/23 Q1006 NOSIG=
202006012000 METAR COR VIDP 012000Z 00000KT 3500 HZ SCT100 29/23 Q1006 NOSIG=
202006011930 METAR VIDP 011930Z 00000KT 3500 HZ SCT100 29/22 Q1006 NOSIG=
202006011900 METAR VIDP 011900Z 00000KT 4000 HZ SCT100 29/22 Q1006 NOSIG=
202006011830 METAR VIDP 011830Z 00000KT 4000 HZ SCT100 29/21 Q1006 NOSIG=
202006011800 METAR VIDP 011800Z 00000KT 4000 HZ SCT100 29/21 Q1006 NOSIG=
202006011730 METAR VIDP 011730Z 00000KT 4000 HZ SCT100 30/21 Q1007 NOSIG=
202006011700 METAR VIDP 011700Z 00000KT 4000 HZ SCT100 30/21 Q1007 NOSIG=
202006011630 METAR VIDP 011630Z 00000KT 4000 HZ SCT100 30/21 Q1007 NOSIG=
202006011600 METAR VIDP 011600Z 00000KT 4000 HZ FEW035 SCT100 30/21 Q1006 NOSIG=
202006011530 METAR VIDP 011530Z 00000KT 4000 HZ FEW035 SCT100 30/21 Q1006 NOSIG=
202006011500 METAR VIDP 011500Z 00000KT 4000 HZ FEW035 SCT100 31/21 Q1006 NOSIG=
202006011430 METAR VIDP 011430Z 00000KT 4000 HZ FEW035 SCT100 31/20 Q1006 NOSIG=
202006011400 METAR VIDP 011400Z 00000KT 4000 HZ FEW035 32/21 Q1006 NOSIG=
202006011330 METAR VIDP 011330Z 07003KT 4000 HZ FEW035 32/21 Q1005 NOSIG=
202006011300 METAR VIDP 011300Z 09003KT 4500 HZ FEW035 33/20 Q1005 NOSIG=
202006011230 METAR VIDP 011230Z 12003KT 5000 HZ FEW035 33/20 Q1005 NOSIG=
202006011200 METAR VIDP 011200Z 11005KT 6000 SCT035 34/20 Q1005 NOSIG=
202006011100 METAR VIDP 011100Z 09005KT 6000 SCT035 35/19 Q1006 NOSIG=
202006011030 METAR VIDP 011030Z 07004KT 6000 SCT035 35/19 Q1006 NOSIG=
202006011000 METAR VIDP 011000Z 10004KT 6000 SCT035 35/19 Q1007 NOSIG=
202006010930 METAR VIDP 010930Z 09005KT 6000 FEW040 35/19 Q1007 NOSIG=
202006010900 METAR VIDP 010900Z 05005KT 5000 HZ FEW040 34/19 Q1007 NOSIG=
202006010830 METAR VIDP 010830Z 16003KT 5000 HZ FEW040 34/19 Q1008 NOSIG=
202006010800 METAR VIDP 010800Z 25005KT 5000 HZ NSC 34/19 Q1008 NOSIG=
202006010730 METAR VIDP 010730Z 27004KT 5000 HZ NSC 33/19 Q1008 NOSIG=
202006010700 METAR VIDP 010700Z 28004KT 5000 HZ NSC 33/19 Q1009 NOSIG=
202006010630 METAR VIDP 010630Z 27003KT 5000 HZ NSC 32/19 Q1009 NOSIG=
202006010600 METAR VIDP 010600Z 23003KT 4000 HZ FEW100 32/19 Q1010 BECMG 5000 HZ=
202006010530 METAR VIDP 010530Z 00000KT 4000 HZ FEW100 31/19 Q1010 NOSIG=
202006010500 METAR VIDP 010500Z 00000KT 3500 HZ NSC 30/19 Q1010 NOSIG=
202006010430 METAR VIDP 010430Z 07004KT 3000 HZ NSC 29/20 Q1009 NOSIG=
202006010400 METAR VIDP 010400Z 04004KT 3000 HZ NSC 29/20 Q1010 NOSIG=
202006010330 METAR VIDP 010330Z 18003KT 3000 HZ FEW100 29/20 Q1010 NOSIG=
202006010300 METAR VIDP 010300Z 00000KT 3000 HZ FEW100 28/20 Q1010 NOSIG=
202006010230 METAR VIDP 010230Z 00000KT 2500 HZ FEW100 26/20 Q1009 BECMG 3000 HZ=
202006010200 METAR VIDP 010200Z 00000KT 2000 HZ FEW040 SCT100 24/19 Q1009 NOSIG=
202006010130 METAR VIDP 010130Z 00000KT 2000 BR FEW040 SCT100 23/20 Q1009 NOSIG=
202006010100 METAR VIDP 010100Z 00000KT 2000 BR FEW040 SCT100 22/20 Q1008 NOSIG=
202006010030 METAR VIDP 010030Z 00000KT 2000 BR FEW040 SCT100 22/20 Q1008 NOSIG=
202006010000 METAR VIDP 010000Z 00000KT 2000 BR FEW040 SCT100 22/20 Q1008 NOSIG=

###################################
#  short TAF from VIDP
###################################
202006302000 TAF VIDP 302000Z 3021/0106 09005KT 3000 HZ FEW100
                      BECMG 0100/0102 14006KT 2500 HZ FEW035 SCT100
                       BECMG 0104/0106 26007KT 3500 HZ SCT035 SCT100=
202006301700 TAF VIDP 301700Z 3018/0103 11005KT 3500 HZ FEW100
                      BECMG 3021/3023 14007KT 2500 HZ FEW035 SCT100
                       BECMG 3023/0103 FEW040CB=
202006301400 TAF VIDP 301400Z 3015/3024 13006KT 3000 HZ SCT040 BKN100
                      BECMG 3022/3024 18003KT 2000 HZ BR=
202006300500 TAF VIDP 300500Z 3006/3015 09008KT 3500 HZ SCT035 BKN100
                      TEMPO 3006/3010 1500 -TSRA FEW040CB=
202006300200 TAF VIDP 300200Z 3003/3012 13008KT 2000 BR HZ FEW035 SCT090
                      BECMG 3004/3006 3000 HZ
                      BECMG 3007/3009 04006KT 4000 HZ
                      TEMPO 3009/3012 FEW040CB=
202006292300 TAF VIDP 292300Z 3000/3009 13006KT 1500 BR FEW035 SCT100
                      TEMPO 3000/3003 FEW040CB
                      BECMG 3004/3006 33008KT 3500 HZ SCT100
                      BECMG 3007/3008 4500 HZ=
202006292000 TAF VIDP 292000Z 2921/3006 13005KT 2500 HZ BR FEW035 SCT100
                      TEMPO 2922/3003 FEW040CB
                      BECMG 3000/3002 1500 HZ BR
                      BECMG 3004/3005 33008KT 3500 HZ SCT100=
202006291700 TAF VIDP 291700Z 2918/3003 18006KT 2800 HZ FEW035 SCT100
                      TEMPO 2922/3003 FEW040CB
                      BECMG 3000/3002 1500 HZ BR=
202006291400 TAF VIDP 291400Z 2915/3000 12008G18KT 2000 -TSRA SCT035 FEW040CB
                       BKN100
                      BECMG 2918/2922 14006G16KT 1500 -TSRA SCT035
                       FEW040CB BKN100=
202006291100 TAF VIDP 291100Z 2912/2921 34006G16KT 2000 -TSRA SCT035 FEW040CB
                       BKN100
                      BECMG 2916/2920 32008KT 2000 -TSRA SCT035
                       FEW040CB BKN100=
202006290800 TAF VIDP 290800Z 2909/2918 29010KT 5000 HZ FEW035 SCT100
                      TEMPO 2910/2914 32015G25KT 1500 -TSRA SCT030
                       FEW035CB BKN090
                      BECMG 2915/2917 25006KT 3500 HZ SCT035 SCT100=
202006290500 TAF VIDP 290500Z 2906/2915 27010KT 5000 HZ FEW035 SCT100
                      TEMPO 2909/2914 32015G25KT 1500 -TSRA SCT030
                       FEW035CB BKN090=
202006290200 TAF VIDP 290200Z 2903/2912 25008KT 2500 HZ SCT100
                      BECMG 2905/2907 3500 FEW035 SCT100
                      TEMPO 2908/2912 29020G30KT 1500 TSRA FEW040CB=
202006282300 TAF VIDP 282300Z 2900/2909 29006KT 2000 HZ SCT040 BKN100
                      BECMG 2905/2907 3500 HZ SCT030 BKN090
                      TEMPO 2908/2909 29020G30KT 1500 TSRA FEW040CB=
202006282000 TAF VIDP 282000Z 2821/2906 23003KT 2200 HZ SCT040 BKN100
                      BECMG 2900/2902 29008KT 2000 HZ
                      BECMG 2905/2906 3500 HZ SCT030 BKN090=
202006281700 TAF VIDP 281700Z 2818/2903 23006KT 2200 HZ SCT040 BKN100
                      BECMG 2900/2902 29008KT 2000 HZ=
202006281400 TAF VIDP 281400Z 2815/2824 27010KT 2500 BLDU SCT040 BKN100
                      TEMPO 2816/2820 FEW040CB
                      BECMG 2821/2823 23006KT 2000 HZ FEW040 SCT100=
202006281100 TAF VIDP 281100Z 2812/2821 28012G22KT 3000 DU SCT040 BKN100
                      TEMPO 2812/2815 FEW040CB
                      BECMG 2817/2819 23006KT 2500 HZ=
202006280800 TAF VIDP 280800Z 2809/2818 29008G18KT 3500 HZ BLDU FEW040 SCT100
                       BECMG 2810/2815 FEW040CB
                      BECMG 2815/2817 25006KT 2500 HZ=
202006280500 TAF VIDP 280500Z 2806/2815 27010G20KT 3500 BLDU FEW040 SCT100
                      TEMPO 2810/2815 FEW040CB=
202006280200 TAF VIDP 280200Z 2803/2812 23008KT 3000 HZ FEW035 SCT100
                      BECMG 2805/2807 29008G18KT 4000 HZ FEW035
                       SCT100
                      TEMPO 2810/2812 2500 -TSRA SCT030 FEW035CB
                       BKN090=
202006272300 TAF VIDP 272300Z 2800/2809 29005KT 2500 HZ FEW040 SCT100
                      BECMG 2805/2807 29005G15KT 3500 HZ -RA SCT035
                       BKN100=
202006272000 TAF VIDP 272000Z 2721/2806 23004KT 3000 HZ SCT100
                      BECMG 2800/2802 29005KT 2000 HZ FEW040 SCT100
                       BECMG 2804/2806 29005G15KT 3500 HZ -RA SCT035
                       BKN100=
202006271700 TAF VIDP 271700Z 2718/2803 23004KT 2800 HZ SCT100
                      BECMG 2800/2802 29005KT 2000 HZ FEW040 SCT100=
202006271400 TAF VIDP 271400Z 2715/2724 25008KT 3000 DU SCT035 BKN100
                      TEMPO 2720/2724 16008G18KT 1500 TSRA FEW040CB=
202006271100 TAF VIDP 271100Z 2712/2721 27008G18KT 3000 BLDU SCT040 BKN100
                      BECMG 2716/2718 22008KT 2000 DU FEW040 SCT100=
202006270800 TAF VIDP 270800Z 2709/2718 27015G25KT 3000 HZ SCT035 BKN100
                      TEMPO 2710/2715 29020G30KT 1500 TSRA FEW040CB
                       BECMG 2716/2718 26008KT 3500 HZ SCT035 BKN100=
202006270500 TAF VIDP 270500Z 2706/2715 26010G20KT 3000 HZ SCT035 BKN100
                      BECMG 2709/2712 29020G30KT 2000 HZ TSRA FEW040CB
                       BECMG 2714/2715 26008KT 4000 HZ SCT035 BKN100=
202006270200 TAF VIDP 270200Z 2703/2712 23006KT 3000 HZ FEW035 SCT100
                      BECMG 2706/2708 29010KT 5000 HZ SCT035 SCT100
                       TEMPO 2709/2712 32015G25KT 1500 TSRA FEW035CB
                       BKN090=
202006262300 TAF VIDP 262300Z 2700/2709 23005KT 2000 HZ FEW035 SCT100
                      BECMG 2703/2705 26008KT 3500 HZ
                      BECMG 2706/2708 29010KT 5000 HZ SCT035 SCT100=
202006262000 TAF VIDP 262000Z 2621/2706 24005KT 3000 HZ FEW100
                      BECMG 2700/2702 27003KT 2200 HZ FEW035 SCT100
                       BECMG 2704/2706 30010KT 3500 HZ -RA SCT035
                       BKN100=
202006261700 TAF VIDP 261700Z 2618/2703 25006KT 3500 HZ FEW035 SCT100
                      BECMG 2620/2622 29005KT 2500 HZ SCT035 SCT100
                       TEMPO 2623/2703 15015G25KT 1500 TSRA FEW035CB
                       BKN090=
202006261400 TAF VIDP 261400Z 2615/2624 22008KT 4000 HZ SCT035 SCT100
                      TEMPO 2616/2620 1500 -TSRA SCT035 FEW035CB
                       BKN100
                      BECMG 2621/2623 06005KT 3000 HZ=
202006261100 TAF VIDP 261100Z 2612/2621 13008G18KT 4000 HZ SCT035 BKN100
                      TEMPO 2614/2618 1500 -TSRA FEW035CB=
202006260800 TAF VIDP 260800Z 2609/2618 29010KT 2800 HZ SCT035 BKN100
                      TEMPO 2610/2615 14015G25KT 1500 SCT030 FEW040CB
                       OVC080
                      BECMG 2615/2617 26005KT 3500 HZ -RA FEW035
                       SCT100=
202006260200 TAF VIDP 260200Z 2603/2612 24006KT 1500 BR FEW035 SCT100
                      TEMPO 2604/2610 33010G25KT 1000 TSRA SCT030
                       FEW035CB OVC080
                      BECMG 2606/2608 32008KT 3500 BR HZ SCT030
                       BKN090=
202006252300 TAF VIDP 252300Z 2600/2609 00000KT 1800 BR -RA SCT030 BKN090
                      TEMPO 2600/2603 24015G25KT 1000 TSRA FEW035CB
                       OVC080
                      BECMG 2604/2606 32008KT 3500 HZ FEW035 SCT090
                       BECMG 2607/2608 35008G18KT 5000 HZ SCT030
                       BKN090
                      TEMPO 2608/2609 35015G25KT 1000 TSRA FEW035CB
                       OVC080=
202006252000 TAF VIDP 252000Z 2521/2606 24004KT 2000 BR FEW035 SCT100
                      TEMPO 2521/2603 24015G25KT 1000 TSRA SCT030
                       FEW035CB OVC080
                      BECMG 2604/2605 31008KT 3500 HZ FEW035 SCT090=
202006251700 TAF VIDP 251700Z 2518/2603 24004KT 3000 HZ BR FEW035 SCT100
                      TEMPO 2520/2603 24015G25KT 1000 TSRA SCT030
                       FEW035CB OVC080
                      BECMG 2600/2602 29008KT 2000 BR -RA=
202006251400 TAF VIDP 251400Z 2515/2524 27005KT 3000 HZ FEW035 SCT100
                      BECMG 2515/2524 14008G18KT 2000 -TSRA SCT030
                       FEW040CB BKN090=
202006250500 TAF VIDP 250500Z 2506/2515 26005KT 3500 HZ FEW035 SCT100
                      BECMG 2507/2509 09010KT 5000 HZ SCT035 BKN100
                       TEMPO 2510/2515 14015G25KT 1500 TSRA FEW040CB
                       BKN090=
202006250200 TAF VIDP 250200Z 2503/2512 13006KT 2500 HZ FEW035 SCT100
                      BECMG 2505/2507 13010KT 3500 HZ SCT035 BKN100
                       TEMPO 2509/2512 14015G25KT 2000 TSRA FEW040CB=
202006242000 TAF VIDP 242000Z 2421/2506 13005KT 3000 HZ SCT100
                      BECMG 2500/2503 14008G18KT 2000 -TSRA SCT030
                       FEW040CB BKN090
                      BECMG 2504/2506 15008KT 3500 HZ SCT035 SCT100=
202006241700 TAF VIDP 241700Z 2418/2503 13006KT 3500 HZ FEW040 SCT100
                      BECMG 2423/2503 15008G18KT 2000 -TSRA SCT030
                       FEW040CB BKN090=
202006241400 TAF VIDP 241400Z 2415/2424 11008KT 3000 HZ FEW035 SCT100
                      BECMG 2415/2424 14008G18KT 2000 -TSRA SCT030
                       FEW040CB BKN090=
202006241100 TAF VIDP 241100Z 2412/2421 09008KT 3500 HZ SCT035 SCT100
                      BECMG 2415/2421 14008G18KT 2000 -TSRA SCT030
                       FEW040CB BKN090=
202006240800 TAF VIDP 240800Z 2409/2418 12008G18KT 3000 -TSRA SCT035 FEW040CB
                       BKN100
                      BECMG 2411/2415 13008G18KT 2500 TSRA SCT035
                       FEW040CB BKN100=
202006240200 TAF VIDP 240200Z 2403/2412 11008KT 3500 HZ SCT035 BKN100
                      BECMG 2405/2407 11008G18KT 5000 HZ
                      TEMPO 2410/2412 2000 -TSRA SCT030 FEW035CB
                       BKN090=
202006232300 TAF VIDP 232300Z 2400/2409 15008KT 2200 BR -RA SCT035 BKN090
                      BECMG 2404/2406 09008G18KT 3500 HZ -RA SCT040
                       BKN100=
202006232001 TAF VIDP 232001Z 2321/2406 11010KT 3000 HZ -RA SCT035 BKN090
                      BECMG 2323/2403 11008G18KT 2000 -TSRA SCT030
                       FEW035CB BKN080
                      BECMG 2404/2406 3500 HZ SCT035 BKN090=
202006232000 TAF VIDP 232000Z 2321/2406 11010KT 3000 HZ -RA SCT035 BKN090
                      BECMG 2323/2403 11008G18KT 2000 -TSRA SCT030
                       FEW035CB BKN080
                      BECMG 2404/2406 3500 HZ SCT035 BKN090=
202006231700 TAF VIDP 231700Z 2318/2403 11006KT 3000 HZ FEW040 SCT100
                      BECMG 2400/2402 18006KT 2500 HZ -RA SCT040
                       BKN100=
202006231400 TAF VIDP 231400Z 2315/2324 09008G18KT 3500 HZ FEW035 SCT100
                      BECMG 2317/2319 12010G20KT 2500 -TSRA SCT035
                       FEW040CB BKN100
                      BECMG 2320/2322 14008G18KT 3000 HZ -RA SCT040
                       FEW035CB BKN100=
202006230800 TAF VIDP 230800Z 2309/2318 11010G20KT 4000 HZ SCT035 BKN100
                      BECMG 2310/2312 10010G20KT 2000 -TSRA SCT035
                       FEW040CB BKN090
                      BECMG 2314/2318 12010G20KT 1500 TSRA SCT035
                       FEW040CB BKN090=
202006230500 TAF VIDP 230500Z 2306/2315 12008KT 3500 HZ SCT035 SCT100
                      BECMG 2307/2310 13010KT 3000 HZ SCT035 SCT100
                       TEMPO 2311/2313 14008G18KT 2000 TSRA SCT035
                       FEW040CB BKN100=
202006230200 TAF VIDP 230200Z 2303/2312 11005KT 3000 HZ FEW100
                      BECMG 2306/2308 29010KT 5000 HZ FEW035 SCT100
                       BECMG 2309/2312 FEW040CB=
202006222300 TAF VIDP 222300Z 2300/2309 09005KT 2000 HZ FEW035
                      BECMG 2304/2306 14008KT 3500 HZ FEW035 SCT100
                       BECMG 2306/2308 29010KT 5000 HZ SCT035 SCT090=
202006222000 TAF VIDP 222000Z 2221/2306 11004KT 3000 HZ FEW100
                      BECMG 2300/2302 07003KT 2000 HZ FEW035 SCT100
                       BECMG 2304/2306 32008KT 4000 HZ SCT035 SCT100=
202006221700 TAF VIDP 221700Z 2218/2303 09005KT 3000 HZ FEW035
                      BECMG 2223/2303 1500 -TSRA FEW040CB BKN090=
202006221400 TAF VIDP 221400Z 2215/2224 05006KT 3500 HZ FEW100
                      BECMG 2218/2220 14008KT 2500 HZ BR FEW040
                       SCT100
                      TEMPO 2221/2223 FEW040CB=
202006221100 TAF VIDP 221100Z 2212/2221 34008KT 4000 HZ FEW035
                      TEMPO 2213/2215 FEW040CB SCT100
                      BECMG 2218/2220 14008KT 2500 HZ BR FEW040
                       SCT100=
202006220800 TAF VIDP 220800Z 2209/2218 29006KT 4000 HZ FEW035 SCT100
                      TEMPO 2212/2216 32010G20KT 2000 -TSRA SCT030
                       FEW035CB BKN080=
202006220500 TAF VIDP 220500Z 2206/2215 32005G15KT 3500 HZ SCT035 SCT100
                      BECMG 2208/2210 5000 HZ
                      TEMPO 2211/2215 32010G20KT 2000 -TSRA SCT030
                       FEW035CB BKN080=
202006220200 TAF VIDP 220200Z 2203/2212 12006KT 1800 BR -RA FEW035 SCT090
                      BECMG 2204/2206 2500 HZ
                      BECMG 2208/2210 07006KT 3500 HZ SCT035 BKN090
                       TEMPO 2208/2212 FEW040CB=
202006212300 TAF VIDP 212300Z 2200/2209 29015G25KT 1800 BR SCT035 FEW040CB BKN100
                       TEMPO 2200/2203 29025G35KT 0800 DS TSRA
                       SCT030 FEW035CB OVC080
                      BECMG 2204/2206 32008KT 2500 HZ
                      BECMG 2207/2209 3500 HZ SCT035 BKN090=
202006212000 TAF VIDP 212000Z 2121/2206 12006KT 2500 HZ BR FEW035 SCT100
                      TEMPO 2121/2203 FEW040CB
                      BECMG 2200/2202 1800 BR
                      BECMG 2204/2205 32008KT 2500 HZ=
202006211700 TAF VIDP 211700Z 2118/2203 12004KT 3000 HZ FEW035 SCT100
                      TEMPO 2121/2203 FEW040CB
                      BECMG 2200/2202 1800 BR=
202006211100 TAF VIDP 211100Z 2112/2121 09005KT 3500 HZ FEW040 SCT100
                      TEMPO 2113/2117 32010G20KT 2000 -TSRA SCT035
                       FEW040CB BKN090
                      BECMG 2118/2120 29004KT 2500 HZ SCT040 BKN100=
202006210800 TAF VIDP 210800Z 2109/2118 27008KT 3500 HZ SCT040 BKN100
                      BECMG 2115/2117 12005KT 2500 HZ SCT035 BKN090
                       TEMPO 2110/2115 32020G30KT 2000 TSRA SCT035
                       FEW040CB OVC080=
202006210500 TAF VIDP 210500Z 2106/2115 23006KT 3500 HZ SCT035 BKN090
                      TEMPO 2109/2115 32020G30KT 1500 TSRA SCT035
                       FEW040CB OVC080=
202006210200 TAF VIDP 210200Z 2103/2112 16008KT 2000 BR -RA SCT030 BKN090
                      BECMG 2104/2106 29010KT 3000 HZ
                      BECMG 2108/2112 26015G25KT 2500 TSRA FEW040CB=
202006202300 TAF VIDP 202300Z 2100/2109 30008KT 2000 BR -RA SCT030 FEW040CB
                       BKN090
                      BECMG 2104/2106 29010KT 3000 HZ SCT030 BKN090
                       BECMG 2107/2109 26020G30KT 1200 DS TSRA
                       FEW040CB=
202006202000 TAF VIDP 202000Z 2021/2106 VRB02KT 2500 HZ SCT035 BKN100
                      BECMG 2022/2103 26015G25KT 1500 TSRA FEW040
                       CB BKN090
                      BECMG 2104/2106 29008KT 3000 HZ SCT040 BKN090=
202006201700 TAF VIDP 201700Z 2018/2103 32006KT 2500 HZ SCT035 OVC100
                      BECMG 2019/2102 26015G25KT 1500 TSRA FEW040CB=
202006201400 TAF VIDP 201400Z 2015/2024 27006KT 2500 HZ SCT035 BKN090
                      TEMPO 2015/2021 32010G25KT 1500 TSRA SCT035
                       FEW040CB OVC080=
202006201100 TAF VIDP 201100Z 2012/2021 23006KT 3500 HZ SCT035 SCT100
                      TEMPO 2012/2015 23010G25KT 1000 DS TS SCT035
                       FEW040 OVC080
                      BECMG 2017/2019 32006KT 2500 HZ SCT035 BKN090=
202006200800 TAF VIDP 200800Z 2009/2018 32008KT 4000 HZ FEW040 SCT100
                      TEMPO 2010/2015 FEW040CB
                      BECMG 2015/2017 23008KT 3000 HZ=
202006200500 TAF VIDP 200500Z 2006/2015 32008KT 3000 HZ FEW035 SCT100
                      TEMPO 2010/2015 FEW040CB
                      BECMG 2008/2010 4000 HZ=
202006200200 TAF VIDP 200200Z 2003/2012 32010G20KT 4000 HZ -RA SCT035 BKN100
                       TEMPO 2004/2008 2000 TSRA SCT030 FEW035CB
                       BKN090
                      BECMG 2010/2012 11008KT 4000 HZ=
202006192300 TAF VIDP 192300Z 2000/2009 15008KT 3000 HZ FEW040 SCT100
                      TEMPO 1923/2003 32010G30KT 0800 DS TSRA SCT030
                       FEW040CB BKN100
                      BECMG 2004/2006 09008KT 4000 HZ SCT040 BKN100=
202006192000 TAF VIDP 192000Z 1921/2006 11008KT 3500 HZ FEW040 SCT100
                      TEMPO 1923/2003 25010G20KT 2000 -TSRA SCT030
                       FEW035CB BKN090
                      BECMG 2004/2006 27006KT 3500 HZ FEW040 SCT100=
202006191700 TAF VIDP 191700Z 1918/2003 09008KT 2800 HZ FEW100
                      TEMPO 1921/2002 25010G20KT 1500 -TSRA SCT035
                       FEW040CB BKN090=
202006191400 TAF VIDP 191400Z 1915/1924 11009KT 2500 DU HZ FEW035 SCT100
                      TEMPO 1921/1924 FEW040CB=
202006191100 TAF VIDP 191100Z 1912/1921 32006KT 2500 DU HZ FEW035 SCT100
                      TEMPO 1912/1915 FEW040CB=
202006190800 TAF VIDP 190800Z 1909/1918 29008G18KT 2500 BLDU NSC
                      BECMG 1912/1915 29008G18KT 3000 BLDU FEWO40
                       SCT100=
202006190500 TAF VIDP 190500Z 1906/1915 27005KT 3000 BLDU NSC
                      BECMG 1910/1915 29008G18KT 3000 BLDU FEWO40
                       SCT100=
202006180800 TAF VIDP 180800Z 1809/1818 27005KT 4000 DU FEW040 SCT100
                      BECMG 1810/1812 28010G20KT 3000 BLDU=
202006180500 TAF VIDP 180500Z 1806/1815 23005KT 4000 HZ FEW040 SCT100
                      BECMG 1810/1812 22010G20KT 3000 BLDU=
202006180200 TAF VIDP 180200Z 1803/1812 12008KT 2500 HZ NSC
                      BECMG 1804/1806 3500 HZ
                      BECMG 1808/1810 32010KT 5000 HZ=
202006172300 TAF VIDP 172300Z 1800/1809 18008KT 2000 HZ BR FEW100
                      BECMG 1804/1806 29008KT 3500 HZ NSC
                      BECMG 1808/1809 30008G18KT 4500 HZ=
202006172000 TAF VIDP 172000Z 1721/1806 15008KT 3000 HZ FEW100
                      BECMG 1800/1802 2000 HZ BR
                      BECMG 1804/1805 29008KT 3500 HZ NSC=
202006171700 TAF VIDP 171700Z 1718/1803 15009KT 3500 HZ FEW100
                      BECMG 1800/1802 2000 HZ BR=
202006171400 TAF VIDP 171400Z 1715/1724 09010KT 4000 HZ FEW030 SCT100
                      BECMG 1718/1720 13008G18KT 2500 DU
                      TEMPO 1722/1724 FEW030CB=
202006170800 TAF VIDP 170800Z 1709/1718 12008KT 5000HZ FEW035 SCT100
                      BECMG 1710/1715 24020G30KT 1500 TS DS FEW040CB
                       BKN090
                      BECMG 1715/1717 09006KT 3500HZ SCT100=
202006170500 TAF VIDP 170500Z 1706/1715 11008KT 4000 HZ FEW100
                      BECMG 1708/1710 14010KT 5000 HZ FEW035 SCT100
                       BECMG 1709/1714 24020G30KT 1500 TS DS FEW040CB
                       BKN090=
202006170200 TAF VIDP 170200Z 1703/1712 11005G15KT 3000 HZ FEW100
                      BECMG 1705/1707 5000 HZ FEW040 SCT100
                      TEMPO 1708/1712 23020G30KT 2000 TS DS FEW040CB
                       BKN080=
202006162300 TAF VIDP 162300Z 1700/1709 13005G15KT 2500 HZ FEW100
                      BECMG 1704/1706 4500 HZ FEW040 SCT100=
202006162000 TAF VIDP 162000Z 1621/1706 11006KT 3000 HZ FEW100
                      BECMG 1703/1705 14008KT 4000 HZ FEW040=
202006161700 TAF VIDP 161700Z 1618/1703 11006KT 3000 HZ SCT100=
202006161400 TAF VIDP 161400Z 1615/1624 11004KT 4000 HZ FEW035 SCT100
                      BECMG 1621/1623 14003KT 2500 HZ SCT035 SCT090=
202006161100 TAF VIDP 161100Z 1612/1621 07006KT 4000 HZ SCT035 SCT100
                      BECMG 1612/1616 32015G25KT 1500 TSRA SCT030
                       FEW040CB BKN090
                      BECMG 1620/1621 12005KT 2500 HZ FEW035 SCT100=
202006160800 TAF VIDP 160800Z 1609/1618 14006KT 5000 HZ FEW100
                      BECMG 1610/1613 14010G20KT 3000 HZ SCT035
                       FEW040CB BKN100=
202006160500 TAF VIDP 160500Z 1606/1615 16006KT 4000 HZ FEW040 SCT100
                      BECMG 1609/1615 15010G20KT 3000 HZ SCT035
                       FEW035CB BKN100=
202006140500 TAF VIDP 140500Z 1406/1415 13008KT 3500 HZ FEW035 SCT100
                      TEMPO 1410/1413 27010G25KT 2000 -TSRA BLDU
                       SCT035 FEW035CB=
202006132000 TAF VIDP 132000Z 1321/1406 VRB02KT 2500 HZ FEW040 SCT100
                      TEMPO 1321/1403 FEW040CB
                      BECMG 1400/1402 1800 HZ BR
                      BECMG 1404/1405 35008KT 3500 HZ SCT100=
202006131700 TAF VIDP 131700Z 1318/1403 VRB02KT 2800 HZ FEW040 SCT100
                      BECMG 1321/1403 FEW040CB
                      BECMG 1400/1402 1800 HZ BR=
202006131400 TAF VIDP 131400Z 1315/1324 07006KT 3500 HZ SCT035 SCT100
                      BECMG 1318/1320 13006KT 3000 HZ FEW040 SCT100=
202006130800 TAF VIDP 130800Z 1309/1318 14005G15KT 2500 TS BLDU SCT035 FEW040CB
                       BKN100
                      BECMG 1315/1317 12006KT 3000 HZ FEW100
                      TEMPO 1312/1315 FEW040CB=
202006130500 TAF VIDP 130500Z 1306/1315 12005KT 3500 HZ FEW100
                      BECMG 1308/1310 14005G15KT 4000 HZ FEW040
                       SCT100
                      TEMPO 1309/1315 15010G25KT 2000 TS BLDU FEW040CB
                       BKN100=
202006121400 TAF VIDP 121400Z 1215/1224 05005KT 3500 HZ FEW040 SCT100
                      BECMG 1217/1219 2500 HZ FEW035 SCT100
                      TEMPO 1215/1218 FEW040CB=
202006121100 TAF VIDP 121100Z 1212/1221 05008G18KT 3000 DU FEW035 SCT100
                      TEMPO 1212/1215 32020G30KT 1000 DS TSRA FEW035
                       FEW040CB BKN100
                      BECMG 1217/1219 23006KT 2500 HZ=
202006120800 TAF VIDP 120800Z 1209/1218 29008KT 2500 HZ FEW035 SCT100
                      TEMPO 1209/1215 FEW040CB=
202006120500 TAF VIDP 120500Z 1206/1215 15008KT 2500 HZ FEW100
                      BECMG 1200/1210 29008KT 3500 HZ FEW035 SCT100
                       TEMPO 1210/1215 FEW040CB=
202006120200 TAF VIDP 120200Z 1203/1212 13007KT 2000 HZ FEW100
                      BECMG 1206/1208 4000 HZ FEW035 SCT100
                      TEMPO 1210/1212 FEW035TCU=
202006112300 TAF VIDP 112300Z 1200/1209 25005KT 2800 HZ -RA SCT035 BKN100
                      BECMG 1205/1207 32007KT 4000 HZ SCT030 SCT100=
202006112000 TAF VIDP 112000Z 1121/1206 25006KT 3000 HZ FEW040 SCT100
                      BECMG 1200/1202 3000 HZ -RA SCT035 BKN100
                       BECMG 1204/1206 32006KT 4000 HZ SCT030 SCT100=
202006111700 TAF VIDP 111700Z 1118/1203 09003KT 3500 HZ SCT100
                      BECMG 1123/1201 25005KT 2500 HZ -RA SCT035
                       BKN100=
202006111400 TAF VIDP 111400Z 1115/1124 24006KT 3500 HZ SCT100
                      BECMG 1117/1119 2500 HZ FEW035 SCT100
                      TEMPO 1121/1124 FEW040CB=
202006111100 TAF VIDP 111100Z 1112/1121 30008KT 4500 HZ FEW035 SCT100
                      TEMPO 1112/1115 FEW040CB
                      BECMG 1117/1119 24006KT 3000 HZ=
202006110800 TAF VIDP 110800Z 1109/1118 29008KT 4000 HZ FEW100
                      BECMG 1110/1115 TS FEW040 FEW040CB SCT100
                       BECMG 1115/1117 VRB02KT 3000 HZ=
202006110500 TAF VIDP 110500Z 1106/1115 29008KT 4000 HZ FEW100
                      BECMG 1110/1115 TS FEW040 FEW040CB SCT100=
202006110200 TAF VIDP 110200Z 1103/1112 07004KT 3000 HZ FEW035 SCT100
                      BECMG 1106/1108 32010KT 5000 HZ SCT035 SCT090
                       BECMG 1109/1112 29015G25KT 1500 DS TSRA
                       SCT030 FEW040CB BKN080=
202006102300 TAF VIDP 102300Z 1100/1109 VRB02KT 2500 HZ FEW035 SCT100
                      BECMG 1103/1105 26008KT 3500 HZ
                      BECMG 1106/1108 32010KT 5000 HZ SCT035 SCT090=
202006102000 TAF VIDP 102000Z 1021/1106 27003KT 3000 HZ FEW035 SCT100
                      BECMG 1100/1102 VRB02KT 2500 HZ FEW100
                      BECMG 1103/1105 26008KT 3500 HZ FEW035 SCT100=
202006101700 TAF VIDP 101700Z 1018/1103 23006KT 3500 HZ -RA SCT035 SCT100
                      BECMG 1100/1102 VRB02KT 2500 HZ FEW100=
202006101400 TAF VIDP 101400Z 1015/1024 22006KT 3000 BR -RA SCT035 SCT100
                      TEMPO 1020/1023 FEW040CB=
202006101100 TAF VIDP 101100Z 1012/1021 27008G18KT 4000 HZ SCT035 FEW040CB BKN100
                       BECMG 1012/1016 32020G30KT 2000 DS TS FEW035CB
                       BKN080
                      BECMG 1018/1020 16005KT 3000 HZ SCT100=
202006100800 TAF VIDP 100800Z 1009/1018 34008G18KT 3500 HZ FEW040 SCT100
                      BECMG 1010/1014 29015G25KT 1500 TSRA SCT030
                       FEW040CB BKN100
                      BECMG 1015/1017 07008KT 2500 HZ SCT100=
202006100500 TAF VIDP 100500Z 1006/1015 30008KT 4000 DU FEW040
                      TEMPO 1010/1014 25015G25KT 1500 TSRA SCT030
                       FEW040CB BKN100=
202006100200 TAF VIDP 100200Z 1003/1012 VRB02KT 3000 HZ FEW100
                      BECMG 1004/1006 32008KT 4500 HZ FEW035 SCT100
                       TEMPO 1009/1012 FEW040CB=
202006092300 TAF VIDP 092300Z 1000/1009 VRB02KT 2000 HZ BR FEW100
                      BECMG 1004/1006 32008KT 4500 HZ FEW035 SCT100=
202006092000 TAF VIDP 092000Z 0921/1006 VRB02KT 3000 HZ FEW100
                      BECMG 1000/1002 2000 HZ BR
                      BECMG 1004/1005 29008KT 3500 HZ FEW040 SCT100=
202006091700 TAF VIDP 091700Z 0918/1003 04004KT 3000 HZ FEW100
                      BECMG 1000/1002 31003KT 2000 HZ BR=
202006091400 TAF VIDP 091400Z 0915/0924 34005KT 4000 HZ FEW100
                      BECMG 0918/0920 22004KT 2500 HZ=
202006091100 TAF VIDP 091100Z 0912/0921 32008KT 4000 HZ FEW040 SCT100
                      BECMG 0918/0920 22004KT 2500 HZ FEW100=
202006090800 TAF VIDP 090800Z 0909/0918 23005KT 3500 HZ SCT100
                      BECMG 0910/0915 26015G25KT 2000 HZ -TSRA
                       SCT030 FEW040CB BKN090=
202006090500 TAF VIDP 090500Z 0906/0915 23006KT 4000 HZ FEW100
                      BECMG 0908/0910 29008G18KT 5000 HZ FEW035
                       SCT100
                      BECMG 0910/0915 26015G25KT 2000 HZ -TSRA
                       SCT030 FEW040CB BKN090=
202006090200 TAF VIDP 090200Z 0903/0912 13005KT 2500 HZ FEW100
                      BECMG 0905/0907 29010KT 3000 HZ
                      BECMG 0908/0912 26008G18KT 5000 HZ FEW040
                       SCT100=
202006082300 TAF VIDP 082300Z 0900/0909 15004KT 2200 HZ FEW100
                      BECMG 0904/0906 29010KT 3000 HZ FEW040 SCT100
                       BECMG 0907/0909 26015G25KT 2500 HZ -TSRA
                       SCT030 FEW040CB BKN100=
202006082000 TAF VIDP 082000Z 0821/0906 09003KT 2500 HZ FEW100
                      BECMG 0903/0905 29008KT 3500 HZ FEW040 SCT100=
202006081700 TAF VIDP 081700Z 0818/0903 09006KT 3000 HZ FEW100
                      BECMG 0900/0902 29006KT 2500 HZ FEW040 SCT100=
202006081400 TAF VIDP 081400Z 0815/0824 32008KT 4000 HZ FEW035
                      BECMG 0818/0821 FEW035CB
                      BECMG 0821/0823 29006KT 3000 HZ SCT035 SCT100=
202006081100 TAF VIDP 081100Z 0812/0821 29010KT 5000 HZ FEW035 SCT100
                      BECMG 0812/0816 32010G20KT 2000 TSRA SCT030
                       FEW035CB BKN090
                      BECMG 0818/0820 26008KT 3500 HZ=
202006080800 TAF VIDP 080800Z 0809/0818 32008G18KT 4000 HZ FEW040 SCT100
                      TEMPO 0810/0813 35010G20KT 1500 TSRA SCT030
                       FEW040CB BKN100
                      BECMG 0814/0816 02005KT 2500 HZ SCT100=
202006080500 TAF VIDP 080500Z 0806/0815 27006KT 4000 HZ FEW030
                      TEMPO 0808/0812 29010G20KT 1500 -TSRA FEW030
                       FEW040CB SCT100
                      BECMG 0813/0815 29008G18KT 3000 HZ FEW030
                       SCT100=
202006080200 TAF VIDP 080200Z 0803/0812 VRB02KT 2500 HZ NSC
                      BECMG 0806/0808 27006KT 4500 HZ FEW035 SCT100
                       TEMPO 0810/0812 2000 -TSRA SCT035 FEW040CB
                       BKN090=
202006072300 TAF VIDP 072300Z 0800/0809 23003KT 2000 HZ FEW100
                      BECMG 0803/0805 29007KT 3000 HZ SCT100
                      BECMG 0807/0809 5000 HZ FEW040 SCT100=
202006072000 TAF VIDP 072000Z 0721/0806 00000KT 3500 HZ FEW100
                      BECMG 0800/0802 23004KT 2200 HZ SCT100
                      BECMG 0803/0805 29006KT 3200 HZ=
202006071700 TAF VIDP 071700Z 0718/0803 VRB02KT 3500 HZ FEW100
                      BECMG 0800/0802 23003KT 2200 HZ SCT100=
202006071400 TAF VIDP 071400Z 0715/0724 22006KT 3500 HZ FEW040 SCT100
                      BECMG 0720/0722 2500 HZ=
202006071100 TAF VIDP 071100Z 0712/0721 22006KT 2500 HZ FEW040 SCT100
                      BECMG 0716/0718 VRB02KT 2000 HZ SCT100=
202006070800 TAF VIDP 070800Z 0709/0718 05008KT 1800 HZ SCT030 BKN100
                      BECMG 0711/0715 26025G35KT 1000 HZ DS TSRA
                       FEW040CB=
202006070500 TAF VIDP 070500Z 0706/0712 12006KT 2000 HZ SCT030 BKN100
                      BECMG 0706/0709 27025G25KT 1000 HZ DS TSRA
                       FEW040CB
                      BECMG 0711/0715 26015G25KT 2500 HZ TSRA FEW040CB
                       BECMG 0717/0719 29010KT 3000 HZ SCT030 BKN100
                       BECMG 0722/0803 26015G25KT 2500 HZ TSRA
                       FEW040CB
                      BECMG 0805/0807 32010KT 3000 HZ SCT030 BKN100
                       BECMG 0809/0812 26020G30KT 1500 HZ DS TSRA
                       FEW040CB=
202006061700 TAF VIDP 061700Z 0618/0703 14005KT 3500 HZ FEW100
                      BECMG 0620/0622 29008KT 2500 HZ -RA FEW035
                       SCT100
                      BECMG 0700/0702 11005KT 1800 HZ BR=
202006061400 TAF VIDP 061400Z 0615/0624 11006KT 4000 HZ FEW040 SCT100
                      BECMG 0615/0618 29015G25KT 2000 TS DS SCT030
                       FEW040CB BKN100
                      BECMG 0620/0622 32008KT 2500 HZ -RA SCT030
                       BKN100=
202006061100 TAF VIDP 061100Z 0612/0621 13006KT 4000 HZ SCT035 BKN100
                      BECMG 0613/0618 29015G25KT 1500 HZ DS TSRA
                       SCT030 FEW040CB BKN100
                      BECMG 0620/0621 32008KT 2500 HZ -RA SCT030
                       BKN100=
202006060800 TAF VIDP 060800Z 0609/0618 21007KT 4000 HZ SCT035 BKN100
                      TEMPO 0610/0614 27010G25KT 2000 TSRA SCT030
                       FEW035CB BKN090=
202006060500 TAF VIDP 060500Z 0606/0615 13007KT 3000 HZ SCT100
                      BECMG 0608/0610 27008KT 5000 HZ SCT035 BKN100
                       BECMG 0611/0614 27010G25KT 2000 TSRA SCT030
                       FEW035CB BKN090=
202006051400 TAF VIDP 051400Z 0515/0524 11004KT 3500 HZ SCT035 SCT100
                      BECMG 0521/0524 25010G25KT 2000 TSRA SCT030
                       FEW035CB BKN090=
202006051100 TAF VIDP 051100Z 0512/0521 15008KT 3000 HZ SCT035 BKN100
                      BECMG 0513/0518 27010G25KT 2000 TSRA SCT030
                       FEW035CB BKN090
                      BECMG 0520/0521 09005KT 3000 HZ SCT040 BKN100=
202006050800 TAF VIDP 050800Z 0509/0518 27006KT 3500 HZ SCT100
                      BECMG 0509/0515 27020G30KT 2000 TSRA SCT030
                       FEW035CB BKN100
                      BECMG 0515/0517 14006KT 3000 HZ FEW035 SCT100=
202006050501 TAF COR VIDP 050501Z 0506/0515 12006KT 3500 HZ SCT100
                      BECMG 0509/0512 27020G30KT 2000 TSRA SCT030
                       FEW040CB BKN100
                      BECMG 0513/0515 14008KT 3000 HZ FEW035 SCT100=
202006050200 TAF VIDP 050200Z 0503/0512 14010KT 2500 HZ SCT030 BKN100
                      BECMG 0506/0511 26020G30KT 1800 HZ DS TSRA
                       FEW040CB=
202006042300 TAF VIDP 042300Z 0500/0509 15005KT 2000 HZ SCT030 BKN100
                      BECMG 0505/0507 17010KT 2500 HZ
                      BECMG 0508/0509 26020G30KT 2000 HZ DS TSRA
                       FEW040CB=
202006042000 TAF VIDP 042000Z 0421/0506 29010G20KT 2000 HZ -TSRA SCT030 FEW040CB
                       BKN100
                      BECMG 0501/0503 16005KT 1800 HZ SCT030 BKN100
                       BECMG 0504/0506 17010KT 2500 HZ=
202006041700 TAF VIDP 041700Z 0418/0503 13008KT 2500 HZ -RA SCT030 BKN100
                      BECMG 0421/0423 29010G20KT 2000 HZ TSRA FEW040CB
                       BECMG 0501/0503 16005KT 1800 HZ SCT030 BKN100=
202006041400 TAF VIDP 041400Z 0415/0424 26005G15KT 3000 HZ SCT030 BKN080
                      TEMPO 0415/0418 32010G20KT 2000 TSRA SCT030
                       FEW040CB BKN080=
202006041100 TAF VIDP 041100Z 0412/0421 18006KT 3500 HZ FEW040 SCT100
                      TEMPO 0412/0415 32015G25KT 2000 TSRA SCT030
                       FEW040CB BKN100
                      BECMG 0415/0417 15010KT 3000 HZ FEW035 SCT100=
202006040800 TAF VIDP 040800Z 0409/0418 11008G18KT 3500 HZ SCT035 BKN090
                      TEMPO 0409/0415 FEW040CB
                      BECMG 0415/0417 15008KT 2500 HZ FEW035 SCT100=
202006032000 TAF VIDP 032000Z 0321/0406 00000KT 3500 HZ FEW040 SCT100
                      BECMG 0400/0402 23004KT 2500 HZ
                      BECMG 0403/0405 29007KT 3500 HZ SCT035 BKN100=
202006031700 TAF VIDP 031700Z 0318/0403 VRB02KT 3500 HZ FEW035 SCT100
                      BECMG 0400/0402 27004KT 2500 HZ-RA SCT030
                       BKN090=
202006031400 TAF VIDP 031400Z 0315/0324 29008KT 3000 HZ FEW040 SCT100
                      TEMPO 0315/0318 FEW040CB=
202006031100 TAF VIDP 031100Z 0312/0321 29008KT 3500 HZ SCT035 BKN090
                      TEMPO 0312/0315 FEW040CB=
202006030800 TAF VIDP 030800Z 0309/0318 26008G18KT 4500 HZ SCT035 BKN100
                      BECMG 0312/0317 29010G20KT 4000 HZ TSRA FEW040CB=
202006030500 TAF VIDP 030500Z 0306/0315 16005KT 3500 HZ FEW030 SCT100
                      BECMG 0308/0312 29010G20KT 4500 HZ TSRA SCT030
                       FEW040CB BKN100
                      BECMG 0314/0315 12010KT 4000 -RA HZ FEW030
                       SCT100=
202006022000 TAF VIDP 022000Z 0221/0306 26003KT 3500 HZ -RA FEW035 SCT100
                      BECMG 0221/0301 FEW040CB
                      BECMG 0301/0303 32005KT 2500 HZ BR
                      BECMG 0305/0306 29008KT 3500 HZ FEW100=
202006021400 TAF VIDP 021400Z 0215/0224 26005KT 4000 FEW030 SCT100
                      TEMPO 0215/0218 22010G20KT 2500 HZ -TSRA
                       SCT030 FEW030CB BKN100
                      BECMG 0220/0222 27008KT 3000 -RA BR SCT030
                       BKN100=
202006021101 TAF VIDP 021101Z 0212/0221 29008KT 4000 HZ FEW030 SCT100
                      BECMG 0214/0217 23015G25 2500 HZ DS TSRA
                       SCT030 FEW040CB BKN100
                      BECMG 0220/0221 27008KT 3000 -RA BR SCT030
                       BKN100=
202006020800 TAF VIDP 020800Z 0209/0218 27008KT 4500 HZ FEW040 SCT100
                      TEMPO 0210/0214 25015G25KT 1500 TSRA SCT035
                       FEW040CB BKN100
                      BECMG 0215/0217 29008KT 2500 HZ FEW040 SCT100=
202006020501 TAF VIDP 020501Z 0206/0215 09007KT 4500 HZ FEW040 SCT100
                      TEMPO 0208/0212 25015G25KT 1500 TSRA SCT030
                       FEW040CB BKN100
                      BECMG 0214/0215 29008KT 3000 HZ FEW040 SCT100=
202006012000 TAF VIDP 012000Z 0121/0206 24004KT 3000 HZ BR FEW035 SCT100
                      TEMPO 0121/0203 FEW040CB
                      BECMG 0200/0202 2000 BR
                      BECMG 0204/0205 3500 HZ BR=
202006011700 TAF VIDP 011700Z 0118/0203 04004KT 3500 HZ FEW035 SCT100
                      TEMPO 0121/0203 FEW040CB
                      BECMG 0200/0202 24005KT 2000 BR=
202006011400 TAF VIDP 011400Z 0115/0124 11008G18KT 4000 HZ FEW035 SCT100
                      TEMPO 0118/0122 22010G20KT 2000 -TSRA SCT030
                       FEW040CB BKN100
                      BECMG 0123/0124 14010KT 2500 HZ FEW040 SCT100=
202006010800 TAF VIDP 010800Z 0109/0118 29008KT 5000 HZ FEW035 SCT100
                      BECMG 0110/0118 32010G20KT 3000 HZ -TSRA
                       FEW040CB BKN090=
202006010500 TAF VIDP 010500Z 0106/0115 11005KT 3500 HZ FEW100
                      BECMG 0108/0110 29008KT 5000 HZ FEW035 SCT100
                       BECMG 0110/0115 32010G20KT 3000 HZ -TSRA
                       FEW040CB BKN090=
202006010200 TAF VIDP 010200Z 0103/0112 09006KT 2500 BR FEW030 SCT100
                      BECMG 0107/0112 29010G20KT 3500 HZ TSRA SCT030
                       FEW040CB BKN100=

###################################
#  large TAF from VIDP
###################################
202006302300 TAF VIDP 302300Z 0100/0206 09005KT 2500 HZ FEW035
                      BECMG 0103/0105 12006KT 3500 HZ SCT035 SCT100
                       BECMG 0106/0108 27008KT 5000 HZ
                      BECMG 0109/0115 24015G25KT 1500 DS TS FEW040CB
                       BKN080
                      BECMG 0121/0123 11005KT 2500 HZ FEW100
                      BECMG 0203/0205 14008KT 3500 HZ -RA SCT035
                       SCT090=
202006301700 TAF VIDP 301700Z 3018/0124 11005KT 3500 HZ FEW100
                      BECMG 3021/3023 14007KT 2500 HZ FEW035 SCT100
                       BECMG 3023/0103 FEW040CB
                      BECMG 0104/ 0106 26008KT 3500 HZ SCT035 SCT100
                       BECMG 0110/0115 24015G25KT 1500 DS TS FEW040CB
                       BKN080
                      BECMG 0120/0122 VRB02KT 2500 HZ FEW035 SCT100=
202006301100 TAF VIDP 301100Z 3012/0118 11008KT 3500 HZ FEW040 SCT100
                      BECMG 3012/3015 FEW040CB
                      BECMG 3018/3020 14007KT 2500 HZ
                      TEMPO 3023/0102 FEW040CB
                      BECMG 0104/0106 25007KT 3500 HZ SCT040 SCT100
                       BECMG 0110/0115 1500 DS TS FEW040CB BKN080
                       BECMG 0115/0117 VRB02KT 2500 HZ FEW040 SCT100=
202006300500 TAF VIDP 300500Z 3006/0112 09008KT 3500 HZ SCT035 BKN100
                      TEMPO 3006/3010 1500 -TSRA FEW040CB
                      BECMG 3015/3017 2500 HZ SCT100
                      BECMG 0101/0103 15008KT 3500 HZ FEW040 SCT100
                       BECMG 0111/0115 1500 -TSRA SCT035 FEW040CB
                       BKN100=
202006292300 TAF VIDP 292300Z 3000/0106 13006KT 1500 BR FEW035 SCT100
                      TEMPO 3000/3003 FEW040CB
                      BECMG 3004/3006 33008KT 3500 HZ SCT100
                      BECMG 3007/3009 4500 HZ
                      TEMPO 3009/3015 FEW035 SCT100 FEW040CB
                      BECMG 3017/3019 13008KT 2500 HZ SCT100
                      TEMPO 3021/0103 FEW035 SCT100 FEW040CB
                      BECMG 0100/0102 1500 HZ BR
                      BECMG 0104/0105 30008KT 3000 HZ=
202006291700 TAF VIDP 291700Z 2918/3024 18006KT 2800 HZ FEW035 SCT100
                      TEMPO 2922/3003 FEW040CB
                      BECMG 3000/3002 1500 HZ BR
                      BECMG 3004/3006 33008KT 3500 HZ SCT100
                      BECMG 3007/3009 4500 HZ
                      TEMPO 3009/3015 FEW035 SCT100 FEW040CB
                      BECMG 3017/3019 13008KT 2500 HZ SCT100
                      TEMPO 3021/3024 FEW035 SCT090 FEW040CB=
202006291100 TAF VIDP 291100Z 2912/3018 34006G16KT 2000 -TSRA SCT035 FEW040CB
                       BKN100
                      BECMG 2916/2922 32008KT 2000 -TSRA SCT035
                       FEW040CB BKN100
                      BECMG 3002/3006 33008G18KT 3000 HZ SCT035
                       BKN100
                      BECMG 3009/3012 31008G18KT 2000 -TSRA SCT035
                       FEW040CB BKN100
                      BECMG 3015/3018 29010KT 2500 HZ SCT035 BKN100=
202006290501 TAF VIDP 290501Z 2906/3012 27010KT 5000 HZ FEW035 SCT100
                      TEMPO 2909/2914 32015G25KT 1500 -TSRA SCT030
                       FEW035CB BKN090
                      BECMG 2918/2920 25006KT 3000 HZ SCT035 SCT100
                       BECMG 2923/3001 29005KT 2000 HZ FEW100
                      BECMG 3003/3005 26008KT 3500 HZ FEW035 SCT100
                       BECMG 3006/3008 32010KT 5000 HZ SCT035 SCT090
                       TEMPO 3008/3012 FEW035CB=
202006290500 TAF VIDP 290500Z 2906/3012 27010KT 5000 HZ FEW035 SCT100
                      TEMPO 2909/2914 32015G25KT 1500 -TSRA SCT030
                       FEW035CB BKN090
                      BECMG 2918/2920 25006KT 3000 HZ SCT035 SCT100
                       2923/3001 29005KT 2000 HZ FEW100
                      BECMG 3003/3005 26008KT 3500 HZ FEW035 SCT100
                       BECMG 3006/3008 32010KT 5000 HZ SCT035 SCT090
                       TEMPO 3008/3012 FEW035CB=
202006282300 TAF VIDP 282300Z 2900/3006 29006KT 2000 HZ SCT040 BKN100
                      BECMG 2905/2907 3500 HZ SCT030 BKN090
                      TEMPO 2908/2915 29020G30KT 1500 TSRA FEW040CB
                       BECMG 2920/2922 23006KT 2500 HZ SCT035 BKN100
                       BECMG 2923/3001 13010KT 2000 HZ
                      BECMG 3003/3005 05006KT 3500 HZ -RA=
202006281700 TAF VIDP 281700Z 2818/2924 23006KT 2200 HZ SCT040 BKN100
                      BECMG 2900/2902 29008KT 2000 HZ
                      BECMG 2905/2907 3500 HZ SCT030 BKN090
                      TEMPO 2908/2915 29020G30KT 1500 TSRA FEW040CB
                       BECMG 2920/2922 23006KT 2500 SCT035 BKN100=
202006281101 TAF VIDP 281101Z 2812/2918 28012G22KT 3000 DU SCT040 BKN100
                      TEMPO 2812/2815 FEW040CB
                      BECMG 2817/2819 23006KT 2500 HZ
                      TEMPO 2821/2903 FEW040CB
                      BECMG 2900/2902 27004KT 2000 HZ BR
                      BECMG 2904/2906 29008KT 2500 HZ SCT035 BKN090
                       BECMG 2907/2909 27008KT 3500 HZ SCT030 BKN090
                       TEMPO 2909/2915 23010G25KT 1500 TSRA FEW040CB
                       OVC080=
202006281100 TAF VIDP 281100Z 2812/2918 28012G22KT 3000 DU SCT040 BKN100
                      BECMG 2817/2819 23006KT 2500 HZ
                      TEMPO 2812/2815 FEW040CB
                      TEMPO 2821/2903 FEW040CB
                      BECMG 2900/2902 27004KT 2000 HZ BR
                      BECMG 2904/2906 29008KT 2500 HZ SCT035 BKN090
                       BECMG 2907/2909 27008KT 3500 HZ SCT030 BKN090
                       TEMPO 2909/2915 23010G25KT 1500 TSRA FEW040CB
                       OVC080=
202006280500 TAF VIDP 280500Z 2806/2912 27010G20KT 3500 BLDU FEW040 SCT100
                      TEMPO 2810/2815 FEW040CB
                      BECMG 2817/2819 18008KT 2500 HZ
                      TEMPO 2821/2903 FEW040CB
                      BECMG 2900/2902 26004KT 1800 HZ BR
                      BECMG 2904/2906 32008KT 2500 HZ SCT035 BKN090
                       BECMG 2907/2909 26008KT 3500 HZ SCT030 BKN090
                       TEMPO 2909/2912 24010G25KT 1000 TSRA FEW040CB
                       OVC080=
202006272300 TAF VIDP 272300Z 2800/2906 29005KT 2500 HZ FEW040 SCT100
                      BECMG 2805/2807 29005G15KT 3500 HZ -RA SCT035
                       BKN100
                      TEMPO 2812/2818 09010G20KT 2000 -TSRA SCT030
                       FEW035CB BKN090
                      BECMG 2820/2822 09006KT 3000 HZ -RA SCT035
                       BKN090
                      TEMPO 2821/2903 2000 TSRA SCT030 FEW035CB
                       OVC080
                      BECMG 2904/2906 15010KT 3000 HZ SCT040 BKN090=
202006271700 TAF VIDP 271700Z 2718/2824 23004KT 2800 HZ SCT100
                      BECMG 2800/2802 29005KT 2000 HZ FEW040 SCT100
                       BECMG 2805/2807 29005G15KT 3500 HZ -RA SCT035
                       BKN100
                      TEMPO 2812/2818 09010G20KT 2000 -TSRA SCT030
                       FEW035CB BKN090
                      BECMG 2820/2922 09006KT 3000 HZ -RA SCT040
                       BKN090=
202006271100 TAF VIDP 271100Z 2712/2818 27008G18KT 3000 BLDU SCT040 BKN100
                      BECMG 2716/2718 22008KT 2000 DU FEW040 SCT100
                       TEMPO 2800/2804 29008G18KT 1500 TSRA SCT030
                       FEW040CB BKN080
                      BECMG 2805/2807 3000 HZ SCT030 BKN100
                      TEMPO 2810/2815 18008G18KT 1500 TSRA FEW035CB=
202006270500 TAF VIDP 270500Z 2706/2812 26010G20KT 3000 HZ SCT035 BKN100
                      BECMG 2709/2712 29020G30KT 2000 HZ TSRA FEW040CB
                       BECMG 2714/2716 26008KT 4000 HZ SCT035 BKN100
                       BECMG 2720/2722 26008G18KT 3500 HZ
                      BECMG 2723/2803 27010KT 3000 HZ -RA SCT030
                       BKN090
                      TEMPO 2805/2810 29015G25KT 2000 HZ TSRA FEW040CB=
202006262300 TAF VIDP 262300Z 2706/2806 23005KT 2000 HZ FEW035 SCT100
                      BECMG 2703/2705 26008KT 3500 HZ
                      BECMG 2706/2708 29010KT 5000 HZ SCT035 SCT100
                       TEMPO 2709/2715 32015G25KT 1500 TSRA FEW035CB
                       BKN090
                      BECMG 2715/2717 26005KT 3000 HZ FEW035 SCT100
                       BECMG 2721/2723 32008KT 2000 -RA BR SCT035
                       SCT090
                      BECMG 2803/2805 29006KT 3500 HZ=
202006261700 TAF VIDP 261700Z 2618/2724 25006KT 3500 HZ FEW035 SCT100
                      BECMG 2620/2622 29005KT 2500 HZ SCT035 SCT100
                       TEMPO 2623/2704 15015G25KT 1500 TSRA FEW035CB
                       BKN090
                      BECMG 2706/2708 29010KT 4000 HZ SCT035 BKN100
                       TEMPO 2709/2715 32015G25KT 1500 TSRA FEW035CB
                       OVC080
                      BECMG 2715/2717 26005KT 3000 HZ FEW035 SCT100
                       BECMG 2720/2722 32008KT 2000 -RA BR=
202006261400 TAF VIDP 261400Z 2615/2624 22008KT 4000 HZ SCT035 SCT100
                      TEMPO 2616/2620 1500 -TSRA SCT035 FEW035CB
                       BKN100
                      BECMG 2621/2623 06005KT 3000 HZ=
202006261100 TAF VIDP 261100Z 2612/2718 13008G18KT 4000 HZ SCT035 BKN100
                      TEMPO 2614/2618 1500 -TSRA FEW035CB
                      BECMG 2622/2624 04005KT 2500 HZ -RA
                      BECMG 2702/2704 29010G20KT 4000 HZ FEW040
                       SCT100
                      TEMPO 2711/2715 1500 -TSRA SCT030 FEW040CB
                       BKN100=
202006260500 TAF VIDP 260500Z 2606/2712 26005KT 2500 BR -RA FEW035 SCT100
                      BECMG 2607/2609 35008G18KT 5000 HZ SCT030
                       BKN100
                      TEMPO 2610/2615 14015G25KT 1500 TSRA FEW040CB
                       BKN090
                      BECMG 2618/2620 25006KT 2500 BR -RA FEW035
                       SCT100
                      BECMG 2623/2701 29005KT 2500 HZ BR
                      BECMG 2703/2705 29008G18KT 3500 BR HZ SCT035
                       SCT100
                      TEMPO 2708/2712 12010G25KT 1500 TSRA FEW035CB
                       BKN090=
202006252300 TAF VIDP 252300Z 2600/2706 00000KT 1800 BR -RA SCT030 BKN090
                      TEMPO 2600/2603 24015G25KT 1000 TSRA FEW035CB
                       OVC080
                      BECMG 2604/2606 32008KT 3500 HZ FEW035 SCT090
                       BECMG 2607/2609 35008G18KT 5000 HZ SCT030
                       BKN090
                      TEMPO 2608/2615 35015G25KT 1000 TSRA FEW035CB
                       OVC080
                      BECMG 2617/2619 25006KT 2500 BR -RA FEW035
                       SCT100
                      BECMG 2700/2702 1800 BR
                      BECMG 2704/2705 30008G18KT 3500 BR HZ SCT030
                       BKN090=
202006251700 TAF VIDP 251700Z 2518/2624 24004KT 3000 HZ BR FEW035 SCT100
                      TEMPO 2520/2603 24015G25KT 1000 TSRA SCT030
                       FEW035CB OVC080
                      BECMG 2600/2602 29008KT 2000 BR -RA
                      BECMG 2604/2606 3500 HZ FEW035 SCT090
                      BECMG 2607/2609 35008G18KT 5000 HZ SCT030
                       BKN090
                      TEMPO 2608/2615 35015G25KT 1000 TSRA FEW035CB
                       OVC080
                      BECMG 2617/2619 25006KT 2500 BR -RA FEW035
                       SCT100=
202006251100 TAF VIDP 251100Z 2512/2618 09008KT 3500 HZ SCT035 SCT100 2515/2602
                       14008G18KT 2000 -TSRA SCT030 FEW040CB BKN090
                       BECMG 2604/2606 11008G18KT 4000 HZ FEW035
                       SCT100
                      BECMG 2609/2614 14015G25KT 1500 TSRA SCT030
                       FEW040CB OVC080
                      BECMG 2615/2617 09006KT 3000 HZ -RA SCT035
                       SCT100=
202006250500 TAF VIDP 250500Z 2506/2612 26005KT 3500 HZ FEW035 SCT100
                      BECMG 2507/2509 09010KT 5000 HZ SCT035 BKN100
                       TEMPO 2510/2515 14015G25KT 1500 TSRA FEW040CB
                       BKN090
                      BECMG 2518/2520 3500 HZ -RA FEW035 SCT100
                       BECMG 2523/2601 29005KT 2500 HZ BR
                      BECMG 2603/2605 29008G18KT 3500 HZ SCT035
                       SCT100
                      TEMPO 2608/2612 12010G25KT 1500 TSRA FEW035CB
                       BKN090=
202006242300 TAF VIDP 242300Z 2500/2606 27005KT 2500 BR FEW035 SCT100
                      BECMG 2504/2506 12006KT 3000 HZ SCT035 BKN100
                       BECMG 2507/2509 09010KT 4000 HZ SCT035 OVC090
                       TEMPO 2510/2516 14015G25KT 1500 TSRA FEW040CB
                       BECMG 2518/2520 09006KT 3500 HZ -RA SCT035
                       BKN100
                      BECMG 2523/2601 29006KT 3000 BR
                      BECMG 2603/2605 29008G18KT 3500 HZ=
202006241700 TAF VIDP 241700Z 2418/2524 13006KT 3500 HZ FEW040 SCT100
                      BECMG 2423/2503 15008G18KT 2000 -TSRA SCT030
                       FEW040CB BKN090
                      BECMG 2504/2506 12006KT 3000 HZ SCT035 SCT100
                       BECMG 2506/2508 11010KT 4000 HZ FEW035 SCT100
                       BECMG 2509/2515 14015G25KT 1500 TSRA SCT030
                       FEW040CB OVC080
                      BECMG 2518/2520 09006KT 3000 HZ -RA SCT035
                       SCT100=
202006241100 TAF VIDP 241100Z 2412/2518 09008KT 3500 HZ SCT035 SCT100
                      BECMG 2415/2502 14008G18KT 2000 -TSRA SCT030
                       FEW040CB BKN090
                      BECMG 2504/2506 11008G18KT 4000 HZ FEW035
                       SCT100
                      BECMG 2509/2514 14015G25KT 1500 TSRA SCT030
                       FEW040CB VC080
                      BECMG 2515/2517 09006KT 3000 HZ -RA SCT035
                       SCT100=
202006240500 TAF VIDP 240500Z 2406/2512 11008KT 4000 HZ SCT035 FEW040CB BKN100
                       BECMG 2407/2410 12008G18KT 2500 -TSRA SCT035
                       FEW040CB OVC090
                      TEMPO 2411/2413 13010G20KT 2000 TSRA SCT035
                       FEW040CB BKN100
                      BECMG 2415/2502 14008G18KT 2000 -TSRA SCT035
                       FEW040CB BKN100
                      BECMG 2504/2508 11008G18KT 2500 -TSRA SCT035
                       FEW040CB SCT100
                      BECMG 2510/2515 10008G18KT 2500 -TSRA SCT035
                       FEW040CB BKN100=
202006232300 TAF VIDP 232300Z 2400/2506 15008KT 2200 BR -RA SCT035 BKN090
                      BECMG 2404/2406 09008G18KT 3500 HZ -RA SCT040
                       BKN100
                      BECMG 2410/2416 2000 -TSRA SCT030 FEW035CB
                       OVC090
                      BECMG 2420/2422 11008KT 3000 HZ SCT040 SCT100
                       BECMG 2400/2402 23006KT 2000 BR RA SCT035
                       BKN090
                      BECMG 2403/2405 3000 BR -RA SCT030 BKN080=
202006231700 TAF VIDP 231700Z 2318/2424 11006KT 3000 HZ FEW040 SCT100
                      BECMG 2400/2402 18006KT 2500 HZ -RA SCT040
                       BKN100
                      BECMG 2405/2407 11008G18KT 3500 HZ SCT035
                       BKN090
                      BECMG 2410/2416 2000 -TSRA SCT030 FEW035CB
                       OVC090
                      BECMG 2420/2422 11008KT 3000 HZ SCT040 SCT100=
202006231100 TAF VIDP 231100Z 2312/2418 09008G18KT 3500 HZ SCT035 BKN100
                      BECMG 2314/2322 10008G18KT 2000 -TSRA SCT035
                       FEW040CB BKN090
                      BECMG 2402/2406 11008G18KT 3000 -TSRA SCT035
                       FEW040CB BKN100
                      BECMG 2410/2415 12008G18KT 2000 -TSRA SCT035
                       FEW040CB BKN100=
202006230500 TAF VIDP 230500Z 2306/2412 12008KT 3500 HZ SCT035 SCT100
                      BECMG 2307/2310 13010KT 3000 HZ SCT035 SCT100
                       TEMPO 2311/2313 1408G18KT 2000 TSRA SCT035
                       FEW040CB BKN100
                      BECMG 2315/2402 11006KT 2000 -TSRA SCT035
                       FEW040CB SCT100
                      BECMG 2404/2408 11008G18KT 2500 -TSRA SCT035
                       FEW040CB SCT100
                      BECMG 2410/2415 10008G18KT 2500 -TSRA SCT035
                       FEW040CB BKN100=
202006222300 TAF VIDP 222300Z 2300/2406 09005KT 2000 HZ FEW035
                      BECMG 2304/2306 14008KT 3500 HZ FEW035 SCT100
                       BECMG 2306/2308 29010KT 5000 HZ SCT035 SCT090
                       BECMG 2309/2315 15010G25KT 1500 -TSRA FEW040CB
                       BKN090
                      BECMG 2323/2401 11005KT 2500 HZ BR FEW035
                       SCT100
                      BECMG 2402/2406 1500 -TSRA SCT030 FEW040CB
                       BKN090=
202006221700 TAF VIDP 221700Z 2218/2324 09005KT 3000 HZ FEW035
                      BECMG 2223/2303 1500 -TSRA FEW040CB BKN090
                       BECMG 2304/2306 12008KT 3500 HZ SCT035 SCT100
                       BECMG 2306/2308 29010KT 5000 HZ
                      BECMG 2309/2315 15010G25KT 1500 TSRA FEW040CB
                       BKN090
                      BECMG 2318/2320 11006KT 2500 HZ FEW035=
202006221100 TAF VIDP 221100Z 2212/2318 34008KT 4000 HZ FEW035
                      TEMPO 2213/2215 FEW040CB SCT100
                      BECMG 2218/2220 14008KT 2500 HZ BR FEW040
                       SCT100
                      TEMPO 2223/2303 1500 -TSRA FEW040CB BKN080
                       BECMG 2304/2306 14005G15KT 4000 HZ SCT030
                       BKN100
                      BECMG 2308/2314 15010G25KT 1500 TSRA FEW040CB
                       BKN080
                      BECMG 2315/2317 11008KT 2500 HZ BR=
202006220500 TAF VIDP 220500Z 2206/2312 32005G15KT 3500 HZ SCT035 SCT100
                      BECMG 2208/2210 5000 HZ
                      TEMPO 2211/2215 32010G20KT 2000 -TSRA SCT030
                       FEW035CB BKN080
                      BECMG 2220/2222 15006KT 2500 HZ BR
                      TEMPO 2223/2303 1500 -TSRA SCT030 FEW035CB
                       BKN080
                      BECMG 2306/2308 13008KT 3500 HZ SCT040 BKN100=
202006212300 TAF VIDP 212300Z 2200/2306 29015G25KT 1800 BR SCT035 FEW040CB BKN100
                       TEMPO 2200/2203 29025G35KT 0800 DS TSRA
                       SCT030 FEW035CB OVC080
                      BECMG 2204/2206 32008KT 2500 HZ
                      BECMG 2207/2209 3500 HZ SCT035 BKN090
                      TEMPO 2208/2214 24015G25KT 1000 DS TSRA FEW040CB
                       OVC080
                      BECMG 2217/2219 15008KT 2500 HZ BR FEW035
                       SCT100
                      BECMG 2304/2305 3500 HZ SCT035 BKN090=
202006211700 TAF VIDP 211700Z 2118/2224 12004KT 3000 HZ FEW035 SCT100
                      TEMPO 2121/2203 FEW040CB
                      BECMG 2200/2202 1800 BR
                      BECMG 2204/2206 32008KT 2500 HZ
                      BECMG 2208/2210 3500 HZ SCT035 BKN090
                      TEMPO 2208/2214 24015G25KT 1000 DS TSRA FEW040CB
                       OVC080
                      BECMG 2217/2219 15008KT 2500 HZ BR FEW035
                       SCT100=
202006211100 TAF VIDP 211100Z 2112/2218 09005KT 3500 HZ FEW040 SCT100
                      TEMPO 2113/2117 32010G20KT 2000 -TSRA SCT035
                       FEW040CB BKN090
                      BECMG 2118/2120 29004KT 2500 HZ SCT040 BKN100
                       TEMPO 2123/2203 FEW035CB
                      BECMG 2205/2207 11008KT 3500 HZ -RA
                      BECMG 2210/2212 2500 -TSRA SCT035 FEW040CB
                       BKN090=
202006210500 TAF VIDP 210500Z 2106/2212 23006KT 3500 HZ SCT035 BKN090
                      TEMPO 2109/2115 32020G30KT 1500 TSRA SCT035
                       FEW040CB OVC080
                      BECMG 2117/2119 14008KT 2500 HZ -RA SCT030
                       BKN090
                      BECMG 2119/2121 12006KT HZ -RA
                      BECMG 2204/2206 32010KT 3500 HZ
                      TEMPO 2209/2212 FEW040CB=
202006202300 TAF VIDP 202300Z 2100/2206 30008KT 2000 BR -RA SCT030 FEW040CB
                       BKN090
                      BECMG 2104/2106 29010KT 3000 HZ SCT030 BKN090
                       BECMG 2108/2112 26020G30KT 1200 DS TSRA
                       FEW040CB
                      BECMG 2115/2117 13008KT 2500 HZ -RA SCT030
                       BKN090
                      BECMG 2119/2121 10006KT 3000 HZ
                      BECMG 2123/2203 13008KT 2500 HZ -RA
                      BECMG 2204/2206 29010KT 3500 HZ=
202006201700 TAF VIDP 201700Z 2018/2124 32006KT 2500 HZ SCT035 OVC100
                      BECMG 2019/2102 26015G25KT 1500 TSRA FEW040CB
                       BECMG 2104/2106 29008KT 3000 HZ SCT035 OVC100
                       BECMG 2108/2112 26015G25KT 1200 SD TSRA
                       FEW040CB
                      BECMG 2115/2117 13008KT 2500 HZ -RA SCT030
                       BKN090
                      BECMG 2119/2121 10006KT 3000 HZ=
202006201100 TAF VIDP 201100Z 2012/2118 23006KT 3500 HZ SCT035 SCT100
                      TEMPO 2012/2015 23010G25KT 1000 DS TS SCT035
                       FEW040 OVC080
                      BECMG 2017/2019 32006KT 2500 HZ SCT035 BKN090
                       TEMPO 2022/2103 24015G25KT 1200 TSRA FEW040CB
                       OVC080
                      BECMG 2104/2106 29008KT 3000 HZ FEW035 SCT090
                       BECMG 2108/2110 4000 HZ SCT035 BKN100
                      TEMPO 2109/2115 FEW040CB
                      BECMG 2115/2117 27008KT 3000 HZ FEW035 SCT100=
202006200500 TAF VIDP 200500Z 2006/2112 32008KT 3000 HZ FEW035 SCT100
                      TEMPO 2010/2015 FEW040CB
                      BECMG 2008/2010 4000 HZ
                      BECMG 2017/2019 23008KT 2500 HZ DU SCT035
                       BKN090
                      TEMPO 2022/2103 24015G25KT 1200 TSRA FEW040CB
                       OVC080
                      BECMG 2104/2106 32008KT 3000 HZ FEW035 SCT090
                       BECMG 2108/2110 4000 HZ SCT035 BKN090
                      TEMPO 2109/2112 FEW040CB=
202006191700 TAF COR VIDP 191700Z 1918/2024 09008KT 2800 HZ FEW100
                      TEMPO 1921/2002 25010G20KT 1500 -TSRA SCT035
                       FEW040CB BKN090
                      BECMG 2005/2007 11008KT 3500 HZ SCT040 BKN100
                       TEMPO 2011/2015 2000 -TSRA SCT035 FEW040CB
                       BKN090
                      BECMG 2019/2021 27005KT 3000 HZ SCT040 SCT100=
202006191100 TAF VIDP 191100Z 1912/2018 32006KT 2500 DU HZ FEW035 SCT100
                      TEMPO 1912/1915 FEW040CB
                      BECMG 2000/2002 09006KT 1800 HZ BR SCT100
                       BECMG 2004/2006 35008KT 3000 HZ
                      BECMG 2008/2010 4000 HZ SCT035 BKN090
                      TEMPO 2009/2015 FEW040CB
                      BECMG 2015/2017 26008KT 3000 HZ FEW035 SCT100=
202006190500 TAF VIDP 190500Z 1906/2012 27005KT 3000 BLDU NSC
                      BECMG 1910/1912 29008G18KT 3000 BLDU FEWO40
                       SCT100
                      BECMG 1915/1923 30008KT 3000 HZ FEW040 SCT100
                       BECMG 2003/2006 29008KT 3500 HZ NSC
                      BECMG 2010/2012 26008KT 3000 BLDU FEW040
                       SCT100=
202006181700 TAF VIDP 181700Z 1818/1924 11008KT 3500 HZ FEW100
                      BECMG 1823/1901 3210G20KT 2000 DU HZ FEW035
                       SCT100
                      BECMG 1904/1906 29010KT 4000 HZ DU
                      TEMPO 1909/1914 1500 TSRA SCT030 FEW035CB
                       BKN090
                      BECMG 1915/1917 26005KT 3000 SCT100
                      BECMG 1922/1924 32008KT 2000 -RA HZ SCT030
                       BKN090=
202006181100 TAF VIDP 181100Z 1812/1918 29010KT 4000 HZ FEW100
                      BECMG 1818/1820 22006KT 3000 HZ
                      BECMG 1823/1901 32010G20KT 2000 HZ DU SCT100
                       BECMG 1904/1906 28008G18KT 4000 HZ DU FEW040
                       SCT100
                      TEMPO 1909/1912 FEW040CB
                      BECMG 1915/1917 29008KT 3000 HZ=
202006180500 TAF VIDP 180500Z 1806/1912 23005KT 4000 HZ FEW040 SCT100
                      BECMG 1810/1812 22010G20KT 3000 BLDU
                      BECMG 1818/1820 25008KT 2500 HZ
                      TEMPO 1823/1903 FEW030CB
                      BECMG 1904/1906 28008KT 3500 BLDU SCT030
                       BKN100=
202006172300 TAF VIDP 172300Z 1800/1906 18008KT 2000 HZ BR FEW100
                      BECMG 1804/1806 29008KT 3500 HZ NSC
                      BECMG 1808/1810 30008G18KT 4500 HZ
                      BECMG 1817/1819 25008KT 3000 HZ FEW100
                      BECMG 1900/1902 2000 HZ BR
                      BECMG 1904/1905 13008KT 3500 HZ FEW040 SCT100=
202006171700 TAF VIDP 171700Z 1718/1824 15009KT 3500 HZ FEW100
                      BECMG 1800/1802 2000 HZ BR
                      BECMG 1804/1806 29008KT 3500 HZ NSC
                      BECMG 1808/1810 30008G18KT 4500 HZ
                      BECMG 1817/1819 25008KT 3000 HZ FEW100=
202006171100 TAF COR VIDP 171100Z 1712/1818 07008GKT 5000 HZ SCT030 SCT100
                      BECMG 1718/1720 13008G18KT 2500 DU
                      TEMPO 1723/1803 FEW030CB
                      BECMG 1804/1806 10010G20KT 2500 BLDU SCT040
                       TEMPO 1810/1814 FEW040CB
                      BECMG 1815/1817 11008KT 2000 DU SCT100=
202006170500 TAF VIDP 170500Z 1706/1812 11008KT 4000 HZ FEW100
                      BECMG 1708/1710 14010KT 5000 HZ FEW035 SCT100
                       BECMG 1709/1714 24020G30KT 1500 TS DS FEW040CB
                       BKN090
                      BECMG 1718/1720 11005KT 3500 HZ SCT100
                      BECMG 1800/1802 09005KT 2500 HZ FEW100
                      BECMG 1804/1806 06008KT 4000 HZ
                      BECMG 1808/1812 FEW040CB=
202006162300 TAF VIDP 162300Z 1700/1806 13005G15KT 2500 HZ FEW100
                      BECMG 1704/1706 4500 HZ FEW040 SCT100
                      BECMG 1708/1714 23020G30KT 2000 TS DS FEW040CB
                       BKN090
                      BECMG 1718/1720 11010KT 3000 HZ SCT100
                      BECMG 1803/1805 13008KT 4000 HZ FEW040 SCT100=
202006161700 TAF VIDP 161700Z 1618/1724 11006KT 3000 HZ SCT100
                      BECMG 1704/1706 14008KT 4500 HZ FEW040 SCT100
                       BECMG 1708/1714 23020G30KT 2000 TS DS FEW040CB
                       BKN090
                      BECMG 1718/1720 09006KT 3000 HZ SCT100=
202006161100 TAF VIDP 161100Z 1612/1718 07006KT 4000 HZ SCT035 SCT100
                      BECMG 1612/1616 32015G25KT 1500 TSRA SCT030
                       FEW040CB BKN090
                      BECMG 1620/1622 12005KT 2500 HZ FEW035 SCT100
                       BECMG 1703/1705 09006KT 3500 HZ FEW100
                      BECMG 1706/1708 29008KT 5000 HZ SCT035 SCT100
                       BECMG 1709/1714 FEW040CB=
202006160500 TAF VIDP 160500Z 1606/1712 16006KT 4000 HZ FEW040 SCT100
                      BECMG 1609/1615 15010G20KT 3000 HZ SCT035
                       FEW035CB BKN100
                      BECMG 1615/1617 09008KT HZ
                      BECMG 1702/1705 13006KT HZ SCT040 FEW100
                       BECMG 1705/1710 12008KT 5000 HZ=
202006152300 TAF VIDP 152300Z 1600/1706 23003KT 2500 HZ FEW100
                      BECMG 1605/1607 09007KT 4000 HZ FEW040 SCT100
                       TEMPO 1609/1613 FEW035CB
                      BECMG 1618/1620 27004KT 3000 HZ
                      BECMG 1700/1702 VRB02KT 2000 HZ SCT100
                      BECMG 1704/1706 11008KT 3500 HZ SCT035 BKN100=
202006151700 TAF VIDP 151700Z 1518/1624 11004KT 3500 HZ FEW100
                      BECMG 1600/1602 23003KT 2500 HZ
                      BECMG 1605/1607 09007KT 4000 HZ FEW040 SCT100
                       TEMPO 1609/1613 FEW035CB
                      BECMG 1618/1620 27004KT 3000 FEW100=
202006151100 TAF VIDP 151100Z 1512/1618 32008KT 4500 HZ SCT040 SCT100
                      BECMG 1515/1518 26006KT 3500 HZ SCT035 SCT100
                       BECMG 1518/1522 24006KT 3000 HZ FEW040 BKN100
                       BECMG 1600/1603 28007KT 3500 HZ SCT040 SCT100
                       BECMG 1606/1609 30008KT 5000 HZ SCT040 FEW035CB
                       SCT100
                      BECMG 1612/1615 27006KT 3500 HZ SCT040 BKN100=
202006150500 TAF VIDP 150500Z 1506/1612 29005G15KT 5000 HZ FEW100
                      BECMG 1509/1515 FEW040CB SCT100
                      BECMG 1515/1517 VRB02KT 3000 HZ
                      BECMG 1604/1606 27008KT 4000 HZ SCT100
                      TEMPO 1609/1612 FEW040CB=
202006141700 TAF VIDP 141700Z 1418/1524 14004KT 5000 HZ SCT100
                      BECMG 1500/1502 VRB02KT 1500 HZ FEW100
                      BECMG 1504/1506 32008KT 3500 HZ FEW035 SCT100
                       BECMG 1507/1509 29010KT 5000 HZ SCT035 BKN100
                       BECMG 1509/1515 FEW040CB BKN090
                      BECMG 1515/1517 VRB02KT 3000 HZ SCT100
                      BECMG 1521/1523 00000KT 2000 HZ=
202006141100 TAF VIDP 141100Z 1412/1518 34006KT 4000 HZ SCT035 SCT100
                      TEMPO 1412/1415 FEW040CB
                      BECMG 1418/1420 14005KT 2500 HZ SCT100
                      BECMG 1500/1502 VRB02KT 1500 HZ FEW100
                      BECMG 1504/1506 32007KT 3500 HZ FEW040
                      BECMG 1509/1515 FEW040CB SCT100
                      BECMG 1515/1517 VRB02KT 2500 HZ=
202006140500 TAF VIDP 140500Z 1406/1512 13008KT 3500 HZ FEW035 SCT100
                      TEMPO 1410/1413 27010G25KT 2000 -TSRA BLDU
                       SCT035 FEW035CB
                      BECMG 1418/1420 23005KT 3000 HZ FEW040 SCT100
                       BECMG 1500/1502 VRB02KT 2000 HZ FEW100
                      BECMG 1504/1506 27006KT 3200 HZ
                      TEMPO 1509/1512 FEW035CB=
202006132300 TAF VIDP 132300Z 1400/1506 VRB02KT 1800 HZ BR FEW040 SCT100
                      TEMPO 1400/1403 FEW040CB
                      BECMG 1404/1406 35008KT 3500 HZ SCT100
                      BECMG 1408/1410 4500 HZ
                      TEMPO 1408/1413 FEW040CB
                      BECMG 1417/1419 VRB02KT 3000 HZ FEW100
                      BECMG 1500/1502 1800 HZ
                      BECMG 1504/1505 26005KT 3500 HZ FEW040 SCT100=
202006131739 TAF VIDP 1318/1424 VRB02KT 2800 HZ FEW040 SCT100
                      BECMG 1321/1403 FEW040CB
                      BECMG 1400/1402 1800 HZ BR
                      BECMG 1404/1406 35008KT 3500 HZ SCT100
                      BECMG 1408/1410 4500 HZ
                      TEMPO 1408/1413 FEW040CB
                      BECMG 1417/1419 VRB02KT 3000 HZ FEW100=
202006131737 TAF VIDP 1318/1424 VRB02KT 2800 HZ FEW040 SCT100
                      BECMG 1321/1403 FEW040CB
                      BECMG 1400/1402 1800 HZ BR
                      BECMG 1404/1406 35008KT 3500 HZ SCT100
                      BECMG 1408/1410 4500 HZ
                      TEMPO 1408/1413 FEW040CB
                      BECMG 1417/1419 VRB02KT 3000 HZ FEW100=
202006131700 TAF VIDP 1318/1424 VRB02KT 2800 HZ FEW040 SCT100
                      BECMG 1321/1403 FEW040CB
                      BECMG 1400/1402 1800 HZ BR
                      BECMG 1404/1406 35008KT 3500 HZ SCT100
                      BECMG 1408/1410 4500 HZ
                      TEMPO 1408/1413 FEW040CB
                      BECMG 1417/1419 VRB02KT 3000 HZ FEW100=
202006131100 TAF VIDP 131100Z 1312/1418 11006KT 3000 HZ SCT035 BKN090
                      BECMG 1314/1316 32010G20KT 2000 -TSRA SCT030
                       FEW035CB BKN080
                      BECMG 1318/1320 21005KT 3000 HZ FEW040 SCT100
                       BECMG 1400/1402 15005KT 2000 HZ
                      BECMG 1405/1407 09008KT 3500 HZ SCT035 SCT100
                       BECMG 1409/1413 27010G25KT 1500 TSRA SCT035
                       FEW035CB BKN090=
202006130500 TAF VIDP 130500Z 1306/1412 12005KT 3500 HZ FEW100
                      BECMG 1308/1310 14005G15KT 4000 HZ FEW040
                       SCT100
                      TEMPO 1309/1315 15010G25KT 2000 TS BLDU FEW040CB
                       BKN100
                      BECMG 1318/1320 12006KT 3000 HZ FEW100
                      BECMG 1403/1405 13008KT 4000 HZ FEW100
                      BECMG 1405/1407 11005G15KT
                      TEMPO 1410/1412 FEW040CB=
202006122300 TAF VIDP 122300Z 1300/1406 09005KT 2200 HZ SCT100
                      BECMG 1304/1306 12005G15KT 4000 HZ FEW040
                       BECMG 1309/1315 15010G25KT 2000 TS BLDU
                       FEW040CB SCT100
                      BECMG 1318/1320 11008KT 3000 HZ FEW100
                      BECMG 1403/1405 13008KT 4000 HZ=
202006121700 TAF VIDP 121700Z 1218/1324 11005KT 3000 HZ FEW040 SCT100
                      TEMPO 1223/1301 FEW040 CB
                      BECMG 1304/1306 11005G15KT 4000 HZ FEW040
                       BECMG 1309/1315 TS FEW040 CB SCT100
                      BECMG 1315/1317 09005KT 3000 HZ FEW100=
202006121100 TAF VIDP 121100Z 1212/1318 05008G18KT 3000 DU FEW035 SCT100
                      TEMPO 1212/1215 32020G30KT 1000 DS TSRA FEW035
                       FEW040CB BKN100
                      BECMG 1217/1219 23006KT 2500 HZ
                      TEMPO 1221/1303 FEW040CB
                      BECMG 1305/1307 32008KT 3500 HZ FEW040 SCT100
                       TEMPO 1309/1315 FEW040CB
                      BECMG 1315/1317 26006KT 3500 HZ=
202006120500 TAF VIDP 120500Z 1206/1312 15008KT 2500 HZ FEW100
                      BECMG 1200/1210 29008KT 3500 HZ FEW035 SCT100
                       TEMPO 1210/1215 FEW040CB
                      BECMG 1217/1219 23006KT 2500 HZ
                      TEMPO 1221/1303 FEW040CB
                      BECMG 1305/1307 33008KT 3500 HZ FEW040 SCT100
                       TEMPO 1310/1312 FEW040CB=
202006112300 TAF VIDP 112300Z 1200/1306 25005KT 2800 HZ -RA SCT035 BKN100
                      BECMG 1205/1207 32007KT 4000 HZ SCT030 SCT100
                       TEMPO 1209/1213 15010G25KT 2500 TS BLDU
                       FEW035TCU BKN090
                      BECMG 1219/1221 13005G15KT 3000 HZ SCT035
                       BKN100
                      BECMG 1304/1306 13008KT 4000 HZ=
202006111700 TAF VIDP 111700Z 1118/1224 09003KT 3500 HZ SCT100
                      BECMG 1123/1201 25005KT 2500 HZ -RA SCT035
                       BKN100
                      BECMG 1205/1207 32007KT 4000 HZ SCT030 SCT100
                       TEMPO 1209/1213 15010G25KT 2500 TS BLDU
                       FEW035TCU BKN090
                      BECMG 1219/1221 13007KT 3000 HZ SCT035 BKN100=
202006111100 TAF VIDP 111100Z 1112/1218 30008KT 4500 HZ FEW035 SCT100
                      TEMPO 1112/1115 FEW040CB
                      BECMG 1117/1119 24006KT 3000 HZ
                      TEMPO 1121/1203 FEW040CB
                      BECMG 1200/1202 2000 HZ BR
                      BECMG 1204/1206 33008KT 3500 HZ
                      BECMG 1207/1209 4500 HZ
                      TEMPO 1209/1215 FEW040CB
                      BECMG 1215/1217 26006KT 3500 HZ=
202006110500 TAF VIDP 110500Z 1106/1212 29008KT 4000 HZ FEW100
                      BECMG 1110/1115 TS FEW040 FEW040CB SCT100
                       BECMG 1118/1120 27005KT 3000 HZ
                      BECMG 1204/1206 32008KT 4000 HZ FEW040 SCT100
                       TEMPO 1209/1212 FEW040CB=
202006102300 TAF VIDP 102300Z 1100/1206 VRB02KT 2500 HZ FEW035 SCT100
                      BECMG 1103/1105 26008KT 3500 HZ
                      BECMG 1106/1108 32010KT 5000 HZ SCT035 SCT090
                       BECMG 1109/ 1115 29015G25KT 1500 DS TSRA
                       SCT030 FEW040CB BKN080
                      BECMG 1115/1117 26005KT 3000 HZ SCT100
                      BECMG 1200/1202 VRB02KT 2500 HZ
                      BECMG 1204/1206 29008KT 3500 HZ FEW035 SCT100=
202006101700 TAF VIDP 101700Z 1018/1124 23006KT 3500 HZ -RA SCT035 SCT100
                      BECMG 1100/1102 VRB02KT 2500 HZ FEW100
                      BECMG 1103/1105 26008KT 3500 HZ FEW035 SCT100
                       BECMG 1106/1108 32010KT 5000 HZ
                      BECMG 1109/1115 29015G25KT 1500 DS TSRA SCT030
                       FEW040CB BKN080
                      BECMG 1115/1117 26005KT 3000 HZ SCT100
                      BECMG 1120/1122 VRB02KT 2500 BR FEW035=
202006101100 TAF VIDP 101100Z 1012/1118 27008G18KT 4000 HZ SCT035 FEW040CB BKN100
                       BECMG 1012/1016 32020G30KT 2000 DS TS FEW035CB
                       BKN080
                      BECMG 1018/1020 16005KT 3000 HZ SCT100
                      BECMG 1103/1105 29008KT 4000 HZ FEW040 SCT100
                       BECMG 1109/1115 29008G18KT 1500 DS TS SCT030
                       FEW040CB BKN080
                      BECMG 1115/1117 VRB02KT 3000 HZ SCT100=
202006100500 TAF VIDP 100500Z 1006/1112 30008KT 4000 DU FEW040
                      TEMPO 1010/1014 25015G25KT 1500 TSRA SCT030
                       FEW040CB BKN100
                      BECMG 1015/1017 07006KT 2500 HZ SCT100
                      BECMG 1103/1105 13010KT 4000 HZ FEW040
                      TEMPO 1109/1112 27008G18KT 1500 TSRA SCT030
                       FEW040CB BKN100=
202006092300 TAF VIDP 092300Z 1000/1106 VRB02KT 2000 HZ BR FEW100
                      BECMG 1004/1006 32008KT 4500 HZ FEW035 SCT100
                       TEMPO 1009/1015 FEW040CB
                      BECMG 1017/1019 24006KT 3000 HZ BR
                      TEMPO 1021/1103 FEW040CB
                      BECMG 1100/1102 2000 HZ BR
                      BECMG 1104/1105 30008KT 4000 HZ SCT035 BKN090=
202006091700 TAF VIDP 091700Z 0918/1024 04004KT 3000 HZ FEW100
                      BECMG 1000/1002 31003KT 2000 HZ BR
                      BECMG 1005/1007 32008KT 4500 HZ FEW040 SCT100
                       TEMPO 1009/1015 FEW040CB
                      BECMG 1017/1019 24006KT 3000 HZ BR=
202006091100 TAF VIDP 091100Z 0912/1018 32008KT 4000 HZ FEW040 SCT100
                      BECMG 0918/0920 22004KT 2500 HZ FEW100
                      BECMG 1003/1005 29009KT 4000 HZ SCT100
                      TEMPO 1010/1014 32015G25KT 1500 TSRA SCT030
                       FEW040CB BKN100
                      BECMG 1015/1017 07005KT 2500 HZ SCT100=
202006090500 TAF VIDP 090500Z 0906/1012 23006KT 4000 HZ FEW100
                      BECMG 0908/0910 29008G18KT 5000 HZ FEW035
                       SCT100
                      BECMG 0910/0915 26015G25KT 2000 HZ -TSRA
                       SCT030 FEW040CB BKN090
                      BECMG 0916/0918 27008KT 3500 HZ
                      BECMG 1000/1012 00000KT 2500 HZ
                      BECMG 1003/1005 32008KT 3500 HZ FEW100
                      BECMG 1006/1008 29010G20KT 5000 HZ FEW035
                       SCT100
                      BECMG 1009/1012 FEW040CB=
202006082300 TAF VIDP 082300Z 0900/1006 15004KT 2200 HZ FEW100
                      BECMG 0904/0906 29010KT 3000 HZ FEW040 SCT100
                       BECMG 0907/0912 26015G25KT 2500 HZ -TSRA
                       SCT030 FEW040CB BKN100
                      BECMG 0915/0917 29008KT 3500 HZ FEW040 SCT100
                       BECMG 0920/0922 3000 HZ
                      BECMG 1003/1005 32008KT 2500 HZ SCT040 BKN100=
202006081700 TAF VIDP 081700Z 0818/0924 09006KT 3000 HZ FEW100
                      BECMG 0900/0902 29006KT 2500 HZ FEW040 SCT100
                       BECMG 0904/0906 29010KT 3500 HZ
                      BECMG 0907/0912 26010G20KT 3000 HZ -TSRA
                       FEW040CB
                      BECMG 0915/0917 29008KT 3500 HZ FEW040 SCT100
                       BECMG 0920/0922 3000 HZ=
202006081100 TAF VIDP 081100Z 0812/0918 29010KT 5000 HZ FEW035 SCT100
                      BECMG 0812/0816 32010G20KT 2000 TSRA SCT030
                       FEW035CB BKN090
                      BECMG 0818/0820 26008KT 3500 HZ
                      BECMG 0900/0902 11004KT 2500 BR HZ FEW100
                       BECMG 0904/0906 27006KT 3500 HZ
                      BECMG 0907/0909 32010KT 5000 HZ FEW035 SCT100
                       BECMG 0910/0915 FEW040CB=
202006080500 TAF VIDP 080500Z 0806/0912 27006KT 4000 HZ FEW030
                      TEMPO 0808/0812 29010G20KT 1500 -TSRA FEW030
                       FEW040CB SCT100
                      BECMG 0813/0815 29008G18KT 3000 HZ FEW030
                       SCT100
                      BECMG 0818/0820 22005KT 2500 HZ SCT100
                      BECMG 0903/0905 27005KT 3000 HZ
                      BECMG 0907/0909 29010G20KT 2500 HZ FEW040
                       SCT100=
202006072300 TAF VIDP 072300Z 0800/0906 23003KT 2000 HZ FEW100
                      BECMG 0803/0805 29007KT 3000 HZ SCT100
                      BECMG 0807/0809 5000 HZ FEW040 SCT100
                      TEMPO 0811/0814 2000 -TSRA SCT035 FEW040CB
                       BKN090
                      BECMG 0818/0820 29010KT 3000 HZ SCT040 SCT100
                       BECMG 0903/0905 25008KT 4000 HZ SCT030=
202006071700 TAF VIDP 071700Z 0718/0824 VRB02KT 3500 HZ FEW100
                      BECMG 0800/0802 23003KT 2200 HZ SCT100
                      BECMG 0804/0806 29007KT 3200 HZ
                      BECMG 0808/0810 5000 HZ FEW040 SCT100
                      TEMPO 0811/0814 2000 -TSRA SCT035 FEW040CB
                       BKN090
                      BECMG 0818/0820 29010KT 3000 HZ SCT040 SCT100=
202006071100 TAF VIDP 071100Z 0712/0818 22006KT 2500 HZ FEW040 SCT100
                      BECMG 0716/0718 VRB02KT 2000 HZ SCT100
                      BECMG 0802/0804 29010G20KT 3500 HZ FEW040
                       SCT100
                      TEMPO 0810/0814 1500 -TSRA FEW040CB
                      BECMG 0815/0817 25005KT 2500 HZ=
202006070500 TAF VIDP 070500Z 0706/0712 12006KT 2000 HZ SCT030 BKN100
                      BECMG 0706/0709 27025G25KT 1000 HZ DS TSRA
                       FEW040CB
                      BECMG 0711/0715 26015G25KT 2500 HZ TSRA FEW040CB
                       BECMG 0717/0719 29010KT 3000 HZ SCT030 BKN100
                       BECMG 0722/0803 26015G25KT 2500 HZ TSRA
                       FEW040CB
                      BECMG 0805/0807 32010KT 3000 HZ SCT030 BKN100
                       BECMG 0809/0812 26020G30KT 1500 HZ DS TSRA
                       FEW040CB=
202006062300 TAF VIDP 062300Z 0700/0806 11005KT 2000 BR -RA FEW035 SCT100
                      BECMG 0704/0706 32008KT 3000 HZ
                      BECMG 0707/0709 29010KT 5000 HZ SCT035 SCT100
                       BECMG 0709/0714 25015G25KT 1500 DS TSRA
                       FEW040CB
                      BECMG 0715/0717 14006KT 3000 HZ FEW035 SCT100
                       BECMG 0800/0802 VRB02KT 2500 HZ BR FEW100
                       BECMG 0804/0806 11008KT 3500 HZ FEW035 SCT100=
202006061700 TAF VIDP 061700Z 0618/0724 14005KT 3500 HZ FEW100
                      BECMG 0620/0622 29008KT 2500 HZ -RA FEW035
                       SCT100
                      BECMG 0700/0702 11005KT 1800 HZ BR
                      BECMG 0704/0706 32008KT 3000 HZ
                      BECMG 0708/0710 29010KT 5000 HZ SCT035 SCT100
                       BECMG 0709/0714 25015G25KT 1500 DS TSRA
                       FEW040CB
                      BECMG 0718/0720 14006KT 3000 HZ FEW035 SCT100=
202006061100 TAF VIDP 061100Z 0612/0718 13006KT 4000 HZ SCT035 BKN100
                      BECMG 0613/0618 29015G25KT 1500 HZ DS TSRA
                       SCT030 FEW040CB BKN100
                      BECMG 0620/0622 32008KT 2500 HZ -RA SCT030
                       BKN100
                      BECMG 0700/0702 11006KT 1800 BR
                      BECMG 0704/0706 32010KT 2500 HZ
                      BECMG 0708/0712 25020G30KT 1800 HZ DS TSRA
                       FEW040CB
                      BECMG 0716/0718 23010G20KT 2500 HZ TSRA FEW040CB=
202006060500 TAF VIDP 060500Z 0606/0712 13007KT 3000 HZ SCT100
                      BECMG 0608/0610 27008KT 5000 HZ SCT035 BKN100
                       BECMG 0611/0614 27010G25KT 2000 TSRA SCT030
                       FEW035CB BKN090
                      BECMG 0616/0618 15006KT 3000 HZ SCT040 SCT100
                       BECMG 0700/0702 23004KT 2000 HZ FEW040 SCT100
                       BECMG 0705/0707 27008KT 3500 HZ
                      TEMPO 0709/0712 FEW035CB=
202006052300 TAF VIDP 052300Z 0600/0706 17008KT 2500 HZ BR FEW035 SCT100
                      TEMPO 0600/0603 15010G25KT 1500 TSRA FEW040CB
                       OVC080
                      BECMG 0604/0606 28006KT 3500 HZ
                      TEMPO 0609/0612 FEW040
                      BECMG 0617/0619 21008KT 2500 HZ SCT035 BKN090
                       TEMPO 0621/0703 23020G30KT 1500 TSRA FEW040CB
                       OVC080
                      BECMG 0704/0706 28008KT 3500 HZ SCT100=
202006051700 TAF VIDP 051700Z 0518/0624 11008KT 3500 HZ FEW035 SCT100
                      TEMPO 0522/0603 15010G25KT 1500 TSRA FEW040CB
                       OVC080
                      BECMG 0600/0602 2500 BR -RA
                      BECMG 0604/0606 28006KT 3500 HZ
                      TEMPO 0609/0612 FEW040CB
                      BECMG 0617/0619 23008KT 2500 HZ SCT035 BKN090
                       TEMPO 0621/0624 23020G30KT 1500 TSRA FEW040CB
                       OVC080=
202006051100 TAF VIDP 051100Z 0512/0618 15008KT 3000 HZ SCT035 BKN100
                      BECMG 0513/0518 27010G25KT 2000 TSRA SCT030
                       FEW035CB BKN090
                      BECMG 0520/0522 09005KT 3000 HZ SCT040 SCT100
                       BECMG 0522/0603 25010G25KT 1500 TSRA SCT035
                       FEW040CB BKN090
                      BECMG 0606/0608 15008KT 3500 HZ SCT040 BKN100
                       TEMPO 0610/0614 29010G25KT 2000 TSRA SCT030
                       FEW035CB BKN090=
202006050500 TAF VIDP 050500Z 0506/0612 12006KT 3500 HZ SCT100
                      BECMG 0509/0512 27020G30KT 2000 TSRA SCT030
                       FEW040CB BKN100
                      BECMG 0513/0515 14008KT 3000 HZ FEW035 SCT100
                       BECMG 0600/0602 16004KT 2500 HZ
                      BECMG 0603/0605 13005KT 3000 HZ RA FEW035
                       SCT100
                      TEMPO 0609/0612 FEW040CB=
202006042300 TAF VIDP 042300Z 0500/0606 15005KT 2000 HZ SCT030 BKN100
                      BECMG 0505/0507 17010KT 2500 HZ
                      BECMG 0509/0515 26020G30KT 2000 HZ DS TSRA
                       FEW040CB
                      BECMG 0520/0522 16006KT 2500 HZ -RA SCT030
                       BKN100
                      BECMG 0600/0602 1800 HZ
                      BECMG 0603/0605 22008KT 2000 HZ=
202006041700 TAF VIDP 041700Z 0418/0524 13008KT 2500 HZ -RA SCT030 BKN100
                      BECMG 0421/0423 29010G20KT 2000 HZ TSRA FEW040CB
                       BECMG 0501/0503 16005KT 1800 HZ SCT030 BKN100
                       BECMG 0505/0507 17010KT 2500 HZ
                      BECMG 0509/0515 26020G30KT 2000 HZ DS TSRA
                       FEW040CB
                      BECMG 0520/0522 18008KT 2500 HZ -RA SCT030
                       BKN100=
202006041100 TAF VIDP 041100Z 0412/0518 18006KT 3500 HZ FEW040 SCT100
                      TEMPO 0412/0415 32015G25KT 2000 TSRA SCT030
                       FEW040CB BKN100
                      BECMG 0415/0417 15010KT 3000 HZ FEW035 SCT100
                       TEMPO 0421/0503 FEW040CB
                      BECMG 0500/0502 14005KT 2500 HZ
                      BECMG 0505/0507 18008KT 3500 HZ FEW035 SCT100
                       BECMG 0509/0515 32010G25KT 2500 TSRA FEW035CB
                       OVC080=
202006040500 TAF VIDP 040500Z 0406/0512 13006KT 2500 DU HZ SCT035 BKN090
                      TEMPO 0409/0415 FEW040CB
                      BECMG 0413/0415 15012KT 3500 HZ FEW035 SCT100
                       TEMPO 0421/0503 FEW040CB
                      BECMG 0500/0502 13005KT 2500 HZ
                      BECMG 0505/0507 17008KT 3500 HZ FEW035 SCT100
                       TEMPO 0509/0512 FEW040CB=
202006032300 TAF VIDP 032300Z 0400/0506 23004KT 3000 HZ-RA SCT040 SCT100
                      BECMG 0405/0407 15010KT 5000 HZ SCT035 BKN100
                       BECMG 0415/0421 27010G25KT 1500 TSRA SCT030
                       FEW035CB BKN090
                      BECMG 0500/0502 21004KT 3000 HZ-RA
                      BECMG 0503/0505 4000 HZ SCT040 SCT100=
202006031700 TAF VIDP 031700Z 0318/0424 VRB02KT 3500 HZ FEW035 SCT100
                      BECMG 0400/0402 27004KT 2500 HZ-RA SCT030
                       BKN090
                      BECMG 0406/0408 15010KT 4500 HZ SCT035 BKN100
                       BECMG 0415/0421 27010G25KT 1500 TSRA SCT030
                       FEW040CB BKN090
                      BECMG 0422/0423 20005KT 3000 HZ-RA=
202006031100 TAF VIDP 031100Z 0312/0418 29008KT 3500 HZ SCT035 BKN090
                      TEMPO 0312/0315 FEW040CB
                      BECMG 0400/0402 23006KT 2000 HZ BR FEW100
                       BECMG 0405/0407 29008KT 4500 HZ FEW035 SCT100
                       TEMPO 0409/0415 FEW040CB
                      BECMG 0415/0417 18008KT 3500 HZ BLDU SCT035
                       BKN090=
202006030500 TAF VIDP 030500Z 0306/0412 16005KT 3500 HZ FEW030 SCT100
                      BECMG 0308/0312 29010G20KT 4500 HZ TSRA SCT030
                       FEW040CB BKN100
                      BECMG 0314/0316 12010KT 4000 -RA HZ FEW030
                       SCT100
                      BECMG 0320/0322 23008G18KT 2500 HZ
                      BECMG 0403/0405 18008KT 3500 HZ SCT030 BKN100
                       BECMG 0407/0410 26015G25KT 2000 HZ DS TSRA
                       FEW040CB=
202006022300 TAF VIDP 022300Z 0300/0406 26005KT 2500 HZ -RA FEW035 SCT100
                      BECMG 0300/0303 FEW040CB
                      BECMG 0304/0306 29008KT 3500 HZ
                      BECMG 0310/0315 26010G20KT 3000 HZ -TSRA
                       FEW040CB BKN090
                      BECMG 0320/0322 29006KT 2500 HZ BR FEW035
                       BECMG 0404/0406 32008KT 4000 HZ SCT100=
202006021700 TAF VIDP 021700Z 0218/0324 03004KT 4000 HZ FEW035 SCT100
                      BECMG 0220/0222 27006KT 3000 -RA BR SCT035
                       BKN100
                      BECMG 0300/0302 32005KT 2000 HZ BR FEW035
                       SCT100
                      BECMG 0304/0306 29008KT 3500 HZ
                      BECMG 0306/0308 32010KT 5000 HZ
                      BECMG 0310/0315 26010G20KT 3000 HZ -TSRA
                       FEW040CB BKN090
                      BECMG 0320/0322 29005KT 2500 -RA BR SCT035
                       SCT100=
202006012300 TAF COR VIDP 012300Z 0200/0306 24004KT 2000 BR FEW035 SCT100
                      TEMPO 0200/0203 FEW040CB
                      BECMG 0205/0207 5000 HZ SCT035 BKN090
                      TEMPO 0209/0215 23020G30KT 1500 DS/TSRA FEW040CB
                       OVC080
                      BECMG 0217/0219 21006KT 3000 BR -RA FEW040
                       SCT100
                      BECMG 0300/0302 2000 BR SCT100
                      BECMG 0304/0305 33006KT 4500 HZ NSC=
202006011700 TAF VIDP 011700Z 0118/0224 04004KT 3500 HZ FEW035 SCT100
                      TEMPO 0121/0203 FEW040CB
                      BECMG 0200/0202 24005KT 2000 BR
                      BECMG 0205/0207 5000 HZ SCT035 BKN090
                      TEMPO 0209/0215 23020G30KT 1500 DS TSRA FEW040CB
                       OVC080
                      BECMG 0217/0219 21006KT 3000 BR -RA FEW040
                       SCT100=
202006011400 TAF VIDP 011400Z 0115/0124 11008G18KT 4000 HZ FEW035 SCT100
                      TEMPO 0118/0122 22010G20KT 2000 -TSRA SCT030
                       FEW040CB BKN100
                      BECMG 0123/0124 14010KT 2500 HZ FEW040 SCT100=
202006010500 TAF VIDP 010500Z 0106/0212 11005KT 3500 HZ FEW100
                      BECMG 0108/0110 29008KT 5000 HZ FEW035 SCT100
                       BECMG 0110/0118 32010G20KT 3000 HZ -TSRA
                       FEW040CB BKN090
                      BECMG 0200/0202 VRB02KT 2000 -RA BR SCT035
                       SCT090
                      BECMG 0204/0206 29008KT 4000 HZ FEW035 SCT100
                       BECMG 0209/0212 24010G20KT 5000 HZ -RA SCT035
                       FEW040CB BKN090=

