
##########################################################
# Query made at 07/09/2023 14:47:55 UTC
# Time interval: from 01/01/2020 00:00  to 01/31/2020 23:59  UTC
##########################################################

##########################################################
# VIDP, New Delhi / Palam (India)
# WMO index: 42181
# Latitude 28-34-00N. Longitude 077-07-00E. Altitude 225 m.
##########################################################

###################################
#  METAR/SPECI from VIDP
###################################
202001312330 METAR VIDP 312330Z 07004KT 1200 R28/P2000 R29/P2000 BR FEW100 09/07 Q1015 NOSIG=
202001312300 METAR VIDP 312300Z 00000KT 1500 R28/P2000 R29/P2000 BR FEW100 09/07 Q1015 NOSIG=
202001312200 METAR VIDP 312200Z 00000KT 1800 R28/P2000 R29/2000 BR FEW100 09/07 Q1015 BECMG 1500 BR=
202001312130 METAR VIDP 312130Z 00000KT 1800 R28/P2000 R29/P2000 BR FEW100 09/06 Q1015 BECMG 1500 BR=
202001312100 METAR VIDP 312100Z 00000KT 2200 BR FEW100 09/06 Q1015 NOSIG=
202001312030 METAR VIDP 312030Z 00000KT 2200 BR FEW100 09/06 Q1016 NOSIG=
202001312000 METAR VIDP 312000Z 00000KT 2200 BR FEW100 09/06 Q1016 NOSIG=
202001311930 METAR VIDP 311930Z 03003KT 2200 BR FEW100 10/06 Q1016 NOSIG=
202001311900 METAR VIDP 311900Z 03004KT 2200 BR FEW100 10/06 Q1016 NOSIG=
202001311830 METAR VIDP 311830Z 03003KT 2200 BR FEW100 10/06 Q1016 NOSIG=
202001311800 METAR VIDP 311800Z 03004KT 2200 BR FEW100 10/06 Q1016 NOSIG=
202001311730 METAR VIDP 311730Z 02003KT 2500 BR FEW100 10/06 Q1016 NOSIG=
202001311700 METAR VIDP 311700Z 03003KT 2500 BR FEW100 11/07 Q1016 NOSIG=
202001311630 METAR VIDP 311630Z 02003KT 2500 HZ FEW100 11/07 Q1016 NOSIG=
202001311600 METAR VIDP 311600Z 07003KT 2500 HZ FEW100 13/08 Q1015 NOSIG=
202001311530 METAR VIDP 311530Z 07003KT 2500 HZ NSC 13/08 Q1015 NOSIG=
202001311500 METAR VIDP 311500Z 10003KT 2500 HZ NSC 13/08 Q1015 NOSIG=
202001311430 METAR VIDP 311430Z 00000KT 2500 HZ NSC 14/09 Q1015 NOSIG=
202001311400 METAR VIDP 311400Z 28005KT 2500 HZ NSC 14/08 Q1014 NOSIG=
202001311330 METAR VIDP 311330Z 00000KT 2800 HZ NSC 14/08 Q1014 NOSIG=
202001311300 METAR VIDP 311300Z 33006KT 2800 HZ NSC 15/08 Q1013 NOSIG=
202001311230 METAR VIDP 311230Z 32006KT 3200 HZ NSC 16/07 Q1013 BECMG 3000 HZ=
202001311200 METAR VIDP 311200Z 30005KT 3500 HZ NSC 16/06 Q1013 NOSIG=
202001311130 METAR VIDP 311130Z 30007KT 3500 HZ NSC 16/06 Q1013 NOSIG=
202001311100 METAR VIDP 311100Z 30006KT 4000 HZ NSC 17/06 Q1014 NOSIG=
202001311030 METAR VIDP 311030Z 27008KT 4000 HZ NSC 17/06 Q1014 NOSIG=
202001311000 METAR VIDP 311000Z 28007KT 4000 HZ NSC 17/07 Q1014 NOSIG=
202001310930 METAR VIDP 310930Z 29007KT 4000 HZ NSC 17/07 Q1014 NOSIG=
202001310900 METAR VIDP 310900Z 29008KT 3500 HZ NSC 17/07 Q1014 NOSIG=
202001310830 METAR VIDP 310830Z 26008KT 3000 HZ NSC 16/08 Q1015 NOSIG=
202001310800 METAR VIDP 310800Z 28007KT 2500 HZ NSC 16/10 Q1015 BECMG 3000 HZ=
202001310730 METAR VIDP 310730Z 30006KT 2500 HZ NSC 16/10 Q1016 NOSIG=
202001310700 METAR VIDP 310700Z 29007KT 2200 HZ NSC 16/11 Q1016 NOSIG=
202001310630 METAR VIDP 310630Z 28005KT 1800 R28/P2000 R29/P2000 HZ NSC 16/11 Q1017 NOSIG=
202001310530 METAR COR VIDP 310530Z 29005KT 1200 R28/P2000 R29/P2000 BR NSC 12/11 Q1017 BECMG 1500 BR=
202001310500 METAR VIDP 310500Z 28005KT 0800 R28/1100 R29/P2000 MIFG NSC 10/10 Q1017 NOSIG=
202001310430 METAR VIDP 310430Z 28007KT 0800 R28/1200 R29/P2000 MIFG NSC 10/09 Q1017 NOSIG=
202001310400 METAR VIDP 310400Z 26006KT 0600 R28/1000 R29/1900 MIFG NSC 09/09 Q1017 BECMG 0800 MIFG=
202001310330 METAR VIDP 310330Z 25006KT 0400 R28/1000 R29/1600 FG NSC 08/08 Q1016 BECMG 0600 MIFG=
202001310300 METAR VIDP 310300Z 25004KT 0200 R28/0900 R29/1100 FG NSC 08/08 Q1016 BECMG 0350 FG=
202001310230 METAR VIDP 310230Z 25005KT 0100 R28/0800 R29/1000 FG NSC 08/08 Q1016 BECMG 0150 FG=
202001310200 METAR VIDP 310200Z 26005KT 0100 R28/1100 R29/0100 FG NSC 07/07 Q1015 NOSIG=
202001310130 METAR VIDP 310130Z 25004KT 0150 R28/1700 R29/0300 FG NSC 07/07 Q1015 NOSIG=
202001310100 METAR VIDP 310100Z 26004KT 0900 R28/2000 R29/1400 MIFG NSC 08/07 Q1015 BECMG 0800 MIFG=
202001310030 METAR VIDP 310030Z 24004KT 1200 R28/P2000 R29/P2000 BR NSC 09/08 Q1015 NOSIG=
202001310000 METAR VIDP 310000Z 27004KT 1200 R28/P2000 R29/P2000 BR NSC 09/08 Q1015 NOSIG=
202001302330 METAR VIDP 302330Z 00000KT 1500 R28/P2000 R29/P2000 BR NSC 10/09 Q1015 NOSIG=
202001302300 METAR VIDP 302300Z 00000KT 1600 R28/P2000 R29/P2000 BR NSC 10/09 Q1015 BECMG 1500 BR=
202001302230 METAR VIDP 302230Z 00000KT 1800 R28/P2000 R29/P2000 BR NSC 11/10 Q1015 NOSIG=
202001302200 METAR VIDP 302200Z 24004KT 2200 BR NSC 11/10 Q1015 NOSIG=
202001302130 METAR VIDP 302130Z 24004KT 2200 BR NSC 11/10 Q1015 NOSIG=
202001302100 METAR VIDP 302100Z 23004KT 2200 BR NSC 11/10 Q1015 NOSIG=
202001302030 METAR COR VIDP 302030Z 00000KT 2200 BR NSC 11/10 Q1015 NOSIG=
202001302000 METAR VIDP 302000Z 24003KT 2200 BR NSC 12/11 Q1016 NOSIG=
202001301930 METAR VIDP 301930Z 30004KT 2200 BR NSC 12/11 Q1016 NOSIG=
202001301900 METAR VIDP 301900Z 32005KT 2200 BR NSC 12/11 Q1015 NOSIG=
202001301830 METAR COR VIDP 301830Z 30004KT 2200 BR NSC 13/11 Q1016 NOSIG=
202001301800 METAR VIDP 301800Z 28004KT 2200 BR NSC 14/11 Q1016 NOSIG=
202001301730 METAR VIDP 301730Z 28004KT 2200 BR NSC 14/11 Q1016 NOSIG=
202001301700 METAR VIDP 301700Z 28004KT 2200 BR NSC 14/10 Q1016 NOSIG=
202001301630 METAR VIDP 301630Z 30004KT 2200 HZ NSC 14/08 Q1016 NOSIG=
202001301600 METAR VIDP 301600Z 32004KT 2200 HZ NSC 14/08 Q1016 NOSIG=
202001301530 METAR VIDP 301530Z 30004KT 2200 HZ NSC 14/08 Q1016 NOSIG=
202001301500 METAR VIDP 301500Z 29005KT 2200 HZ NSC 15/08 Q1016 NOSIG=
202001301430 METAR VIDP 301430Z 27005KT 2200 HZ NSC 15/08 Q1016 NOSIG=
202001301400 METAR VIDP 301400Z 29006KT 2200 HZ NSC 16/08 Q1016 NOSIG=
202001301330 METAR VIDP 301330Z 29006KT 2200 HZ NSC 16/08 Q1016 NOSIG=
202001301300 METAR VIDP 301300Z 30006KT 2200 HZ NSC 17/08 Q1016 NOSIG=
202001301230 METAR VIDP 301230Z 31007KT 2200 HZ NSC 18/10 Q1016 NOSIG=
202001301200 METAR VIDP 301200Z 30009KT 2200 HZ NSC 18/11 Q1016 NOSIG=
202001301130 METAR VIDP 301130Z 29009KT 2200 HZ FEW100 19/11 Q1016 NOSIG=
202001301100 METAR VIDP 301100Z 29010KT 2200 HZ FEW100 19/11 Q1016 NOSIG=
202001301030 METAR VIDP 301030Z 29010KT 2200 HZ FEW100 19/11 Q1016 NOSIG=
202001301000 METAR VIDP 301000Z 29010KT 2200 HZ FEW100 19/11 Q1016 NOSIG=
202001300930 METAR VIDP 300930Z 30010KT 2200 HZ NSC 19/12 Q1017 NOSIG=
202001300900 METAR VIDP 300900Z 29010KT 2000 HZ NSC 19/12 Q1017 NOSIG=
202001300830 METAR VIDP 300830Z 29010KT 2000 HZ NSC 18/12 Q1017 NOSIG=
202001300800 METAR VIDP 300800Z 30008KT 1800 R28/P2000 R29/P2000 BR NSC 17/13 Q1018 NOSIG=
202001300730 METAR VIDP 300730Z 30007KT 1800 R28/1800 R29/P2000 BR NSC 17/13 Q1018 NOSIG=
202001300700 METAR VIDP 300700Z 28008KT 1600 R28/1700 R29/P2000 BR NSC 17/13 Q1019 NOSIG=
202001300630 METAR VIDP 300630Z 27005KT 1200 R28/1600 R29/P2000 BR NSC 16/13 Q1019 BECMG 1500 BR=
202001300600 METAR VIDP 300600Z 26006KT 1000 R28/1500 R29/2000 FU NSC 15/13 Q1020 NOSIG=
202001300530 METAR VIDP 300530Z 25006KT 0700 R28/1300 R29/2000 MIFG NSC 13/10 Q1020 BECMG 0800 MIFG=
202001300500 METAR VIDP 300500Z 26006KT 0500 R28/1200 R29/1900 MIFG NSC 12/10 Q1020 BECMG 0600 MIFG=
202001300430 METAR VIDP 300430Z 25005KT 0300 R28/1100 R29/1800 FG NSC 11/10 Q1020 BECMG 0350 FG=
202001300400 METAR VIDP 300400Z 26006KT 0200 R28/1100 R29/1600 FG NSC 09/08 Q1020 NOSIG=
202001300330 METAR VIDP 300330Z 27004KT 0200 R28/0850 R29/0800 FG NSC 09/08 Q1019 NOSIG=
202001300300 METAR VIDP 300300Z 27004KT 0200 R28/0750 R29/1000 FG NSC 09/08 Q1019 NOSIG=
202001300230 METAR VIDP 300230Z 26004KT 0200 R28/1000 R29/0200 FG NSC 09/09 Q1018 TEMPO 0150 FG=
202001300200 METAR VIDP 300200Z 25004KT 0400 R28/1500 R29/1000 FG NSC 09/09 Q1018 BECMG 0350 FG=
202001300130 METAR VIDP 300130Z 24004KT 0900 R28/P2000 R29/1600 MIFG NSC 09/09 Q1017 BECMG 0800 MIFG=
202001300100 METAR VIDP 300100Z 25004KT 1200 R28/P2000 R29/P2000 BR NSC 11/11 Q1017 NOSIG=
202001300030 METAR VIDP 300030Z 32004KT 1500 R28/P2000 R29/P2000 BR NSC 12/12 Q1017 NOSIG=
202001300000 METAR VIDP 300000Z 31004KT 1500 R28/P2000 R29/P2000 BR NSC 12/12 Q1017 NOSIG=
202001292330 METAR VIDP 292330Z 34004KT 1500 R28/P2000 R29/P2000 BR NSC 12/12 Q1017 NOSIG=
202001292300 METAR VIDP 292300Z 32003KT 1500 R28/P2000 R29/P2000 BR NSC 12/12 Q1017 NOSIG=
202001292230 METAR VIDP 292230Z 31004KT 1500 R28/P2000 R29/P2000 BR NSC 12/12 Q1017 NOSIG=
202001292200 METAR VIDP 292200Z 29005KT 1500 R28/P2000 R29/P2000 BR NSC 12/12 Q1018 NOSIG=
202001292130 METAR VIDP 292130Z 30005KT 1500 R28/P2000 R29/P2000 BR NSC 12/12 Q1018 NOSIG=
202001292100 METAR VIDP 292100Z 29005KT 1500 R28/P2000 R29/P2000 BR NSC 13/13 Q1018 NOSIG=
202001292030 METAR VIDP 292030Z 30005KT 1500 R28/P2000 R29/P2000 BR FEW100 13/13 Q1018 NOSIG=
202001292000 METAR VIDP 292000Z 32006KT 1500 R28/P2000 R29/P2000 BR FEW100 13/13 Q1018 NOSIG=
202001291930 METAR VIDP 291930Z 28005KT 1500 R28/P2000 R29/P2000 BR FEW100 12/12 Q1018 NOSIG=
202001291900 METAR VIDP 291900Z 30004KT 1500 R28/P2000 R29/P2000 BR FEW100 13/13 Q1018 NOSIG=
202001291830 METAR VIDP 291830Z 30004KT 1500 R28/P2000 R29/P2000 BR FEW100 13/13 Q1018 NOSIG=
202001291800 METAR VIDP 291800Z 29004KT 1500 R28/P2000 R29/P2000 BR FEW100 13/12 Q1018 NOSIG=
202001291730 METAR VIDP 291730Z 32005KT 1500 R28/P2000 R29/P2000 BR FEW100 14/12 Q1018 NOSIG=
202001291700 METAR VIDP 291700Z 00000KT 1600 R28/P2000 R29/P2000 BR FEW100 14/12 Q1018 BECMG 1500 BR=
202001291630 METAR VIDP 291630Z 00000KT 1800 R28/P2000 R29/P2000 BR FEW100 14/12 Q1018 NOSIG=
202001291600 METAR VIDP 291600Z 27004KT 1800 R28/P2000 R29/P2000 BR FEW100 14/12 Q1018 NOSIG=
202001291530 METAR VIDP 291530Z 29005KT 2200 BR FEW100 15/12 Q1018 NOSIG=
202001291500 METAR VIDP 291500Z 27004KT 2200 BR FEW100 15/12 Q1017 NOSIG=
202001291430 METAR VIDP 291430Z 24004KT 2200 BR SCT100 15/12 Q1017 NOSIG=
202001291400 METAR VIDP 291400Z 28005KT 1800 R28/P2000 R29/2000 BR FEW040 SCT100 15/11 Q1017 NOSIG=
202001291330 METAR VIDP 291330Z 28004KT 1800 R28/2000 R29/2000 FU FEW040 SCT100 16/10 Q1017 NOSIG=
202001291300 METAR VIDP 291300Z 29005KT 1800 R28/2000 R29/2000 FU FEW040 SCT100 17/10 Q1017 NOSIG=
202001291230 METAR COR VIDP 291230Z 30006KT 1600 R28/P2000 R29/P2000 FU FEW040 SCT100 18/08 Q1016 NOSIG=
202001291200 METAR VIDP 291200Z 30007KT 1400 R28/2000 R29/2000 FU FEW040 SCT100 18/08 Q1016 BECMG 1500 FU=
202001291130 METAR VIDP 291130Z 30007KT 1200 R28/2000 R29/2000 FU FEW040 SCT100 19/08 Q1016 NOSIG=
202001291100 METAR VIDP 291100Z 28007KT 1200 R28/2000 R29/1600 FU FEW040 SCT100 19/07 Q1016 NOSIG=
202001291030 METAR VIDP 291030Z 32005KT 1200 R28/2000 R29/P1600 FU FEW040 SCT100 19/07 Q1017 NOSIG=
202001291000 METAR VIDP 291000Z 30007KT 1200 R28/2000 R29/1500 FU FEW040 SCT100 19/08 Q1016 NOSIG=
202001290930 METAR VIDP 290930Z 30007KT 1200 R28/2000 R29/1500 FU FEW040 SCT100 19/07 Q1017 NOSIG=
202001290900 METAR VIDP 290900Z 31005KT 1500 R28/2000 R29/1600 FU FEW040 SCT100 19/08 Q1017 NOSIG=
202001290830 METAR VIDP 290830Z 30006KT 1500 R28/2000 R29/1300 FU FEW100 19/09 Q1017 NOSIG=
202001290800 METAR VIDP 290800Z 34005KT 1500 R28/P2000 R29/P2000 FU FEW100 19/09 Q1018 NOSIG=
202001290730 METAR VIDP 290730Z 01006KT 1500 R28/P2000 R29/P2000 FU FEW100 18/09 Q1018 NOSIG=
202001290700 METAR VIDP 290700Z 02005KT 1500 R28/P2000 R29/P2000 FU FEW100 18/10 Q1018 NOSIG=
202001290630 METAR VIDP 290630Z 03005KT 1500 R28/1800 R29/P2000 FU FEW100 17/10 Q1019 NOSIG=
202001290600 METAR VIDP 290600Z 03005KT 1500 R28/1600 R29/2000 BR FEW100 16/12 Q1019 NOSIG=
202001290530 METAR VIDP 290530Z 03005KT 1400 R28/1600 R29/2000 BR FEW100 16/12 Q1019 BECMG 1500 BR=
202001290500 METAR VIDP 290500Z 03006KT 1200 R28/1500 R29/2000 BR FEW100 15/14 Q1019 NOSIG=
202001290430 METAR VIDP 290430Z 03005KT 1000 R28/1400 R29/1800 BR FEW035 SCT100 14/13 Q1018 NOSIG=
202001290400 METAR VIDP 290400Z 03005KT 1000 R28/1200 R29/1400 BR FEW035 SCT100 13/13 Q1018 NOSIG=
202001290330 METAR VIDP 290330Z 04004KT 1300 R28/1300 R29/1400 BR FEW035 SCT100 13/13 Q1017 NOSIG=
202001290300 METAR VIDP 290300Z 00000KT 1500 R28/1500 R29/P2000 BR FEW035 SCT100 12/12 Q1016 NOSIG=
202001290230 METAR VIDP 290230Z 00000KT 1500 R28/P2000 R29/P2000 BR FEW035 SCT100 12/12 Q1016 NOSIG=
202001290200 METAR VIDP 290200Z 00000KT 1500 R28/P2000 R29/P2000 BR SCT035 BKN100 12/12 Q1016 NOSIG=
202001290130 METAR VIDP 290130Z 00000KT 1500 R28/P2000 R29/P2000 BR SCT035 BKN100 11/11 Q1015 NOSIG=
202001290100 METAR VIDP 290100Z 00000KT 1500 R28/P2000 R29/P2000 BR SCT035 BKN100 11/11 Q1015 NOSIG=
202001290030 METAR VIDP 290030Z 00000KT 1500 R28/P2000 R29/P2000 BR SCT035 BKN100 12/12 Q1015 NOSIG=
202001290000 METAR VIDP 290000Z 00000KT 1500 R28/P2000 R29/P2000 BR SCT035 BKN100 12/12 Q1014 NOSIG=
202001282330 METAR VIDP 282330Z 00000KT 1500 R28/P2000 R29/P2000 BR SCT035 FEW040CB BKN100 12/12 Q1014 NOSIG=
202001282300 METAR VIDP 282300Z 00000KT 1500 R28/P2000 R29/P2000 BR SCT035 FEW040CB BKN100 12/12 Q1014 NOSIG=
202001282230 METAR VIDP 282230Z 00000KT 1500 R28/P2000 R29/P2000 BR SCT035 FEW040CB BKN100 12/12 Q1014 NOSIG=
202001282200 METAR VIDP 282200Z 28004KT 1500 R28/P2000 R29/P2000 BR SCT035 FEW040CB BKN100 12/12 Q1013 NOSIG=
202001282130 METAR VIDP 282130Z 00000KT 1500 R28/P2000 R29/P2000 BR SCT035 FEW040CB BKN100 13/13 Q1014 NOSIG=
202001282100 METAR VIDP 282100Z 27004KT 1500 R28/P2000 R29/P2000 BR SCT035 FEW040CB BKN100 13/13 Q1013 NOSIG=
202001282030 METAR VIDP 282030Z 26003KT 1500 R28/P2000 R29/P2000 BR SCT035 FEW040CB BKN100 14/13 Q1014 NOSIG=
202001282000 METAR VIDP 282000Z 24004KT 1500 R28/P2000 R29/P2000 BR SCT035 FEW040CB BKN100 14/14 Q1014 NOSIG=
202001281930 METAR VIDP 281930Z 29007KT 1500 R28/P2000 R29/P2000 DZ SCT035 FEW040CB BKN100 14/14 Q1014 NOSIG=
202001281900 METAR VIDP 281900Z 27007KT 1500 R28/P2000 R29/P2000 DZ SCT035 FEW040CB BKN100 15/15 Q1014 NOSIG=
202001281830 METAR VIDP 281830Z 28004KT 1500 R28/P2000 R29/P2000 BR SCT035 BKN100 15/15 Q1014 NOSIG=
202001281800 METAR VIDP 281800Z 00000KT 1500 R28/P2000 R29/P2000 BR SCT035 BKN100 15/15 Q1014 NOSIG=
202001281730 METAR VIDP 281730Z 00000KT 1500 R28/P2000 R29/P2000 BR SCT035 BKN100 15/15 Q1014 NOSIG=
202001281700 METAR VIDP 281700Z 00000KT 1500 R28/P2000 R29/P2000 BR SCT035 OVC080 16/16 Q1013 NOSIG=
202001281630 METAR VIDP 281630Z 12005KT 1500 R28/P2000 R29/P2000 BR SCT030 FEW035CB OVC080 16/16 Q1012 NOSIG=
202001281600 METAR VIDP 281600Z 12007KT 1500 R28/P2000 R29/P2000 BR SCT030 FEW035CB OVC080 16/16 Q1012 NOSIG=
202001281530 METAR VIDP 281530Z 11007KT 1500 R28/P2000 R29/P2000 BR SCT030 FEW035CB OVC080 16/16 Q1012 NOSIG=
202001281500 METAR VIDP 281500Z 10011KT 1500 R28/2000 R29/1800 RA SCT030 FEW035CB OVC080 16/16 Q1012 TEMPO 24010G20KT 1000 TSRA=
202001281430 METAR COR VIDP 281430Z 10007KT 1500 R28/P2000 R29/P2000 RA SCT030 FEW035CB OVC080 16/16 Q1012 TEMPO 24010G20KT 1000 TSRA=
202001281400 METAR VIDP 281400Z 18006KT 1500 R28/P2000 R29/P2000 -TSRA SCT030 FEW035CB OVC080 16/12 Q1012 TEMPO 24010G20KT 1000 TSRA=
202001281330 METAR VIDP 281330Z 12007KT 1500 R28/P2000 R29/P2000 -RA SCT030 FEW035CB OVC080 17/12 Q1010 TEMPO 24010G20KT 1000 TSRA=
202001281300 METAR COR VIDP 281300Z 12007KT 1500 R28/P2000 R29/P2000 -RA SCT030 FEW035CB OVC080 17/12 Q1010 TEMPO 24010G20KT 1000 TSRA=
202001281230 METAR VIDP 281230Z 12006KT 1500 R28/P2000 R29/P2000 FU SCT030 FEW035CB BKN100 17/12 Q1010 TEMPO 24010G20KT 1000 TSRA=
202001281200 METAR VIDP 281200Z 10009KT 1400 R28/1900 R29/2000 FU SCT030 FEW035CB BKN100 18/13 Q1009 BECMG 1500 FU=
202001281130 METAR VIDP 281130Z 09009KT 1200 R28/1700 R29/2000 FU SCT030 FEW035CB BKN100 18/13 Q1008 NOSIG=
202001281100 METAR VIDP 281100Z 11008KT 1200 R28/1400 R29/2000 FU SCT030 FEW035CB BKN100 19/13 Q1008 NOSIG=
202001281030 METAR VIDP 281030Z 10009KT 1200 R28/1400 R29/2000 FU SCT030 FEW035CB BKN100 19/13 Q1008 NOSIG=
202001281000 METAR VIDP 281000Z 12008KT 1200 R28/1400 R29/1800 FU SCT030 FEW035CB BKN100 19/13 Q1009 NOSIG=
202001280930 METAR VIDP 280930Z 11008KT 1200 R28/1300 R29/1800 FU SCT030 FEW035CB BKN100 19/13 Q1009 TEMPO 23010G20KT TSRA=
202001280900 METAR VIDP 280900Z 11005G15KT 1200 R28/1400 R29/1900 FU SCT030 FEW035CB BKN100 19/13 Q1008 TEMPO 23010G20KT TSRA=
202001280830 METAR VIDP 280830Z 10011KT 1200 R28/1500 R29/P2000 FU SCT030 FEW035CB BKN100 19/13 Q1009 TEMPO 23010G20KT TSRA=
202001280800 METAR VIDP 280800Z 10012KT 1200 R28/1500 R29/P2000 FU SCT030 FEW035CB BKN100 19/13 Q1009 NOSIG=
202001280730 METAR VIDP 280730Z 10010KT 1200 R28/1400 R29/P2000 FU SCT030 FEW035CB BKN100 19/13 Q1010 TEMPO 23010G20KT TSRA=
202001280700 METAR VIDP 280700Z 10010KT 1200 R28/1400 R29/P2000 BR SCT030 FEW035CB BKN100 18/14 Q1010 TEMPO 23010G20KT TSRA=
202001280630 METAR VIDP 280630Z 10011KT 1200 R28/1400 R29/P2000 BR SCT030 FEW035CB BKN100 18/15 Q1011 TEMPO 23010G20KT TSRA=
202001280600 METAR VIDP 280600Z 06006KT 1200 R28/1300 R29/P2000 BR SCT030 FEW035CB BKN100 17/15 Q1012 TEMPO 23010G20KT TSRA=
202001280530 METAR VIDP 280530Z 06005KT 1200 R28/1400 R29/P2000 BR SCT030 FEW035CB BKN080 16/15 Q1012 TEMPO 24015G25KT TSRA=
202001280500 METAR VIDP 280500Z 09005KT 1200 R28/1800 R29/P2000 -RA SCT030 FEW035CB OVC080 15/14 Q1012 TEMPO 24015G22KT TSRA=
202001280430 METAR VIDP 280430Z 08006KT 1200 R28/1700 R29/P2000 -RA SCT030 FEW035CB OVC080 15/14 Q1012 TEMPO 24015G25KT TSRA=
202001280400 METAR VIDP 280400Z 09008KT 1200 R28/1400 R29/P2000 BR SCT030 FEW035CB BKN100 16/15 Q1011 TEMPO 24015G25KT TSRA=
202001280330 METAR VIDP 280330Z 07004KT 1200 R28/1500 R29/P2000 BR SCT030 FEW035CB BKN100 15/14 Q1011 TEMPO 24015G25KT TSRA=
202001280300 METAR VIDP 280300Z 11009KT 1200 R28/1300 R29/P2000 BR SCT030 FEW035CB BKN100 14/14 Q1009 NOSIG=
202001280230 METAR VIDP 280230Z 10009KT 1200 R28/1300 R29/P2000 BR SCT030 FEW035CB BKN100 14/14 Q1009 NOSIG=
202001280200 METAR VIDP 280200Z 08007KT 1500 R28/P2000 R29/P2000 BR SCT030 FEW035CB BKN100 14/14 Q1010 TEMPO 14010G20KT TSRA=
202001280130 METAR VIDP 280130Z 07007KT 1500 R28/P2000 R29/P2000 BR SCT030 FEW035CB BKN100 14/14 Q1010 TEMPO 14010G20KT TSRA=
202001280100 METAR VIDP 280100Z 05006KT 1500 R28/P2000 R29/P2000 BR SCT030 FEW035CB BKN100 13/13 Q1009 TEMPO 14010G20KT TSRA=
202001280030 METAR VIDP 280030Z 06006KT 1500 R28/P2000 R29/P2000 -RA SCT030 FEW035CB BKN100 13/13 Q1009 TEMPO 14010G20KT TSRA=
202001280000 METAR VIDP 280000Z 34005KT 1500 R28/P2000 R29/P2000 -TSRA SCT030 FEW035CB BKN100 13/13 Q1010 TEMPO 14010G20KT TSRA=
202001272330 METAR VIDP 272330Z 09005KT 1500 R28/P2000 R29/P2000 -TSRA SCT030 FEW035CB BKN100 13/13 Q1009 TEMPO 14010G20KT TSRA=
202001272300 METAR VIDP 272300Z 09005KT 1500 R28/P2000 R29/P2000 BR SCT030 FEW035CB BKN100 13/13 Q1009 NOSIG=
202001272230 METAR VIDP 272230Z 08005KT 1500 R28/P2000 R29/P2000 BR SCT030 FEW035CB BKN100 13/13 Q1010 NOSIG=
202001272200 METAR VIDP 272200Z 06007KT 1500 R28/P2000 R29/P2000 BR SCT030 FEW035CB BKN100 13/13 Q1010 NOSIG=
202001272130 METAR VIDP 272130Z 05007KT 1500 R28/P2000 R29/P2000 BR SCT030 FEW035CB BKN100 13/13 Q1010 NOSIG=
202001272100 METAR VIDP 272100Z 06005KT 1500 R28/P2000 R29/P2000 BR SCT030 FEW035CB BKN100 14/13 Q1011 NOSIG=
202001272030 METAR VIDP 272030Z 35006KT 1500 R28/P2000 R29/P2000 BR SCT030 FEW035CB BKN100 14/13 Q1011 NOSIG=
202001272000 METAR VIDP 272000Z 29010KT 1500 R28/P2000 R29/P2000 BR SCT030 FEW035CB BKN100 14/13 Q1011 NOSIG=
202001271930 METAR VIDP 271930Z 06005KT 1500 R28/P2000 R29/P2000 BR SCT030 BKN100 14/13 Q1010 NOSIG=
202001271900 METAR VIDP 271900Z 35005KT 1600 R28/P2000 R29/P2000 DZ SCT040 BKN100 15/12 Q1011 BECMG 1500 BR=
202001271830 METAR VIDP 271830Z 10004KT 1800 R28/P2000 R29/P2000 FU SCT040 BKN100 16/09 Q1011 NOSIG=
202001271800 METAR VIDP 271800Z 10007KT 2200 FU SCT040 BKN100 16/09 Q1010 NOSIG=
202001271730 METAR VIDP 271730Z 10007KT 2200 FU SCT040 BKN100 16/09 Q1010 NOSIG=
202001271700 METAR VIDP 271700Z 08009KT 2200 FU FEW040 SCT100 16/08 Q1011 NOSIG=
202001271630 METAR VIDP 271630Z 08008KT 2100 FU FEW040 SCT100 16/08 Q1011 NOSIG=
202001271600 METAR VIDP 271600Z 06008KT 1800 R28/P2000 R29/P2000 FU FEW040 SCT100 16/09 Q1011 NOSIG=
202001271530 METAR VIDP 271530Z 02005KT 1500 R28/P2000 R29/P2000 FU SCT035 BKN100 17/11 Q1011 NOSIG=
202001271500 METAR VIDP 271500Z 07007KT 1500 R28/P2000 R29/P2000 FU SCT035 FEW040CB BKN100 17/11 Q1011 TEMPO 15015G25KT 0800 TSRA=
202001271430 METAR VIDP 271430Z 06007KT 1500 R28/P2000 R29/P2000 FU SCT035 FEW040CB BKN100 17/11 Q1011 TEMPO 15015G25KT 0800 TSRA=
202001271400 METAR VIDP 271400Z 04006KT 1500 R28/P2000 R29/P2000 FU SCT035 FEW040CB BKN100 17/11 Q1011 TEMPO 15015G25KT 0800 TSRA=
202001271330 METAR VIDP 271330Z 06007KT 1500 R28/P2000 R29/P2000 FU SCT035 FEW040CB BKN100 17/11 Q1010 TEMPO 15015G25KT 0800 TSRA=
202001271300 METAR VIDP 271300Z 05008KT 1500 R28/P2000 R29/P2000 FU SCT035 FEW040CB BKN100 18/10 Q1010 TEMPO 15015G25KT 0800 TSRA=
202001271230 METAR VIDP 271230Z 05010KT 1500 R28/P2000 R29/P2000 FU SCT035 FEW040CB BKN100 19/10 Q1010 TEMPO 15015G25KT 0800 TSRA=
202001271200 METAR VIDP 271200Z 02009KT 1600 R28/P2000 R29/P2000 FU SCT040 BKN100 20/08 Q1010 BECMG 1500 FU=
202001271130 METAR VIDP 271130Z 05006KT 1600 R28/P2000 R29/P2000 FU SCT040 BKN100 21/07 Q1010 NOSIG=
202001271100 METAR VIDP 271100Z 07008KT 1200 R28/P2000 R29/P2000 FU SCT040 BKN100 22/08 Q1010 BECMG 1500 FU=
202001271030 METAR VIDP 271030Z 06007KT 1200 R28/1800 R29/P2000 FU SCT040 BKN100 22/09 Q1010 NOSIG=
202001271000 METAR VIDP 271000Z 06007KT 1200 R28/1600 R29/1700 FU SCT100 22/09 Q1010 NOSIG=
202001270930 METAR VIDP 270930Z 07005KT 1200 R28/1200 R29/1500 FU SCT100 22/09 Q1010 NOSIG=
202001270900 METAR VIDP 270900Z 09005KT 1500 R28/1500 R29/P2000 FU SCT040 BKN100 21/09 Q1011 NOSIG=
202001270830 METAR VIDP 270830Z 03005KT 1500 R28/1800 R29/P2000 FU SCT040 BKN100 21/09 Q1011 NOSIG=
202001270800 METAR VIDP 270800Z 05004KT 1500 R28/P2000 R29/P2000 FU FEW040 SCT100 21/09 Q1012 NOSIG=
202001270730 METAR VIDP 270730Z 07004KT 1500 R28/1900 R29/P2000 FU FEW040 SCT100 21/09 Q1012 NOSIG=
202001270700 METAR VIDP 270700Z 00000KT 1300 R28/1500 R29/P2000 FU SCT040 BKN100 20/10 Q1013 BECMG 1500 FU=
202001270630 METAR VIDP 270630Z 13004KT 1300 R28/1600 R29/P2000 FU SCT035 BKN100 18/11 Q1013 NOSIG=
202001270600 METAR VIDP 270600Z 12004KT 1200 R28/1300 R29/P2000 FU SCT035 BKN100 17/12 Q1014 NOSIG=
202001270530 METAR VIDP 270530Z 06004KT 1000 R28/1400 R29/P2000 BR SCT035 BKN100 16/13 Q1014 NOSIG=
202001270500 METAR VIDP 270500Z 00000KT 1000 R28/1200 R29/P2000 BR SCT035 BKN100 16/13 Q1014 NOSIG=
202001270430 METAR VIDP 270430Z 00000KT 1000 R28/1200 R29/1600 BR SCT035 BKN100 15/13 Q1014 NOSIG=
202001270400 METAR VIDP 270400Z 00000KT 1000 R28/1400 R29/1500 BR SCT035 BKN100 14/13 Q1014 NOSIG=
202001270330 METAR VIDP 270330Z 00000KT 1000 R28/1200 R29/1700 BR SCT035 BKN100 13/12 Q1014 NOSIG=
202001270300 METAR VIDP 270300Z 00000KT 1000 R28/1400 R29/1600 BR SCT040 BKN100 13/12 Q1014 NOSIG=
202001270230 METAR VIDP 270230Z 00000KT 1000 R28/1500 R29/1900 BR SCT040 BKN100 12/10 Q1013 NOSIG=
202001270200 METAR VIDP 270200Z 00000KT 1200 R28/2000 R29/2000 BR SCT100 11/09 Q1013 NOSIG=
202001270130 METAR VIDP 270130Z 06003KT 1200 R28/2000 R29/2000 BR FEW100 11/09 Q1012 NOSIG=
202001270100 METAR VIDP 270100Z 07003KT 1200 R28/2000 R29/2000 BR FEW100 12/11 Q1012 NOSIG=
202001270030 METAR VIDP 270030Z 02004KT 1200 R28/2000 R29/2000 BR FEW100 12/10 Q1011 NOSIG=
202001270000 METAR VIDP 270000Z 03004KT 1200 R28/2000 R29/2000 BR FEW100 12/10 Q1011 NOSIG=
202001262330 METAR VIDP 262330Z 04004KT 1200 R28/P2000 R29/P2000 BR NSC 12/10 Q1011 NOSIG=
202001262300 METAR VIDP 262300Z 00000KT 1200 R28/P2000 R29/P2000 BR NSC 12/10 Q1012 NOSIG=
202001262230 METAR VIDP 262230Z 00000KT 1500 R28/P2000 R29/P2000 BR NSC 12/10 Q1012 NOSIG=
202001262200 METAR VIDP 262200Z 00000KT 1500 R28/2000 R29/2000 BR NSC 12/10 Q1012 NOSIG=
202001262130 METAR VIDP 262130Z 00000KT 1500 R28/2000 R29/2000 BR NSC 12/10 Q1012 NOSIG=
202001262100 METAR VIDP 262100Z 00000KT 1500 R28/2000 R29/2000 BR NSC 12/10 Q1012 NOSIG=
202001262030 METAR VIDP 262030Z 00000KT 1500 R28/P2000 R29/P2000 BR NSC 12/10 Q1012 NOSIG=
202001262000 METAR VIDP 262000Z 00000KT 1500 R28/P2000 R29/P2000 BR NSC 12/10 Q1013 NOSIG=
202001261930 METAR VIDP 261930Z 19004KT 1500 R28/P2000 R29/P2000 BR NSC 12/10 Q1013 NOSIG=
202001261900 METAR VIDP 261900Z 00000KT 1500 R28/P2000 R29/P2000 BR NSC 12/09 Q1013 NOSIG=
202001261830 METAR VIDP 261830Z 00000KT 1600 R28/P2000 R29/P2000 BR NSC 12/08 Q1013 BECMG 1500 BR=
202001261800 METAR VIDP 261800Z 00000KT 1600 R28/2000 R29/2000 FU NSC 12/07 Q1013 NOSIG=
202001261730 METAR VIDP 261730Z 00000KT 1600 R28/2000 R29/2000 FU NSC 12/07 Q1013 NOSIG=
202001261700 METAR VIDP 261700Z 00000KT 2000 HZ NSC 12/07 Q1014 NOSIG=
202001261630 METAR VIDP 261630Z 00000KT 2200 HZ NSC 13/07 Q1014 NOSIG=
202001261600 METAR VIDP 261600Z 00000KT 2200 HZ NSC 14/08 Q1014 NOSIG=
202001261530 METAR VIDP 261530Z 00000KT 2200 HZ NSC 14/08 Q1014 NOSIG=
202001261500 METAR VIDP 261500Z 00000KT 2200 HZ NSC 14/09 Q1014 NOSIG=
202001261430 METAR VIDP 261430Z 00000KT 2200 HZ NSC 15/10 Q1013 NOSIG=
202001261400 METAR VIDP 261400Z 29003KT 2200 HZ NSC 16/10 Q1014 NOSIG=
202001261330 METAR VIDP 261330Z 30004KT 2200 HZ NSC 17/09 Q1014 NOSIG=
202001261300 METAR VIDP 261300Z 32005KT 2200 HZ NSC 19/08 Q1013 NOSIG=
202001261230 METAR VIDP 261230Z 32006KT 2200 HZ NSC 20/08 Q1013 NOSIG=
202001261200 METAR VIDP 261200Z 31007KT 2200 HZ NSC 20/08 Q1013 NOSIG=
202001261130 METAR VIDP 261130Z 30008KT 2200 HZ NSC 21/07 Q1013 NOSIG=
202001261100 METAR VIDP 261100Z 29008KT 2200 HZ NSC 21/07 Q1013 NOSIG=
202001261030 METAR VIDP 261030Z 29009KT 2200 HZ NSC 21/07 Q1013 NOSIG=
202001261000 METAR VIDP 261000Z 30008KT 2200 HZ NSC 21/07 Q1013 NOSIG=
202001260930 METAR VIDP 260930Z 30007KT 2200 HZ NSC 21/07 Q1013 NOSIG=
202001260900 METAR VIDP 260900Z 29007KT 2200 HZ NSC 21/07 Q1014 NOSIG=
202001260830 METAR VIDP 260830Z 28007KT 1800 R28/P2000 R29/P2000 FU NSC 20/07 Q1014 NOSIG=
202001260800 METAR VIDP 260800Z 27007KT 1800 R28/P2000 R29/P2000 FU NSC 21/07 Q1015 NOSIG=
202001260730 METAR VIDP 260730Z 26007KT 1800 R28/P2000 R29/P2000 FU NSC 20/07 Q1016 NOSIG=
202001260700 METAR VIDP 260700Z 26006KT 1600 R28/1800 R29/1800 FU NSC 19/09 Q1016 NOSIG=
202001260630 METAR VIDP 260630Z 25005KT 1500 R28/1700 R29/2000 FU NSC 18/10 Q1016 NOSIG=
202001260600 METAR VIDP 260600Z 27006KT 1300 R28/1600 R29/2000 FU NSC 17/10 Q1017 BECMG 1500 FU=
202001260530 METAR VIDP 260530Z 26005KT 1300 R28/1600 R29/2000 FU NSC 15/08 Q1017 BECMG 1500 FU=
202001260500 METAR VIDP 260500Z 25005KT 1200 R28/1400 R29/2000 FU NSC 14/08 Q1017 NOSIG=
202001260430 METAR VIDP 260430Z 25004KT 1200 R28/1400 R29/2000 FU NSC 14/08 Q1017 NOSIG=
202001260400 METAR VIDP 260400Z 26004KT 0900 R28/1300 R29/2000 MIFG NSC 12/08 Q1017 NOSIG=
202001260330 METAR VIDP 260330Z 24005KT 0800 R28/1400 R29/2000 MIFG NSC 11/09 Q1016 NOSIG=
202001260300 METAR VIDP 260300Z 00000KT 0600 R28/1200 R29/1500 MIFG NSC 10/08 Q1016 BECMG 0800 MIFG=
202001260230 METAR VIDP 260230Z 00000KT 0600 R28/1300 R29/1600 MIFG NSC 09/08 Q1016 NOSIG=
202001260200 METAR VIDP 260200Z 00000KT 0600 R28/1600 R29/1800 MIFG NSC 09/09 Q1015 NOSIG=
202001260130 METAR VIDP 260130Z 00000KT 0800 R28/P2000 R29/P2000 MIFG FEW100 09/09 Q1015 TEMPO 0600 MIFG=
202001260100 METAR VIDP 260100Z 00000KT 0800 R28/P2000 R29/P2000 MIFG FEW100 09/09 Q1014 TEMPO 0600 MIFG=
202001260030 METAR VIDP 260030Z 00000KT 0800 R28/P2000 R29/P2000 MIFG FEW100 10/10 Q1014 NOSIG=
202001260000 METAR VIDP 260000Z 00000KT 0800 R28/P2000 R29/P2000 MIFG FEW100 10/10 Q1014 NOSIG=
202001252330 METAR VIDP 252330Z 25004KT 0800 R28/P2000 R29/P2000 MIFG FEW100 10/10 Q1014 NOSIG=
202001252300 METAR VIDP 252300Z 25004KT 0800 R28/P2000 R29/P2000 MIFG FEW100 10/10 Q1014 NOSIG=
202001252230 METAR VIDP 252230Z 00000KT 0800 R28/P2000 R29/P2000 MIFG FEW100 10/10 Q1014 NOSIG=
202001252200 METAR VIDP 252200Z 00000KT 0800 R28/P2000 R29/P2000 MIFG FEW100 10/10 Q1014 NOSIG=
202001252130 METAR VIDP 252130Z 00000KT 0800 R28/P2000 R29/P2000 MIFG FEW100 10/10 Q1014 NOSIG=
202001252100 METAR VIDP 252100Z 00000KT 0800 R28/P2000 R29/P2000 MIFG FEW100 11/10 Q1014 NOSIG=
202001252030 METAR VIDP 252030Z 00000KT 1000 R28/P2000 R29/P2000 BR FEW100 11/10 Q1015 BECMG 0800 MIFG=
202001252000 METAR VIDP 252000Z 00000KT 1000 R28/P2000 R29/P2000 BR FEW100 11/10 Q1015 BECMG 0800 MIFG=
202001251930 METAR VIDP 251930Z 00000KT 1000 R28/P2000 R29/P2000 BR FEW100 11/09 Q1015 BECMG 0800 MIFG=
202001251900 METAR VIDP 251900Z 00000KT 1000 R28/P2000 R29/P2000 BR FEW100 12/09 Q1015 BECMG 0800 MIFG=
202001251830 METAR VIDP 251830Z 00000KT 1000 R28/P2000 R29/P2000 BR FEW100 12/09 Q1016 NOSIG=
202001251800 METAR VIDP 251800Z 00000KT 1000 R28/P2000 R29/P2000 BR FEW100 13/09 Q1016 NOSIG=
202001251730 METAR VIDP 251730Z 00000KT 1200 R28/P2000 R29/P2000 BR FEW100 13/09 Q1016 NOSIG=
202001251700 METAR VIDP 251700Z 00000KT 1500 R28/P2000 R29/P2000 BR FEW100 13/09 Q1016 NOSIG=
202001251630 METAR VIDP 251630Z 00000KT 1500 R28/P2000 R29/P2000 HZ FEW100 14/09 Q1016 NOSIG=
202001251600 METAR VIDP 251600Z 00000KT 1500 R28/P2000 R29/P2000 HZ FEW100 14/08 Q1016 NOSIG=
202001251530 METAR VIDP 251530Z 00000KT 1800 R28/P2000 R29/P2000 HZ FEW100 14/07 Q1016 BECMG 1500 HZ=
202001251500 METAR VIDP 251500Z 00000KT 2200 HZ FEW100 15/08 Q1016 NOSIG=
202001251430 METAR VIDP 251430Z 00000KT 2500 HZ FEW100 16/08 Q1015 NOSIG=
202001251400 METAR VIDP 251400Z 31004KT 3000 HZ SCT100 17/08 Q1015 NOSIG=
202001251330 METAR VIDP 251330Z 30004KT 3000 HZ SCT100 17/07 Q1015 NOSIG=
202001251300 METAR VIDP 251300Z 30004KT 3000 HZ SCT100 18/06 Q1015 NOSIG=
202001251230 METAR VIDP 251230Z 29004KT 3000 HZ SCT100 18/06 Q1015 NOSIG=
202001251200 METAR VIDP 251200Z 30005KT 3000 HZ SCT100 18/06 Q1015 NOSIG=
202001251130 METAR VIDP 251130Z 31006KT 3000 HZ FEW100 19/05 Q1014 NOSIG=
202001251100 METAR VIDP 251100Z 30006KT 3500 HZ FEW100 19/05 Q1014 BECMG 3000=
202001251030 METAR VIDP 251030Z 29004KT 4000 HZ FEW100 19/05 Q1014 NOSIG=
202001251000 METAR VIDP 251000Z 28005KT 4000 HZ FEW100 19/05 Q1014 NOSIG=
202001250930 METAR VIDP 250930Z 28006KT 3500 HZ FEW100 19/04 Q1015 NOSIG=
202001250900 METAR VIDP 250900Z 30007KT 2800 HZ FEW100 19/04 Q1015 BECMG 3000 HZ=
202001250830 METAR VIDP 250830Z 30005KT 2500 HZ NSC 19/04 Q1015 NOSIG=
202001250800 METAR VIDP 250800Z 31005KT 2000 HZ NSC 19/05 Q1016 NOSIG=
202001250730 METAR VIDP 250730Z 30005KT 2000 HZ NSC 18/05 Q1017 NOSIG=
202001250700 METAR VIDP 250700Z 32005KT 2000 HZ NSC 17/05 Q1017 NOSIG=
202001250630 METAR VIDP 250630Z 30004KT 2000 HZ NSC 16/06 Q1018 NOSIG=
202001250600 METAR VIDP 250600Z 30004KT 1500 R28/P2000 R29/P2000 HZ NSC 15/07 Q1018 NOSIG=
202001250530 METAR VIDP 250530Z 30005KT 1500 R28/1800 R29/P2000 HZ NSC 14/07 Q1019 NOSIG=
202001250500 METAR VIDP 250500Z 28005KT 1500 R28/1900 R29/P2000 HZ NSC 13/07 Q1019 NOSIG=
202001250430 METAR VIDP 250430Z 25004KT 1500 R28/1600 R29/P2000 BR NSC 12/08 Q1018 NOSIG=
202001250400 METAR VIDP 250400Z 23004KT 1200 R28/1700 R29/P2000 BR NSC 11/09 Q1018 BECMG 1500 BR=
202001250330 METAR VIDP 250330Z 24004KT 1200 R28/1600 R29/P2000 BR NSC 10/09 Q1018 NOSIG=
202001250300 METAR COR VIDP 250300Z 00000KT 1200 R28/1500 R29/P2000 BR NSC 09/08 Q1018 NOSIG=
202001250230 METAR VIDP 250230Z 26003KT 1200 R28/1500 R29/P2000 BR NSC 08/08 Q1017 NOSIG=
202001250200 METAR VIDP 250200Z 00000KT 1500 R28/P2000 R29/P2000 BR NSC 08/08 Q1017 NOSIG=
202001250130 METAR VIDP 250130Z 23004KT 1800 R28/P2000 R29/P2000 BR NSC 08/08 Q1016 BECMG 1500 BR=
202001250100 METAR VIDP 250100Z 00000KT 2200 BR NSC 09/07 Q1015 NOSIG=
202001250030 METAR VIDP 250030Z 00000KT 2200 BR NSC 09/07 Q1015 NOSIG=
202001250000 METAR VIDP 250000Z 00000KT 2200 BR NSC 09/07 Q1015 NOSIG=
202001242330 METAR VIDP 242330Z 00000KT 2200 BR NSC 10/07 Q1016 NOSIG=
202001242300 METAR VIDP 242300Z 00000KT 2200 BR NSC 10/07 Q1016 NOSIG=
202001242230 METAR VIDP 242230Z 00000KT 2200 BR NSC 10/07 Q1016 NOSIG=
202001242200 METAR VIDP 242200Z 00000KT 2200 BR NSC 10/07 Q1016 NOSIG=
202001242130 METAR VIDP 242130Z 00000KT 2200 BR NSC 10/07 Q1016 NOSIG=
202001242100 METAR VIDP 242100Z 00000KT 2200 BR NSC 10/07 Q1016 NOSIG=
202001242030 METAR VIDP 242030Z 00000KT 2200 BR NSC 11/07 Q1017 NOSIG=
202001242000 METAR VIDP 242000Z 00000KT 2500 HZ NSC 12/07 Q1017 NOSIG=
202001241930 METAR VIDP 241930Z 00000KT 2500 HZ NSC 12/07 Q1017 NOSIG=
202001241900 METAR VIDP 241900Z 00000KT 2500 HZ NSC 12/07 Q1017 NOSIG=
202001241830 METAR VIDP 241830Z 00000KT 2500 HZ NSC 12/06 Q1017 NOSIG=
202001241800 METAR VIDP 241800Z 00000KT 2500 HZ NSC 12/06 Q1017 NOSIG=
202001241730 METAR VIDP 241730Z 00000KT 2500 HZ NSC 13/06 Q1017 NOSIG=
202001241700 METAR VIDP 241700Z 00000KT 2500 HZ NSC 13/06 Q1017 NOSIG=
202001241630 METAR VIDP 241630Z 00000KT 3000 HZ NSC 13/05 Q1017 NOSIG=
202001241600 METAR VIDP 241600Z 00000KT 3000 HZ NSC 14/05 Q1017 NOSIG=
202001241530 METAR VIDP 241530Z 29003KT 3000 HZ NSC 14/05 Q1016 NOSIG=
202001241500 METAR VIDP 241500Z 29004KT 3000 HZ NSC 14/05 Q1016 NOSIG=
202001241430 METAR VIDP 241430Z 27004KT 3000 HZ NSC 14/05 Q1016 NOSIG=
202001241400 METAR VIDP 241400Z 27006KT 3000 HZ NSC 15/05 Q1015 NOSIG=
202001241330 METAR VIDP 241330Z 26005KT 3200 HZ NSC 16/05 Q1015 BECMG 3000 HZ=
202001241300 METAR VIDP 241300Z 27005KT 3500 HZ NSC 16/05 Q1014 NOSIG=
202001241230 METAR VIDP 241230Z 25006KT 4000 HZ FEW100 17/05 Q1014 NOSIG=
202001241200 METAR VIDP 241200Z 25008KT 4000 HZ FEW100 18/05 Q1014 NOSIG=
202001241130 METAR VIDP 241130Z 26009KT 4000 HZ FEW100 19/05 Q1014 NOSIG=
202001241100 METAR VIDP 241100Z 28012KT 4000 HZ SCT100 19/05 Q1014 NOSIG=
202001241030 METAR VIDP 241030Z 26013KT 4000 HZ SCT100 19/05 Q1014 NOSIG=
202001241000 METAR VIDP 241000Z 27006G16KT 4000 HZ SCT100 20/05 Q1014 NOSIG=
202001240930 METAR VIDP 240930Z 26006G16KT 4000 HZ SCT100 20/05 Q1014 NOSIG=
202001240900 METAR VIDP 240900Z 26005G15KT 4000 HZ SCT100 19/04 Q1014 NOSIG=
202001240830 METAR VIDP 240830Z 26005G15KT 4000 HZ SCT100 19/04 Q1014 NOSIG=
202001240800 METAR VIDP 240800Z 28007G17KT 3500 HZ SCT100 18/04 Q1015 NOSIG=
202001240730 METAR VIDP 240730Z 28006G16KT 3500 HZ SCT100 18/04 Q1015 NOSIG=
202001240700 METAR VIDP 240700Z 28006G16KT 2800 HZ SCT100 17/04 Q1016 BECMG 3000 HZ=
202001240630 METAR VIDP 240630Z 28007G17KT 2500 HZ SCT100 17/04 Q1017 NOSIG=
202001240600 METAR VIDP 240600Z 28006G16KT 2500 HZ SCT100 16/05 Q1017 NOSIG=
202001240530 METAR VIDP 240530Z 26012KT 2200 HZ SCT100 15/05 Q1017 NOSIG=
202001240500 METAR VIDP 240500Z 28012KT 2200 HZ SCT100 14/05 Q1017 NOSIG=
202001240430 METAR VIDP 240430Z 27010KT 1600 R28/P2000 R29/P2000 HZ SCT100 12/06 Q1017 NOSIG=
202001240400 METAR VIDP 240400Z 28010KT 1600 R28/P2000 R29/P2000 BR SCT100 11/07 Q1017 NOSIG=
202001240330 METAR VIDP 240330Z 27009KT 1500 R28/P2000 R29/P2000 BR SCT100 09/08 Q1017 NOSIG=
202001240300 METAR VIDP 240300Z 27008KT 1500 R28/P2000 R29/P2000 BR SCT100 08/07 Q1017 NOSIG=
202001240230 METAR VIDP 240230Z 26008KT 1300 R28/P2000 R29/P2000 BR SCT100 07/06 Q1017 BECMG 1500 BR=
202001240200 METAR VIDP 240200Z 27007KT 1300 R28/P2000 R29/P2000 BR SCT100 07/05 Q1016 BECMG 1500 BR=
202001240130 METAR VIDP 240130Z 26006KT 1300 R28/P2000 R29/P2000 BR FEW100 07/06 Q1016 NOSIG=
202001240100 METAR VIDP 240100Z 26007KT 1300 R28/P2000 R29/P2000 BR NSC 06/06 Q1016 NOSIG=
202001240030 METAR VIDP 240030Z 25007KT 1800 R28/P2000 R29/P2000 BR NSC 07/06 Q1016 BECMG 1500 BR=
202001240000 METAR VIDP 240000Z 26006KT 1800 R28/P2000 R29/P2000 BR NSC 07/06 Q1016 BECMG 1500 BR=
202001232330 METAR VIDP 232330Z 26008KT 1800 R28/P2000 R29/P2000 BR NSC 07/06 Q1016 BECMG 1500 BR=
202001232300 METAR VIDP 232300Z 26007KT 2000 R28/P2000 R29/P2000 BR NSC 07/06 Q1016 NOSIG=
202001232230 METAR VIDP 232230Z 25008KT 2200 BR NSC 08/06 Q1016 NOSIG=
202001232200 METAR VIDP 232200Z 25008KT 2200 BR NSC 08/07 Q1017 NOSIG=
202001232130 METAR VIDP 232130Z 27008KT 2500 BR NSC 09/07 Q1017 NOSIG=
202001232100 METAR VIDP 232100Z 26006KT 2500 BR NSC 08/07 Q1017 NOSIG=
202001232030 METAR VIDP 232030Z 26006KT 2500 BR NSC 09/07 Q1018 NOSIG=
202001232000 METAR VIDP 232000Z 26005KT 2500 BR NSC 09/07 Q1018 NOSIG=
202001231930 METAR VIDP 231930Z 25005KT 2500 BR NSC 09/07 Q1018 NOSIG=
202001231900 METAR VIDP 231900Z 27006KT 2500 BR NSC 10/07 Q1018 NOSIG=
202001231830 METAR VIDP 231830Z 27006KT 2500 BR NSC 10/07 Q1018 NOSIG=
202001231800 METAR VIDP 231800Z 26006KT 2500 BR NSC 10/07 Q1019 NOSIG=
202001231730 METAR COR VIDP 231730Z 26006KT 3000 HZ NSC 10/07 Q1019 NOSIG=
202001231700 METAR VIDP 231700Z 28007KT 3000 HZ NSC 10/07 Q1019 NOSIG=
202001231630 METAR VIDP 231630Z 27007KT 3000 HZ NSC 11/08 Q1019 NOSIG=
202001231600 METAR VIDP 231600Z 26006KT 3000 HZ NSC 12/07 Q1018 NOSIG=
202001231530 METAR VIDP 231530Z 25007KT 3000 HZ NSC 12/07 Q1018 NOSIG=
202001231500 METAR VIDP 231500Z 25006KT 3000 HZ NSC 12/07 Q1018 NOSIG=
202001231430 METAR VIDP 231430Z 26006KT 3000 HZ NSC 12/06 Q1018 NOSIG=
202001231400 METAR VIDP 231400Z 26007KT 3000 HZ NSC 14/06 Q1018 NOSIG=
202001231330 METAR VIDP 231330Z 27007KT 3000 HZ NSC 14/06 Q1018 NOSIG=
202001231300 METAR VIDP 231300Z 28007KT 3200 HZ NSC 15/05 Q1018 BECMG 3000 HZ=
202001231230 METAR VIDP 231230Z 30008KT 3500 HZ NSC 16/05 Q1017 NOSIG=
202001231200 METAR VIDP 231200Z 29010KT 3500 HZ NSC 17/04 Q1017 NOSIG=
202001231130 METAR VIDP 231130Z 29008G18KT 4000 HZ NSC 17/04 Q1017 NOSIG=
202001231100 METAR VIDP 231100Z 28010G20KT 4000 HZ NSC 18/04 Q1017 NOSIG=
202001231030 METAR VIDP 231030Z 28010G20KT 4000 HZ NSC 18/03 Q1017 NOSIG=
202001231000 METAR VIDP 231000Z 27008G18KT 4000 HZ NSC 19/03 Q1017 NOSIG=
202001230930 METAR VIDP 230930Z 30010G20KT 4000 HZ NSC 19/03 Q1017 NOSIG=
202001230900 METAR VIDP 230900Z 29010G20KT 3500 HZ NSC 19/04 Q1018 NOSIG=
202001230830 METAR VIDP 230830Z 28010G20KT 2800 HZ NSC 19/05 Q1018 BECMG 3000 HZ=
202001230800 METAR VIDP 230800Z 29007G17KT 2200 HZ NSC 18/04 Q1018 NOSIG=
202001230730 METAR VIDP 230730Z 29007G17KT 2200 HZ NSC 18/04 Q1019 NOSIG=
202001230700 METAR COR VIDP 230700Z 30007G17KT 1700 R28/P2000 R29/1800 HZ NSC 17/05 Q1019 NOSIG=
202001230630 METAR VIDP 230630Z 30011KT 1300 R28/1500 R29/P2000 HZ NSC 17/06 Q1020 BECMG 1500 HZ=
202001230600 METAR VIDP 230600Z 29011KT 1200 R28/1400 R29/1900 HZ NSC 16/07 Q1020 NOSIG=
202001230530 METAR VIDP 230530Z 29010KT 1200 R28/1400 R29/P2000 HZ NSC 15/07 Q1020 NOSIG=
202001230500 METAR VIDP 230500Z 30009KT 1200 R28/1300 R29/P2000 HZ NSC 14/08 Q1020 NOSIG=
202001230430 METAR VIDP 230430Z 30009KT 1200 R28/1300 R29/P2000 HZ NSC 13/08 Q1020 NOSIG=
202001230400 METAR VIDP 230400Z 29009KT 1000 R28/1300 R29/1900 BR NSC 12/09 Q1020 NOSIG=
202001230330 METAR VIDP 230330Z 28008KT 1000 R28/1200 R29/1800 BR NSC 11/10 Q1020 NOSIG=
202001230300 METAR VIDP 230300Z 27007KT 0800 R28/1300 R29/1500 MIFG NSC 10/09 Q1019 NOSIG=
202001230230 METAR VIDP 230230Z 27006KT 0800 R28/1300 R29/1500 MIFG NSC 09/08 Q1019 NOSIG=
202001230200 METAR VIDP 230200Z 27006KT 0800 R28/P2000 R29/P2000 MIFG NSC 09/08 Q1019 NOSIG=
202001230130 METAR VIDP 230130Z 26006KT 0800 R28/P2000 R29/P2000 MIFG NSC 09/08 Q1019 NOSIG=
202001230100 METAR VIDP 230100Z 27006KT 0800 R28/P2000 R29/P2000 MIFG NSC 09/08 Q1018 NOSIG=
202001230030 METAR VIDP 230030Z 25005KT 0800 R28/P2000 R29/P2000 MIFG NSC 09/08 Q1018 NOSIG=
202001230000 METAR VIDP 230000Z 27005KT 0800 R28/P2000 R29/P2000 MIFG NSC 09/08 Q1018 NOSIG=
202001222330 METAR VIDP 222330Z 26005KT 0800 R28/P2000 R29/P2000 MIFG NSC 09/08 Q1018 NOSIG=
202001222300 METAR VIDP 222300Z 28007KT 1000 R28/P2000 R29/P2000 BR NSC 09/08 Q1018 BECMG 0800 MIFG=
202001222230 METAR VIDP 222230Z 28005KT 1200 R28/P2000 R29/P2000 BR FEW100 09/08 Q1018 NOSIG=
202001222200 METAR VIDP 222200Z 27006KT 1500 R28/P2000 R29/P2000 BR FEW100 09/08 Q1019 NOSIG=
202001222130 METAR VIDP 222130Z 28006KT 1500 R28/P2000 R29/P2000 BR FEW100 09/08 Q1019 NOSIG=
202001222100 METAR VIDP 222100Z 27006KT 1500 R28/P2000 R29/P2000 BR FEW100 09/08 Q1019 NOSIG=
202001222030 METAR VIDP 222030Z 28006KT 1500 R28/P2000 R29/P2000 BR FEW100 09/08 Q1019 NOSIG=
202001222000 METAR VIDP 222000Z 27006KT 1500 R28/P2000 R29/P2000 BR FEW100 10/09 Q1019 NOSIG=
202001221930 METAR VIDP 221930Z 26006KT 1500 R28/P2000 R29/P2000 BR FEW100 10/09 Q1019 NOSIG=
202001221900 METAR VIDP 221900Z 26006KT 1500 R28/P2000 R29/P2000 BR FEW100 10/09 Q1020 NOSIG=
202001221830 METAR VIDP 221830Z 27006KT 1500 R28/P2000 R29/P2000 BR FEW100 11/10 Q1020 NOSIG=
202001221800 METAR VIDP 221800Z 25004KT 1500 R28/P2000 R29/P2000 BR FEW100 11/10 Q1020 NOSIG=
202001221730 METAR VIDP 221730Z 25004KT 1500 R28/P2000 R29/P2000 BR FEW100 11/10 Q1020 NOSIG=
202001221700 METAR VIDP 221700Z 25005KT 1500 R28/P2000 R29/P2000 BR FEW100 11/10 Q1020 NOSIG=
202001221630 METAR VIDP 221630Z 26005KT 1500 R28/P2000 R29/P2000 BR FEW100 12/10 Q1020 NOSIG=
202001221600 METAR VIDP 221600Z 26005KT 1500 R28/P2000 R29/P2000 BR FEW100 12/10 Q1020 NOSIG=
202001221530 METAR VIDP 221530Z 25004KT 1500 R28/P2000 R29/P2000 BR FEW100 12/10 Q1020 NOSIG=
202001221500 METAR VIDP 221500Z 27004KT 1500 R28/P2000 R29/P2000 BR FEW100 12/10 Q1020 NOSIG=
202001221430 METAR VIDP 221430Z 26003KT 1500 R28/P2000 R29/P2000 BR FEW100 13/11 Q1020 NOSIG=
202001221400 METAR VIDP 221400Z 26003KT 1500 R28/P2000 R29/P2000 BR FEW100 13/11 Q1020 NOSIG=
202001221330 METAR VIDP 221330Z 25003KT 1500 R28/P2000 R29/P2000 BR FEW100 13/11 Q1019 NOSIG=
202001221300 METAR VIDP 221300Z 26005KT 1200 R28/P2000 R29/P2000 BR FEW100 14/12 Q1019 BECMG 1500 BR=
202001221230 METAR VIDP 221230Z 26006KT 1200 R28/1600 R29/1900 BR FEW100 14/12 Q1019 NOSIG=
202001221200 METAR VIDP 221200Z 27006KT 1200 R28/1300 R29/1500 BR FEW100 15/13 Q1019 NOSIG=
202001221130 METAR VIDP 221130Z 27007KT 1200 R28/1200 R29/1300 BR FEW100 16/13 Q1019 NOSIG=
202001221100 METAR VIDP 221100Z 27008KT 1000 R28/1200 R29/1300 BR FEW100 16/13 Q1019 NOSIG=
202001221030 METAR VIDP 221030Z 28008KT 1000 R28/1200 R29/1200 BR FEW100 15/13 Q1019 NOSIG=
202001221000 METAR VIDP 221000Z 27006KT 1000 R28/1200 R29/1200 BR FEW100 14/12 Q1019 NOSIG=
202001220930 METAR VIDP 220930Z 27008KT 1000 R28/1100 R29/1200 BR FEW100 14/12 Q1020 NOSIG=
202001220900 METAR VIDP 220900Z 27008KT 1000 R28/1000 R29/1100 BR FEW100 14/12 Q1020 NOSIG=
202001220830 METAR VIDP 220830Z 27007KT 1000 R28/1000 R29/1000 BR NSC 14/12 Q1020 NOSIG=
202001220800 METAR VIDP 220800Z 26008KT 0900 R28/1000 R29/1000 MIFG NSC 13/11 Q1021 NOSIG=
202001220730 METAR VIDP 220730Z 27007KT 0900 R28/1000 R29/1200 MIFG NSC 13/11 Q1021 NOSIG=
202001220700 METAR VIDP 220700Z 26007KT 0700 R28/1100 R29/1200 MIFG NSC 12/11 Q1022 BECMG 0800 MIFG=
202001220630 METAR VIDP 220630Z 25006KT 0700 R28/1000 R29/1100 MIFG NSC 12/11 Q1022 NOSIG=
202001220600 METAR VIDP 220600Z 27006KT 0500 R28/0900 R29/1000 FG NSC 10/10 Q1023 BECMG 0600 MIFG=
202001220530 METAR VIDP 220530Z 26005KT 0400 R28/0700 R29/0750 FG NSC 10/10 Q1023 NOSIG=
202001220500 METAR VIDP 220500Z 26005KT 0200 R28/0750 R29/0350 FG VV/// 09/09 Q1023 BECMG 0350 FG=
202001220430 METAR VIDP 220430Z 26005KT 0050 R28/0300 R29/0150 FG VV/// 09/09 Q1023 BECMG 0150 FG=
202001220400 METAR VIDP 220400Z 26005KT 0050 R28/0400 R29/0125 FG VV/// 09/09 Q1023 BECMG 0150 FG=
202001220330 METAR VIDP 220330Z 27005KT 0000 R28/0200 R29/0125 FG VV/// 09/09 Q1022 BECMG 0150 FG=
202001220300 METAR VIDP 220300Z 28005KT 0000 R28/0200 R29/0125 FG VV/// 09/09 Q1022 NOSIG=
202001220230 METAR VIDP 220230Z 27005KT 0050 R28/0250 R29/0100 FG VV/// 09/09 Q1021 NOSIG=
202001220200 METAR VIDP 220200Z 30005KT 0050 R28/0200 R29/0150 FG VV/// 09/09 Q1021 NOSIG=
202001220130 METAR VIDP 220130Z 27004KT 0050 R28/0200 R29/0150 FG VV/// 09/09 Q1020 NOSIG=
202001220100 METAR VIDP 220100Z 26005KT 0000 R28/0150 R29/0150 FG VV/// 09/09 Q1020 NOSIG=
202001220030 METAR VIDP 220030Z 26004KT 0000 R28/0125 R29/0100 FG VV/// 09/09 Q1019 NOSIG=
202001220000 METAR VIDP 220000Z 26004KT 0000 R28/0125 R29/0125 FG VV/// 09/09 Q1019 NOSIG=
202001212330 METAR VIDP 212330Z 24003KT 0000 R28/0100 R29/0125 FG VV/// 09/09 Q1019 NOSIG=
202001212300 METAR VIDP 212300Z 23003KT 0000 R28/0125 R29/0100 FG VV/// 09/09 Q1019 NOSIG=
202001212230 METAR VIDP 212230Z 00000KT 0050 R28/1000 R29/0100 FG VV/// 09/09 Q1019 NOSIG=
202001212200 METAR VIDP 212200Z 00000KT 0200 R28/1000 R29/0250 FG VV/// 10/10 Q1019 NOSIG=
202001212130 METAR VIDP 212130Z 00000KT 0250 R28/1000 R29/0700 FG VV/// 10/10 Q1019 NOSIG=
202001212100 METAR VIDP 212100Z 00000KT 0250 R28/1400 R29/0900 FG VV/// 10/10 Q1020 NOSIG=
202001212030 METAR VIDP 212030Z 00000KT 0350 R28/1100 R29/1100 FG NSC 11/11 Q1020 NOSIG=
202001212000 METAR VIDP 212000Z 00000KT 0350 R28/1200 R29/0900 FG NSC 11/11 Q1020 NOSIG=
202001211930 METAR VIDP 211930Z 00000KT 0400 R28/1200 R29/0900 FG NSC 11/11 Q1020 BECMG 0350 FG=
202001211900 METAR VIDP 211900Z 00000KT 0500 R28/1400 R29/0800 MIFG NSC 11/11 Q1020 NOSIG=
202001211830 METAR VIDP 211830Z 00000KT 0700 R28/1500 R29/1500 MIFG NSC 12/12 Q1020 BECMG 0600 MIFG=
202001211800 METAR VIDP 211800Z 00000KT 0700 R28/1500 R29/1600 MIFG NSC 12/12 Q1020 BECMG 0600 MIFG=
202001211730 METAR VIDP 211730Z 00000KT 0800 R28/1600 R29/1500 MIFG FEW100 12/12 Q1020 NOSIG=
202001211700 METAR VIDP 211700Z 00000KT 0800 R28/1600 R29/1600 MIFG FEW100 12/12 Q1020 NOSIG=
202001211630 METAR VIDP 211630Z 00000KT 0900 R28/1500 R29/P2000 MIFG FEW100 13/12 Q1020 BECMG 0800 MIFG=
202001211600 METAR VIDP 211600Z 07004KT 1000 R28/1800 R29/P2000 BR SCT100 13/12 Q1020 NOSIG=
202001211530 METAR VIDP 211530Z 07004KT 1200 R28/P2000 R29/P2000 BR SCT100 13/12 Q1020 NOSIG=
202001211500 METAR VIDP 211500Z 07003KT 1200 R28/P2000 R29/P2000 BR FEW040 SCT100 13/12 Q1020 NOSIG=
202001211430 METAR VIDP 211430Z 00000KT 1200 R28/P2000 R29/P2000 BR FEW040 SCT100 14/12 Q1019 NOSIG=
202001211400 METAR VIDP 211400Z 11003KT 1200 R28/P2000 R29/P2000 BR FEW040 SCT100 15/11 Q1019 NOSIG=
202001211330 METAR VIDP 211330Z 12004KT 1200 R28/P2000 R29/P2000 FU FEW040 SCT100 16/11 Q1019 NOSIG=
202001211300 METAR VIDP 211300Z 11006KT 1200 R28/P2000 R29/P2000 FU FEW040 SCT100 16/10 Q1018 NOSIG=
202001211230 METAR VIDP 211230Z 12005KT 1200 R28/P2000 R29/1900 FU FEW040 SCT100 16/10 Q1018 NOSIG=
202001211200 METAR VIDP 211200Z 12006KT 1100 R28/1500 R29/1700 FU FEW040 SCT100 17/11 Q1018 NOSIG=
202001211130 METAR VIDP 211130Z 10005KT 1200 R28/1300 R29/1800 FU FEW040 SCT100 17/10 Q1018 NOSIG=
202001211100 METAR VIDP 211100Z 10006KT 1200 R28/1300 R29/1500 FU FEW040 SCT100 17/11 Q1017 NOSIG=
202001211030 METAR VIDP 211030Z 15006KT 1200 R28/1300 R29/1500 FU FEW040 SCT100 18/10 Q1017 NOSIG=
202001211000 METAR VIDP 211000Z 09005KT 1200 R28/1200 R29/1400 FU FEW040 SCT100 18/10 Q1017 NOSIG=
202001210930 METAR VIDP 210930Z 12005KT 1200 R28/1200 R29/1400 FU FEW040 SCT100 18/10 Q1017 NOSIG=
202001210900 METAR VIDP 210900Z 09004KT 1200 R28/1200 R29/1300 FU FEW040 SCT100 19/10 Q1018 NOSIG=
202001210830 METAR VIDP 210830Z 00000KT 1200 R28/1200 R29/1200 FU SCT040 BKN100 19/11 Q1018 NOSIG=
202001210800 METAR VIDP 210800Z 15003KT 1300 R28/1300 R29/1300 FU SCT040 BKN100 18/13 Q1018 BECMG 1500 FU=
202001210730 METAR VIDP 210730Z 15003KT 1200 R28/1200 R29/1200 FU SCT040 BKN100 18/13 Q1018 BECMG 1500 FU=
202001210700 METAR VIDP 210700Z 14003KT 1000 R28/1100 R29/1200 BR SCT040 BKN100 17/13 Q1019 BECMG 1500 FU=
202001210630 METAR VIDP 210630Z 15006KT 0800 R28/0900 R29/1100 MIFG SCT040 BKN100 16/13 Q1019 NOSIG=
202001210600 METAR VIDP 210600Z 12005KT 0800 R28/0900 R29/1100 MIFG SCT040 BKN100 15/13 Q1019 NOSIG=
202001210530 METAR VIDP 210530Z 12007KT 0800 R28/0900 R29/1100 MIFG SCT040 BKN100 14/12 Q1019 NOSIG=
202001210500 METAR VIDP 210500Z 12005KT 0700 R28/0900 R29/0900 MIFG SCT040 BKN100 13/12 Q1020 BECMG 0800 MIFG=
202001210430 METAR VIDP 210430Z 10003KT 0600 R28/0800 R29/1000 MIFG SCT040 BKN100 12/11 Q1020 NOSIG=
202001210400 METAR VIDP 210400Z 10004KT 0600 R28/0800 R29/1000 MIFG SCT040 BKN100 12/11 Q1020 NOSIG=
202001210330 METAR VIDP 210330Z 05003KT 0600 R28/0800 R29/1000 MIFG SCT040 BKN100 11/11 Q1019 NOSIG=
202001210300 METAR VIDP 210300Z 11003KT 0500 R28/0800 R29/1000 MIFG SCT100 11/11 Q1019 TEMPO 0600 MIFG=
202001210230 METAR VIDP 210230Z 00000KT 0400 R28/0900 R29/1000 FG SCT100 11/11 Q1018 TEMPO 0600 MIFG=
202001210200 METAR VIDP 210200Z 00000KT 0200 R28/1100 R29/1200 FG VV/// 11/11 Q1018 BECMG 0350 FG=
202001210130 METAR VIDP 210130Z 12003KT 0200 R28/0850 R29/1150 FG VV/// 11/11 Q1017 BECMG 0350 FG=
202001210100 METAR VIDP 210100Z 00000KT 0200 R28/0600 R29/1050 FG VV/// 11/11 Q1017 BECMG 0150 FG=
202001210030 METAR VIDP 210030Z 00000KT 0350 R28/0600 R29/1000 FG VV/// 11/11 Q1017 NOSIG=
202001210000 METAR VIDP 210000Z 11003KT 0350 R28/0900 R29/1400 FG VV/// 11/11 Q1016 BECMG 0150 FG=
202001202330 METAR VIDP 202330Z 05004KT 0350 R28/1000 R29/1800 FG VV/// 11/11 Q1016 BECMG 0150 FG=
202001202300 METAR VIDP 202300Z 00000KT 0350 R28/1400 R29/2000 FG VV/// 11/11 Q1016 BECMG 0150 FG=
202001202230 METAR VIDP 202230Z 00000KT 0350 R28/1200 R29/1300 FG VV/// 11/11 Q1017=
202001202200 METAR VIDP 202200Z 00000KT 0350 R28/1150 R29/1500 FG FEW040 SCT100 11/11 Q1017=
202001202130 METAR VIDP 202130Z 13003KT 0500 R28/1200 R29/1400 FG FEW040 SCT100 11/11 Q1016 BECMG 0350 FG=
202001202100 METAR VIDP 202100Z 00000KT 0600 R28/1200 R29/1300 MIFG FEW040 SCT100 11/11 Q1017 NOSIG=
202001202030 METAR VIDP 202030Z 00000KT 0700 R28/1400 R29/1600 MIFG FEW040 SCT100 11/11 Q1017 BECMG 0600 MIFG=
202001202000 METAR VIDP 202000Z 00000KT 0700 R28/1600 R29/1500 MIFG FEW040 SCT100 11/11 Q1017 NOSIG=
202001201930 METAR VIDP 201930Z 15003KT 0800 R28/1800 R29/P2000 MIFG FEW040 SCT100 12/12 Q1017 NOSIG=
202001201900 METAR VIDP 201900Z 00000KT 0800 R28/1900 R29/1900 MIFG FEW040 SCT100 12/12 Q1017 NOSIG=
202001201830 METAR VIDP 201830Z 00000KT 0800 R28/1900 R29/P2000 MIFG FEW040 SCT100 12/12 Q1018 NOSIG=
202001201800 METAR VIDP 201800Z 00000KT 0800 R28/P2000 R29/P2000 MIFG FEW040 SCT100 12/12 Q1018 NOSIG=
202001201730 METAR VIDP 201730Z 00000KT 0800 R28/P2000 R29/P2000 MIFG FEW040 SCT100 12/12 Q1018 NOSIG=
202001201700 METAR VIDP 201700Z 00000KT 0800 R28/1900 R29/P2000 MIFG FEW040 SCT100 12/12 Q1018 NOSIG=
202001201630 METAR VIDP 201630Z 00000KT 0800 R28/1800 R29/P2000 MIFG FEW040 SCT100 12/12 Q1018 NOSIG=
202001201600 METAR VIDP 201600Z 00000KT 0800 R28/P2000 R29/P2000 MIFG FEW040 SCT100 12/12 Q1018 NOSIG=
202001201530 METAR VIDP 201530Z 00000KT 1000 R28/P2000 R29/P2000 BR FEW040 SCT100 12/12 Q1018 BECMG 0800 MIFG=
202001201500 METAR VIDP 201500Z 00000KT 1500 R28/P2000 R29/P2000 BR FEW040 SCT100 12/12 Q1018 BECMG 0800 MIFG=
202001201430 METAR VIDP 201430Z 00000KT 1500 R28/P2000 R29/P2000 BR FEW040 SCT100 12/12 Q1018 BECMG 0800 MIFG=
202001201400 METAR VIDP 201400Z 00000KT 1500 R28/P2000 R29/P2000 BR FEW040 SCT100 12/12 Q1018 NOSIG=
202001201330 METAR VIDP 201330Z 25004KT 1500 R28/P2000 R29/P2000 BR FEW040 SCT100 12/12 Q1017 NOSIG=
202001201300 METAR VIDP 201300Z 00000KT 1500 R28/P2000 R29/P2000 BR SCT100 13/13 Q1017 NOSIG=
202001201230 METAR VIDP 201230Z 29004KT 1500 R28/2000 R29/2000 BR SCT100 14/13 Q1017 NOSIG=
202001201200 METAR VIDP 201200Z 31004KT 1200 R28/1600 R29/1800 BR SCT100 14/13 Q1016 BECMG 1500 BR=
202001201130 METAR VIDP 201130Z 27005KT 1200 R28/1400 R29/1600 BR SCT100 14/13 Q1017 NOSIG=
202001201100 METAR VIDP 201100Z 26006KT 1000 R28/1400 R29/1500 BR SCT100 14/13 Q1017 NOSIG=
202001201030 METAR VIDP 201030Z 24004KT 1000 R28/1300 R29/1500 BR SCT100 14/13 Q1016 NOSIG=
202001201000 METAR VIDP 201000Z 25005KT 1000 R28/1200 R29/1400 BR SCT100 14/13 Q1016 NOSIG=
202001200930 METAR VIDP 200930Z 27004KT 1000 R28/1200 R29/1500 BR SCT100 14/13 Q1016 NOSIG=
202001200900 METAR VIDP 200900Z 24005KT 1000 R28/1200 R29/1300 BR SCT100 14/13 Q1017 NOSIG=
202001200830 METAR VIDP 200830Z 27004KT 1000 R28/1200 R29/1400 BR SCT100 14/13 Q1017 NOSIG=
202001200800 METAR VIDP 200800Z 26005KT 0900 R28/1100 R29/1200 MIFG SCT100 13/13 Q1018 NOSIG=
202001200730 METAR VIDP 200730Z 27005KT 0900 R28/1100 R29/1500 MIFG SCT100 13/13 Q1018 NOSIG=
202001200700 METAR VIDP 200700Z 27005KT 0800 R28/1100 R29/1200 MIFG SCT100 13/13 Q1018 NOSIG=
202001200630 METAR VIDP 200630Z 26005KT 0800 R28/1000 R29/1500 MIFG SCT100 12/11 Q1019 NOSIG=
202001200600 METAR VIDP 200600Z 27004KT 0800 R28/1000 R29/1200 MIFG SCT100 12/10 Q1019 NOSIG=
202001200530 METAR VIDP 200530Z 28006KT 0700 R28/0900 R29/1300 MIFG SCT100 11/10 Q1020 BECMG 0800 MIFG=
202001200500 METAR VIDP 200500Z 29005KT 0700 R28/1000 R29/1200 MIFG SCT100 10/09 Q1020 NOSIG=
202001200430 METAR VIDP 200430Z 28006KT 0600 R28/1100 R29/1100 MIFG FEW100 09/09 Q1020 NOSIG=
202001200400 METAR VIDP 200400Z 28006KT 0500 R28/1000 R29/1300 MIFG FEW100 09/09 Q1019 BECMG 0600 MIFG=
202001200330 METAR VIDP 200330Z 27006KT 0500 R28/1000 R29/1100 MIFG FEW100 09/09 Q1019 NOSIG=
202001200300 METAR COR VIDP 200300Z 27007KT 0500 R28/1200 R29/1200 MIFG FEW100 09/09 Q1018 NOSIG=
202001200230 METAR VIDP 200230Z 26004KT 0400 R28/1200 R29/1100 FG VV/// 09/08 Q1018 NOSIG=
202001200200 METAR VIDP 200200Z 28005KT 0350 R28/1100 R29/1500 FG VV/// 09/08 Q1018 NOSIG=
202001200130 METAR VIDP 200130Z 27006KT 0300 R28/1300 R29/1500 FG VV/// 09/08 Q1018 BECMG 0350 FG=
202001200100 METAR VIDP 200100Z 27007KT 0200 R28/1900 R29/1200 FG VV/// 09/08 Q1017 BECMG 0350 FG=
202001200030 METAR VIDP 200030Z 28006KT 0100 R28/1700 R29/0900 FG VV/// 09/08 Q1017 BECMG 0150 FG=
202001200000 METAR VIDP 200000Z 27008KT 0100 R28/1200 R29/0500 FG VV/// 09/08 Q1017 NOSIG=
202001192330 METAR VIDP 192330Z 27007KT 0100 R28/0450 R29/0400 FG VV/// 09/08 Q1017 NOSIG=
202001192300 METAR VIDP 192300Z 27007KT 0100 R28/0450 R29/0400 FG VV/// 09/08 Q1017 NOSIG=
202001192230 METAR VIDP 192230Z 25006KT 0100 R28/0350 R29/0300 FG VV/// 09/08 Q1017 NOSIG=
202001192200 METAR VIDP 192200Z 26006KT 0100 R28/0450 R29/0400 FG VV/// 08/08 Q1017 NOSIG=
202001192130 METAR VIDP 192130Z 27005KT 0150 R28/0500 R29/0300 FG NSC 08/07 Q1018 NOSIG=
202001192100 METAR VIDP 192100Z 27006KT 0150 R28/0500 R29/0300 FG NSC 08/07 Q1018 NOSIG=
202001192030 METAR VIDP 192030Z 28006KT 0150 R28/0500 R29/0300 FG NSC 08/07 Q1018 NOSIG=
202001192000 METAR VIDP 192000Z 27006KT 0150 R28/0500 R29/0300 FG NSC 08/07 Q1018 NOSIG=
202001191930 METAR COR VIDP 191930Z 28005KT 0200 R28/0600 R29/0350 FG NSC 08/07 Q1018 BECMG 0150 FG=
202001191900 METAR VIDP 191900Z 28005KT 0350 R28/1200 R29/0600 FG NSC 08/07 Q1019 NOSIG=
202001191830 METAR VIDP 191830Z 27005KT 0350 R28/1600 R29/0700 FG NSC 08/07 Q1019 NOSIG=
202001191800 METAR VIDP 191800Z 27006KT 0350 R28/1800 R29/0900 FG NSC 08/07 Q1019 NOSIG=
202001191730 METAR VIDP 191730Z 27005KT 0400 R28/1500 R29/0800 FG NSC 08/07 Q1019 BECMG 0350 FG=
202001191700 METAR VIDP 191700Z 28007KT 0400 R28/1500 R29/0700 MIFG NSC 08/07 Q1019 BECMG 0350 FG=
202001191630 METAR VIDP 191630Z 28007KT 0600 R28/1600 R29/0800 MIFG NSC 08/07 Q1019 NOSIG=
202001191600 METAR VIDP 191600Z 26009KT 0700 R28/2000 R29/2000 MIFG NSC 08/08 Q1019 BECMG 0600 MIFG=
202001191530 METAR VIDP 191530Z 27007KT 1000 R28/P2000 R29/P2000 BR NSC 09/08 Q1019 BECMG 0800 MIFG=
202001191500 METAR VIDP 191500Z 26006KT 1000 R28/P2000 R29/P2000 BR NSC 09/08 Q1019 NOSIG=
202001191430 METAR VIDP 191430Z 27007KT 1000 R28/P2000 R29/P2000 BR NSC 09/08 Q1019 NOSIG=
202001191400 METAR VIDP 191400Z 27007KT 1200 R28/P2000 R29/P2000 BR NSC 10/10 Q1018 NOSIG=
202001191330 METAR VIDP 191330Z 26006KT 1300 R28/P2000 R29/P2000 BR NSC 10/10 Q1018 NOSIG=
202001191300 METAR VIDP 191300Z 26007KT 1300 R28/P2000 R29/P2000 BR NSC 11/11 Q1018 NOSIG=
202001191230 METAR VIDP 191230Z 27008KT 1300 R28/P2000 R29/P2000 BR NSC 11/11 Q1018 NOSIG=
202001191200 METAR VIDP 191200Z 27008KT 1200 R28/P2000 R29/1800 BR NSC 12/11 Q1018 NOSIG=
202001191130 METAR VIDP 191130Z 28008KT 1200 R28/1800 R29/1500 BR NSC 13/11 Q1018 NOSIG=
202001191100 METAR VIDP 191100Z 28008KT 1300 R28/1700 R29/1400 BR NSC 14/11 Q1018 NOSIG=
202001191030 METAR VIDP 191030Z 28008KT 1300 R28/1700 R29/1300 FU NSC 15/10 Q1018 NOSIG=
202001191000 METAR VIDP 191000Z 27009KT 1300 R28/1700 R29/1300 FU NSC 15/10 Q1018 NOSIG=
202001190930 METAR VIDP 190930Z 28007KT 1300 R28/1700 R29/1300 FU NSC 15/10 Q1018 NOSIG=
202001190900 METAR VIDP 190900Z 29008KT 1300 R28/1800 R29/1500 FU NSC 15/10 Q1018 NOSIG=
202001190830 METAR VIDP 190830Z 28007KT 1300 R28/1600 R29/1500 FU NSC 14/09 Q1019 BECMG 1500 FU=
202001190800 METAR VIDP 190800Z 27007KT 1300 R28/1700 R29/1500 BR NSC 13/09 Q1019 BECMG 1500 BR=
202001190730 METAR VIDP 190730Z 28007KT 1300 R28/1800 R29/1600 BR NSC 13/09 Q1020 NOSIG=
202001190700 METAR VIDP 190700Z 31007KT 1200 R28/1700 R29/1700 BR NSC 12/09 Q1020 NOSIG=
202001190630 METAR VIDP 190630Z 30007KT 1200 R28/1600 R29/1900 BR NSC 12/10 Q1020 NOSIG=
202001190600 METAR VIDP 190600Z 29007KT 1000 R28/1500 R29/1900 BR FEW040 SCT100 12/10 Q1021 NOSIG=
202001190530 METAR VIDP 190530Z 28006KT 1000 R28/1500 R29/1400 BR FEW040 SCT100 11/10 Q1021 NOSIG=
202001190500 METAR VIDP 190500Z 27006KT 1000 R28/1400 R29/1300 BR FEW040 SCT100 10/09 Q1021 NOSIG=
202001190430 METAR VIDP 190430Z 28009KT 1000 R28/1400 R29/1200 BR FEW040 SCT100 08/08 Q1021 NOSIG=
202001190400 METAR VIDP 190400Z 28009KT 1000 R28/1400 R29/1200 BR FEW040 SCT100 08/08 Q1021 NOSIG=
202001190330 METAR VIDP 190330Z 28008KT 0800 R28/1400 R29/1200 MIFG FEW040 SCT100 08/08 Q1020 NOSIG=
202001190300 METAR VIDP 190300Z 27010KT 0800 R28/1500 R29/1300 MIFG SCT100 08/08 Q1020 NOSIG=
202001190230 METAR VIDP 190230Z 29009KT 0700 R28/P2000 R29/1700 MIFG NSC 08/08 Q1019 BECMG 0800 MIFG=
202001190200 METAR VIDP 190200Z 28008KT 0600 R28/1900 R29/1500 MIFG NSC 08/08 Q1019 NOSIG=
202001190130 METAR VIDP 190130Z 26009KT 0500 R28/P2000 R29/P2000 FG NSC 08/08 Q1019 BECMG 0600 MIFG=
202001190100 METAR VIDP 190100Z 26009KT 0100 R28/0700 R29/0500 FG VV/// 08/08 Q1018 NOSIG=
202001190030 METAR VIDP 190030Z 27009KT 0100 R28/0700 R29/0600 FG VV/// 08/08 Q1018 NOSIG=
202001190000 METAR VIDP 190000Z 26009KT 0100 R28/0500 R29/0400 FG VV/// 08/08 Q1017 NOSIG=
202001182330 METAR VIDP 182330Z 26007KT 0050 R28/0400 R29/0300 FG VV/// 08/08 Q1017 NOSIG=
202001182300 METAR VIDP 182300Z 24007KT 0050 R28/0300 R29/0300 FG VV/// 08/08 Q1017 NOSIG=
202001182230 METAR VIDP 182230Z 26006KT 0100 R28/0300 R29/0300 FG VV/// 08/08 Q1017 NOSIG=
202001182200 METAR VIDP 182200Z 00000KT 0100 R28/0400 R29/0200 FG VV/// 09/09 Q1018 NOSIG=
202001182130 METAR VIDP 182130Z 00000KT 0150 R28/0600 R29/0200 FG VV/// 09/09 Q1018 NOSIG=
202001182100 METAR VIDP 182100Z 00000KT 0200 R28/0800 R29/0200 FG VV/// 09/09 Q1018 BECMG VIS 0150 FG=
202001182030 METAR VIDP 182030Z 00000KT 0400 R28/1600 R29/0500 FG FEW100 09/09 Q1018 BECMG VIS 0350 FG=
202001182000 METAR COR VIDP 182000Z 00000KT 1000 R28/2000 R29/1500 BR FEW100 10/10 Q1018 BECMG VIS 0800 MIFG=
202001181930 METAR VIDP 181930Z 00000KT 1200 R28/P2000 R29/P2000 BR FEW100 12/12 Q1019 NOSIG=
202001181900 METAR VIDP 181900Z 00000KT 1200 R28/P2000 R29/P2000 BR FEW100 12/12 Q1019 NOSIG=
202001181830 METAR VIDP 181830Z 00000KT 1200 R28/P2000 R29/P2000 BR FEW100 12/12 Q1019 NOSIG=
202001181800 METAR VIDP 181800Z 00000KT 1200 R28/P2000 R29/P2000 BR FEW100 12/12 Q1019 NOSIG=
202001181730 METAR VIDP 181730Z 00000KT 1200 R28/P2000 R29/P2000 BR FEW100 12/12 Q1019 NOSIG=
202001181700 METAR VIDP 181700Z 00000KT 1200 R28/P2000 R29/P2000 BR FEW100 12/12 Q1019 NOSIG=
202001181630 METAR VIDP 181630Z 00000KT 1200 R28/P2000 R29/P2000 BR FEW100 12/12 Q1019 NOSIG=
202001181600 METAR VIDP 181600Z 00000KT 1500 R28/P2000 R29/P2000 BR FEW100 13/12 Q1019 NOSIG=
202001181530 METAR VIDP 181530Z 00000KT 1500 R28/P2000 R29/P2000 BR FEW100 13/12 Q1018 NOSIG=
202001181500 METAR VIDP 181500Z 00000KT 1500 R28/P2000 R29/P2000 BR FEW100 13/12 Q1018 NOSIG=
202001181430 METAR VIDP 181430Z 00000KT 1600 R28/P2000 R29/P2000 BR FEW100 13/12 Q1018 BECMG 1500 BR=
202001181400 METAR VIDP 181400Z 30004KT 1600 R28/P2000 R29/P2000 BR FEW100 14/11 Q1017 NOSIG=
202001181330 METAR VIDP 181330Z 30004KT 1600 R28/P2000 R29/P2000 BR FEW100 14/11 Q1017 NOSIG=
202001181300 METAR VIDP 181300Z 31004KT 1600 R28/P2000 R29/P2000 BR FEW100 14/11 Q1017 NOSIG=
202001181230 METAR VIDP 181230Z 32005KT 1600 R28/P2000 R29/P2000 BR NSC 14/11 Q1017 NOSIG=
202001181200 METAR VIDP 181200Z 32005KT 1600 R28/P2000 R29/P2000 BR NSC 15/11 Q1017 NOSIG=
202001181130 METAR VIDP 181130Z 32004KT 1600 R28/2000 R29/1800 FU NSC 16/11 Q1017 NOSIG=
202001181100 METAR VIDP 181100Z 32004KT 1600 R28/2000 R29/1600 FU NSC 16/11 Q1017 NOSIG=
202001181030 METAR VIDP 181030Z 30005KT 1500 R28/2000 R29/1500 FU NSC 16/10 Q1017 NOSIG=
202001181000 METAR VIDP 181000Z 32006KT 1300 R28/2000 R29/1400 FU NSC 16/10 Q1017 BECMG 1500 FU=
202001180930 METAR VIDP 180930Z 30007KT 1300 R28/2000 R29/1400 FU NSC 15/10 Q1017 NOSIG=
202001180900 METAR VIDP 180900Z 31007KT 1200 R28/1900 R29/1400 FU NSC 15/10 Q1017 NOSIG=
202001180830 METAR VIDP 180830Z 30005KT 1100 R28/1800 R29/1200 BR NSC 14/10 Q1018 NOSIG=
202001180800 METAR VIDP 180800Z 31005KT 1100 R28/1800 R29/1300 BR NSC 14/10 Q1018 NOSIG=
202001180730 METAR VIDP 180730Z 32006KT 1100 R28/1600 R29/1500 BR NSC 14/10 Q1019 NOSIG=
202001180700 METAR VIDP 180700Z 30005KT 0900 R28/1500 R29/1400 FU NSC 14/09 Q1020 NOSIG=
202001180630 METAR VIDP 180630Z 31004KT 0700 R28/1500 R29/1400 MIFG NSC 13/09 Q1020 BECMG 0800 MIFG=
202001180600 METAR VIDP 180600Z 27003KT 0500 R28/1130 R29/1200 MIFG NSC 12/09 Q1020 BECMG 0600 MIFG=
202001180530 METAR VIDP 180530Z 28003KT 0400 R28/1100 R29/0900 FG VV/// 12/09 Q1020 NOSIG=
202001180500 METAR VIDP 180500Z 26003KT 0300 R28/1100 R29/0800 FG VV/// 11/09 Q1020 BECMG 0350 FG=
202001180430 METAR VIDP 180430Z 28002KT 0200 R28/0900 R29/0450 FG VV/// 11/09 Q1020 NOSIG=
202001180400 METAR VIDP 180400Z 00000KT 0150 R28/1100 R29/0400 FG VV/// 11/10 Q1020 NOSIG=
202001180330 METAR VIDP 180330Z 00000KT 0150 R28/0900 R29/0400 FG VV/// 11/10 Q1019 NOSIG=
202001180300 METAR VIDP 180300Z 00000KT 0150 R28/0900 R29/0600 FG VV/// 11/10 Q1019 NOSIG=
202001180230 METAR VIDP 180230Z 00000KT 0150 R28/1200 R29/0800 FG VV/// 11/11 Q1018 NOSIG=
202001180200 METAR VIDP 180200Z 00000KT 0100 R28/0500 R29/0600 FG VV/// 11/11 Q1018 TEMPO 0150 FG=
202001180130 METAR VIDP 180130Z 00000KT 0100 R28/0600 R29/0600 FG VV/// 11/11 Q1018 NOSIG=
202001180100 METAR VIDP 180100Z 00000KT 0050 R28/0300 R29/0350 FG VV/// 11/11 Q1017 NOSIG=
202001180030 METAR VIDP 180030Z 00000KT 0050 R28/0600 R29/0300 FG VV/// 11/11 Q1017 NOSIG=
202001180000 METAR VIDP 180000Z 00000KT 0050 R28/0600 R29/0250 FG VV/// 11/11 Q1017 NOSIG=
202001172330 METAR VIDP 172330Z 00000KT 0100 R28/0450 R29/0200 FG VV/// 11/11 Q1016 NOSIG=
202001172300 METAR VIDP 172300Z 00000KT 0200 R28/0750 R29/0275 FG VV/// 11/11 Q1016 BECMG 0150 FG=
202001172230 METAR VIDP 172230Z 00000KT 0400 R28/1600 R29/0500 FG SCT100 11/11 Q1017 BECMG 0350 FG=
202001172200 METAR VIDP 172200Z 00000KT 0500 R28/1800 R29/1300 MIFG SCT100 11/10 Q1017 NOSIG=
202001172130 METAR VIDP 172130Z 00000KT 0500 R28/P2000 R29/1600 MIFG SCT100 11/09 Q1017 NOSIG=
202001172100 METAR VIDP 172100Z 00000KT 0500 R28/P2000 R29/1500 MIFG SCT100 11/09 Q1017 NOSIG=
202001172030 METAR VIDP 172030Z 00000KT 0600 R28/1800 R29/0900 MIFG SCT100 11/09 Q1017 NOSIG=
202001172000 METAR VIDP 172000Z 00000KT 0600 R28/P2000 R29/1200 MIFG SCT100 11/09 Q1018 NOSIG=
202001171930 METAR VIDP 171930Z 27004KT 0600 R28/P2000 R29/1000 MIFG SCT100 11/09 Q1018 NOSIG=
202001171900 METAR VIDP 171900Z 00000KT 0700 R28/P2000 R29/1900 MIFG SCT100 12/10 Q1017 BECMG 0600 MIFG=
202001171830 METAR VIDP 171830Z 08005KT 0700 R28/P2000 R29/P2000 MIFG SCT100 12/10 Q1017 BECMG 0600 MIFG=
202001171800 METAR VIDP 171800Z 06004KT 0900 R28/1800 R29/P2000 MIFG SCT100 12/10 Q1018 BECMG 0800 MIFG=
202001171730 METAR VIDP 171730Z 00000KT 1000 R28/P2000 R29/P2000 BR SCT100 12/11 Q1018 NOSIG=
202001171700 METAR VIDP 171700Z 34004KT 1200 R28/P2000 R29/P2000 BR SCT100 13/11 Q1018 NOSIG=
202001171630 METAR VIDP 171630Z 36003KT 1300 R28/P2000 R29/P2000 BR SCT100 13/11 Q1017 NOSIG=
202001171600 METAR VIDP 171600Z 33004KT 1300 R28/P2000 R29/P2000 BR SCT100 13/11 Q1018 NOSIG=
202001171530 METAR VIDP 171530Z 27003KT 1500 R28/P2000 R29/P2000 BR SCT100 13/11 Q1018 NOSIG=
202001171500 METAR VIDP 171500Z 27003KT 1600 R28/P2000 R29/P2000 BR FEW030 SCT100 13/11 Q1017 BECMG 1500 BR=
202001171430 METAR VIDP 171430Z 00000KT 1600 R28/P2000 R29/P2000 BR FEW030 SCT100 13/10 Q1017 NOSIG=
202001171400 METAR VIDP 171400Z 29005KT 1800 R28/P2000 R29/P2000 BR FEW030 SCT100 12/09 Q1017 NOSIG=
202001171330 METAR VIDP 171330Z 30004KT 1800 R28/P2000 R29/P2000 BR FEW030 SCT100 12/09 Q1017 NOSIG=
202001171300 METAR VIDP 171300Z 31004KT 1700 R28/P2000 R29/P2000 BR FEW030 SCT100 12/09 Q1016 NOSIG=
202001171230 METAR VIDP 171230Z 32003KT 1400 R28/P2000 R29/P2000 BR FEW030 SCT100 13/09 Q1016 BECMG 1500 BR=
202001171200 METAR VIDP 171200Z 32005KT 1300 R28/1800 R29/1800 BR FEW030 SCT100 13/09 Q1016 NOSIG=
202001171130 METAR VIDP 171130Z 33006KT 1300 R28/1500 R29/1500 BR SCT030 BKN100 13/09 Q1015 NOSIG=
202001171100 METAR VIDP 171100Z 32005KT 1300 R28/1500 R29/1500 BR SCT030 BKN100 13/09 Q1015 NOSIG=
202001171030 METAR VIDP 171030Z 29007KT 1300 R28/1600 R29/1600 BR SCT030 BKN100 15/12 Q1015 NOSIG=
202001171000 METAR VIDP 171000Z 28005KT 1300 R28/1300 R29/1700 BR SCT030 BKN100 15/12 Q1015 NOSIG=
202001170930 METAR VIDP 170930Z 31006KT 1300 R28/1300 R29/1600 BR SCT030 BKN100 15/12 Q1016 NOSIG=
202001170900 METAR VIDP 170900Z 28008KT 1300 R28/1300 R29/1400 BR SCT030 BKN100 15/12 Q1016 NOSIG=
202001170830 METAR VIDP 170830Z 29008KT 1300 R28/1300 R29/1300 BR SCT030 BKN100 15/13 Q1016 BECMG 1500 BR=
202001170800 METAR VIDP 170800Z 30007KT 1300 R28/1200 R29/1600 BR SCT030 BKN100 16/12 Q1016 BECMG 1500 FU=
202001170730 METAR VIDP 170730Z 32007KT 1200 R28/1200 R29/1500 BR SCT030 BKN100 15/11 Q1016 BECMG 1500 FU=
202001170700 METAR COR VIDP 170700Z 32006KT 1100 R28/1200 R29/1300 BR SCT030 BKN100 15/11 Q1017 NOSIG=
202001170630 METAR VIDP 170630Z 30006KT 0800 R28/1000 R29/1200 MIFG SCT030 BKN100 14/11 Q1017 NOSIG=
202001170600 METAR VIDP 170600Z 29007KT 0800 R28/1000 R29/1200 MIFG SCT030 BKN100 14/11 Q1017 NOSIG=
202001170530 METAR VIDP 170530Z 27007KT 0700 R28/0900 R29/1000 MIFG SCT030 BKN100 13/12 Q1018 BECMG 0800 MIFG=
202001170500 METAR VIDP 170500Z 28006KT 0600 R28/0800 R29/0900 MIFG SCT030 BKN090 12/12 Q1018 NOSIG=
202001170430 METAR VIDP 170430Z 28006KT 0500 R28/0900 R29/0800 MIFG SCT030 BKN100 12/12 Q1017 BECMG 0600 MIFG=
202001170400 METAR VIDP 170400Z 28006KT 0500 R28/0900 R29/0900 MIFG SCT030 BKN090 12/12 Q1017 NOSIG=
202001170330 METAR VIDP 170330Z 28005KT 0500 R28/1000 R29/1000 FG SCT030 BKN090 12/12 Q1017 NOSIG=
202001170300 METAR VIDP 170300Z 26004KT 0300 R28/1000 R29/1000 FG SCT030 BKN090 12/12 Q1017 BECMG 0350 FG=
202001170230 METAR VIDP 170230Z 27003KT 0300 R28/1100 R29/1100 FG SCT030 BKN100 12/12 Q1016 NOSIG=
202001170200 METAR VIDP 170200Z 27005KT 0300 R28/1100 R29/1300 FG SCT030 BKN090 12/12 Q1016 NOSIG=
202001170130 METAR VIDP 170130Z 30005KT 0300 R28/1400 R29/1300 FG SCT030 BKN090 12/12 Q1015 NOSIG=
202001170100 METAR VIDP 170100Z 27007KT 0400 R28/1300 R29/0900 FG SCT030 BKN090 12/12 Q1015 BECMG 0350 FG=
202001170030 METAR VIDP 170030Z 28005KT 0500 R28/1200 R29/1200 MIFG SCT030 BKN100 12/12 Q1015 NOSIG=
202001170000 METAR VIDP 170000Z 27004KT 0600 R28/1700 R29/1000 MIFG SCT030 BKN090 12/12 Q1014 NOSIG=
202001162330 METAR VIDP 162330Z 25006KT 0600 R28/1800 R29/1500 DZ SCT030 12/12 Q1014 NOSIG=
202001162300 METAR VIDP 162300Z 25003KT 0600 R28/2000 R29/1200 -RA SCT030 BKN090 12/12 Q1014 NOSIG=
202001162230 METAR VIDP 162230Z 02005KT 0600 R28/1400 R29/1400 -RA SCT030 BKN090 12/12 Q1014 NOSIG=
202001162200 METAR VIDP 162200Z 32007KT 0600 R28/1200 R29/1300 -RA SCT030 BKN090 12/12 Q1015 NOSIG=
202001162130 METAR VIDP 162130Z 00000KT 0600 R28/1600 R29/1100 DZ SCT030 BKN090 12/12 Q1015 NOSIG=
202001162100 METAR VIDP 162100Z 00000KT 0700 R28/2000 R29/0900 RA SCT030 BKN090 12/12 Q1015 BECMG 0600 RA=
202001162030 METAR VIDP 162030Z 00000KT 0700 R28/1700 R29/2000 RA SCT030 BKN090 12/12 Q1015 NOSIG=
202001162000 METAR VIDP 162000Z 00000KT 0700 R28/1700 R29/2000 MIFG SCT030 BKN090 12/12 Q1015 NOSIG=
202001161930 METAR VIDP 161930Z 01004KT 0700 R28/1800 R29/2000 MIFG SCT030 BKN090 12/12 Q1015 NOSIG=
202001161900 METAR VIDP 161900Z 32004KT 0700 R28/1400 R29/2000 DZ SCT030 FEW035CB BKN090 12/12 Q1015 NOSIG=
202001161830 METAR VIDP 161830Z 31005KT 0700 R28/1200 R29/1700 RA SCT030 FEW035CB BKN090 12/12 Q1015 BECMG 0600 RA=
202001161800 METAR VIDP 161800Z 28004KT 0700 R28/1600 R29/1600 RA SCT030 FEW035CB BKN090 12/12 Q1016 BECMG 0600 RA=
202001161730 METAR VIDP 161730Z 00000KT 0800 R28/P2000 R29/P2000 RA SCT030 BKN100 13/11 Q1016 NOSIG=
202001161700 METAR VIDP 161700Z 00000KT 0900 R28/P2000 R29/P2000 -DZ SCT030 BKN100 13/11 Q1016 BECMG 0800 MIFG=
202001161630 METAR VIDP 161630Z 00000KT 1000 R28/P2000 R29/P2000 DZ SCT030 BKN100 13/11 Q1015 NOSIG=
202001161600 METAR VIDP 161600Z 33005KT 1000 R28/P2000 R29/P2000 BR SCT030 BKN100 13/11 Q1015 NOSIG=
202001161530 METAR VIDP 161530Z 33004KT 1000 R28/P2000 R29/P2000 BR SCT030 BKN100 13/11 Q1015 NOSIG=
202001161500 METAR VIDP 161500Z 35005KT 1000 R28/P2000 R29/P2000 BR SCT030 BKN100 13/11 Q1015 NOSIG=
202001161430 METAR VIDP 161430Z 32003KT 1000 R28/P2000 R29/P2000 BR SCT030 BKN100 13/11 Q1015 NOSIG=
202001161400 METAR VIDP 161400Z 33003KT 1000 R28/P2000 R29/P2000 BR SCT030 BKN100 13/11 Q1015 NOSIG=
202001161330 METAR VIDP 161330Z 32004KT 1000 R28/P2000 R29/P2000 BR SCT030 BKN100 13/11 Q1015 NOSIG=
202001161300 METAR VIDP 161300Z 32005KT 1000 R28/P2000 R29/P2000 BR SCT030 BKN100 13/11 Q1014 NOSIG=
202001161230 METAR VIDP 161230Z 31004KT 1000 R28/P2000 R29/P2000 BR SCT030 BKN090 13/11 Q1014 NOSIG=
202001161200 METAR VIDP 161200Z 31004KT 1000 R28/1700 R29/1900 BR SCT030 FEW035CB BKN090 13/11 Q1014 NOSIG=
202001161130 METAR COR VIDP 161130Z 30006KT 1000 R28/1500 R29/1500 BR SCT030 FEW035CB BKN090 13/11 Q1014 TEMPO 1500 TSRA=
202001161100 METAR VIDP 161100Z 30005KT 1000 R28/1400 R29/1400 DZ SCT030 FEW035CB BKN090 14/12 Q1014 NOSIG=
202001161030 METAR VIDP 161030Z 30006KT 1000 R28/1300 R29/1400 DZ SCT030 FEW035CB BKN090 14/12 Q1014 TEMPO 15010G25KT 0800 TSRA=
202001161000 METAR VIDP 161000Z 33004KT 1000 R28/1500 R29/1500 BR SCT030 FEW035CB BKN090 14/12 Q1014 TEMPO 15010G25KT 0800 TSRA=
202001160930 METAR VIDP 160930Z 30003KT 1000 R28/1400 R29/1600 BR SCT030 FEW035CB BKN090 14/12 Q1014 TEMPO 15010G25KT 0800 TSRA=
202001160900 METAR VIDP 160900Z 34005KT 1000 R28/1200 R29/1400 BR SCT030 FEW035CB BKN090 14/12 Q1014 TEMPO 15010G25KT 0800 TSRA=
202001160830 METAR VIDP 160830Z 02004KT 1000 R28/1500 R29/1900 DZ SCT030 FEW035CB OVC090 14/12 Q1015 TEMPO 15010G25KT 0800 TSRA=
202001160800 METAR VIDP 160800Z 34006KT 1000 R28/1300 R29/1500 BR SCT030 FEW035CB OVC090 15/11 Q1015 TEMPO 15010G25KT 0800 TSRA=
202001160730 METAR VIDP 160730Z 32007KT 1000 R28/1400 R29/1500 BR SCT030 FEW035CB BKN090 15/11 Q1015 TEMPO 15010G25KT 0800 TSRA=
202001160700 METAR VIDP 160700Z 30005KT 1000 R28/P2000 R29/1500 BR SCT030 FEW035CB OVC080 14/10 Q1015 TEMPO 15010G25KT 0800 TSRA=
202001160630 METAR VIDP 160630Z 32005KT 1000 R28/P2000 R29/P2000 BR SCT030 FEW035CB OVC080 14/11 Q1016 TEMPO 15010G25KT 0800 TSRA=
202001160600 METAR VIDP 160600Z 32006KT 1000 R28/P2000 R29/1800 BR SCT030 FEW035CB BKN100 14/10 Q1016 TEMPO TSRA=
202001160530 METAR VIDP 160530Z 03004KT 0700 R28/P2000 R29/1900 MIFG SCT030 FEW035CB BKN100 13/11 Q1016 TEMPO 0800 TSRA=
202001160500 METAR VIDP 160500Z 33004KT 0700 R28/P2000 R29/1800 MIFG SCT030 FEW035CB BKN100 13/12 Q1017 TEMPO TSRA=
202001160430 METAR VIDP 160430Z 33003KT 0700 R28/1800 R29/1600 -RA SCT030 FEW035CB BKN100 13/12 Q1017 TEMPO TSRA=
202001160400 METAR VIDP 160400Z 01004KT 0700 R28/1600 R29/1400 MIFG SCT030 FEW035CB BKN090 12/12 Q1016 TEMPO TSRA=
202001160330 METAR VIDP 160330Z 34004KT 0700 R28/1700 R29/1500 MIFG SCT030 FEW035CB BKN090 11/11 Q1016 TEMPO TSRA=
202001160300 METAR VIDP 160300Z 36005KT 0700 R28/1400 R29/1400 MIFG SCT030 FEW035CB BKN090 10/10 Q1016 TEMPO TSRA=
202001160230 METAR VIDP 160230Z 01004KT 0700 R28/1600 R29/1600 MIFG SCT030 FEW035CB BKN090 10/09 Q1015 TEMPO TSRA=
202001160200 METAR VIDP 160200Z 00000KT 0700 R28/P2000 R29/P2000 MIFG SCT030 FEW035CB BKN100 08/07 Q1015 TEMPO TS=
202001160130 METAR VIDP 160130Z 19004KT 0700 R28/2000 R29/1800 MIFG SCT030 FEW035CB SCT100 08/07 Q1015 TEMPO TS=
202001160100 METAR VIDP 160100Z 18004KT 0700 R28/2000 R29/1800 MIFG FEW030 SCT100 08/07 Q1015 TEMPO TS=
202001160030 METAR VIDP 160030Z 26005KT 0800 R28/2000 R29/1800 MIFG FEW100 08/07 Q1014 NOSIG=
202001160000 METAR VIDP 160000Z 27005KT 1000 R28/2000 R29/1400 BR FEW100 09/08 Q1014 BECMG 0800 MIFG=
202001152330 METAR VIDP 152330Z 27004KT 1000 R28/2000 R29/1600 BR FEW100 09/08 Q1013 NOSIG=
202001152300 METAR VIDP 152300Z 21003KT 1000 R28/2000 R29/2000 BR FEW100 09/08 Q1014 NOSIG=
202001152230 METAR VIDP 152230Z 26004KT 1000 R28/2000 R29/2000 BR FEW100 09/08 Q1014 NOSIG=
202001152200 METAR VIDP 152200Z 27004KT 1000 R28/2000 R29/2000 BR FEW100 10/09 Q1014 NOSIG=
202001152130 METAR VIDP 152130Z 27004KT 1000 R28/2000 R29/2000 BR FEW100 10/09 Q1014 NOSIG=
202001152100 METAR VIDP 152100Z 32004KT 1000 R28/2000 R29/2000 BR FEW100 10/09 Q1014 NOSIG=
202001152030 METAR VIDP 152030Z 30005KT 1000 R28/2000 R29/2000 BR SCT100 10/09 Q1014 NOSIG=
202001152000 METAR VIDP 152000Z 29005KT 1200 R28/P2000 R29/P2000 BR SCT100 11/09 Q1015 NOSIG=
202001151930 METAR VIDP 151930Z 31005KT 1200 R28/P2000 R29/P2000 BR SCT100 11/09 Q1015 NOSIG=
202001151900 METAR VIDP 151900Z 33005KT 1200 R28/P2000 R29/P2000 BR SCT100 12/09 Q1015 NOSIG=
202001151830 METAR VIDP 151830Z 34004KT 1200 R28/P2000 R29/P2000 BR SCT100 12/09 Q1016 NOSIG=
202001151800 METAR VIDP 151800Z 34004KT 1200 R28/P2000 R29/P2000 BR SCT100 13/11 Q1016 NOSIG=
202001151730 METAR VIDP 151730Z 31005KT 1200 R28/P2000 R29/P2000 BR FEW040 SCT100 13/11 Q1016 NOSIG=
202001151700 METAR VIDP 151700Z 35004KT 1200 R28/P2000 R29/P2000 BR FEW040 SCT100 13/11 Q1016 NOSIG=
202001151630 METAR VIDP 151630Z 33006KT 1200 R28/P2000 R29/P2000 BR SCT100 13/11 Q1016 NOSIG=
202001151600 METAR VIDP 151600Z 31005KT 1200 R28/P2000 R29/P2000 BR SCT100 14/11 Q1016 NOSIG=
202001151530 METAR VIDP 151530Z 31005KT 1200 R28/P2000 R29/P2000 BR SCT100 14/11 Q1016 NOSIG=
202001151500 METAR VIDP 151500Z 32005KT 1200 R28/P2000 R29/P2000 BR SCT100 14/11 Q1016 NOSIG=
202001151430 METAR VIDP 151430Z 32005KT 1600 R28/P2000 R29/P2000 BR SCT100 15/11 Q1016 BECMG 1500 BR=
202001151400 METAR VIDP 151400Z 33004KT 1600 R28/P2000 R29/P2000 BR SCT100 15/11 Q1015 NOSIG=
202001151330 METAR VIDP 151330Z 30004KT 1600 R28/P2000 R29/P2000 FU SCT100 15/10 Q1015 NOSIG=
202001151300 METAR VIDP 151300Z 33004KT 1600 R28/P2000 R29/P2000 FU SCT100 16/10 Q1015 NOSIG=
202001151230 METAR VIDP 151230Z 35005KT 1600 R28/P2000 R29/P2000 FU SCT100 17/11 Q1015 NOSIG=
202001151200 METAR VIDP 151200Z 36004KT 1500 R28/P2000 R29/P2000 FU SCT100 17/11 Q1015 NOSIG=
202001151130 METAR VIDP 151130Z 02005KT 1500 R28/1900 R29/1900 FU SCT100 17/11 Q1015 NOSIG=
202001151100 METAR VIDP 151100Z 34005KT 1600 R28/1700 R29/1700 FU FEW035 SCT100 18/11 Q1015 BECMG 1500 FU=
202001151030 METAR VIDP 151030Z 32004KT 1600 R28/1600 R29/1600 FU SCT100 18/11 Q1015 NOSIG=
202001151000 METAR VIDP 151000Z 34006KT 1600 R28/1600 R29/1600 FU SCT100 18/11 Q1015 NOSIG=
202001150930 METAR VIDP 150930Z 33006KT 1600 R28/1600 R29/1600 FU SCT100 18/11 Q1015 NOSIG=
202001150900 METAR VIDP 150900Z 32006KT 1600 R28/1600 R29/1600 FU SCT100 17/11 Q1016 NOSIG=
202001150830 METAR VIDP 150830Z 30006KT 1600 R28/1500 R29/1800 FU FEW040 SCT100 17/12 Q1016 NOSIG=
202001150800 METAR VIDP 150800Z 31005KT 1500 R28/1500 R29/1800 BR FEW040 SCT100 16/13 Q1017 NOSIG=
202001150730 METAR VIDP 150730Z 29005KT 1500 R28/1500 R29/1800 BR SCT100 16/13 Q1017 NOSIG=
202001150700 METAR VIDP 150700Z 30005KT 1500 R28/1500 R29/2000 BR FEW100 16/13 Q1018 NOSIG=
202001150630 METAR VIDP 150630Z 31005KT 1500 R28/1600 R29/2000 BR FEW100 16/13 Q1018 NOSIG=
202001150600 METAR VIDP 150600Z 30005KT 1500 R28/1500 R29/2000 BR FEW100 15/13 Q1018 NOSIG=
202001150530 METAR VIDP 150530Z 32004KT 1300 R28/1300 R29/2000 BR FEW100 15/12 Q1018 BECMG 1500 BR=
202001150500 METAR VIDP 150500Z 30004KT 1200 R28/1300 R29/1800 BR FEW100 13/10 Q1018 BECMG 1500 BR=
202001150430 METAR VIDP 150430Z 32005KT 0800 R28/1300 R29/1900 MIFG FEW100 12/10 Q1018 NOSIG=
202001150400 METAR VIDP 150400Z 30005KT 0800 R28/1200 R29/1300 MIFG FEW100 11/09 Q1018 NOSIG=
202001150330 METAR VIDP 150330Z 27005KT 0800 R28/1200 R29/1300 MIFG FEW100 09/08 Q1018 NOSIG=
202001150300 METAR VIDP 150300Z 25004KT 0800 R28/1150 R29/1150 MIFG FEW100 09/08 Q1017 NOSIG=
202001150230 METAR VIDP 150230Z 00000KT 0900 R28/1200 R29/1050 MIFG FEW100 08/08 Q1017 BECMG 0800 MIFG=
202001150200 METAR VIDP 150200Z 00000KT 1000 R28/2000 R29/1400 BR FEW100 09/09 Q1017 NOSIG=
202001150130 METAR VIDP 150130Z 00000KT 1200 R28/P2000 R29/P2000 BR NSC 09/09 Q1016 NOSIG=
202001150100 METAR VIDP 150100Z 00000KT 1500 R28/P2000 R29/P2000 BR NSC 10/10 Q1016 NOSIG=
202001150030 METAR VIDP 150030Z 30004KT 1500 R28/P2000 R29/P2000 BR FEW100 10/10 Q1016 NOSIG=
202001150000 METAR VIDP 150000Z 30004KT 1500 R28/P2000 R29/P2000 BR FEW100 10/10 Q1016 NOSIG=
202001142330 METAR VIDP 142330Z 29004KT 1500 R28/P2000 R29/P2000 BR NSC 10/10 Q1016 NOSIG=
202001142300 METAR VIDP 142300Z 00000KT 1500 R28/P2000 R29/P2000 BR NSC 10/10 Q1015 NOSIG=
202001142230 METAR VIDP 142230Z 00000KT 1500 R28/P2000 R29/P2000 BR NSC 10/10 Q1015 NOSIG=
202001142200 METAR VIDP 142200Z 00000KT 1500 R28/P2000 R29/P2000 BR NSC 10/10 Q1015 NOSIG=
202001142130 METAR VIDP 142130Z 00000KT 1500 R28/P2000 R29/P2000 BR NSC 10/10 Q1015 NOSIG=
202001142100 METAR VIDP 142100Z 15003KT 1500 R28/P2000 R29/P2000 BR NSC 11/11 Q1015 NOSIG=
202001142030 METAR VIDP 142030Z 30005KT 1500 R28/P2000 R29/P2000 BR NSC 11/11 Q1015 NOSIG=
202001142000 METAR VIDP 142000Z 30004KT 1500 R28/P2000 R29/P2000 BR NSC 11/11 Q1015 NOSIG=
202001141930 METAR VIDP 141930Z 29003KT 1500 R28/P2000 R29/P2000 BR NSC 11/11 Q1016 NOSIG=
202001141900 METAR VIDP 141900Z 33004KT 1500 R28/P2000 R29/P2000 BR NSC 12/11 Q1016 NOSIG=
202001141830 METAR VIDP 141830Z 00000KT 1800 R28/P2000 R29/P2000 BR NSC 13/12 Q1016 BECMG 1500 BR=
202001141800 METAR VIDP 141800Z 00000KT 2000 BR NSC 13/12 Q1016 NOSIG=
202001141730 METAR VIDP 141730Z 00000KT 2000 BR NSC 13/12 Q1016 NOSIG=
202001141700 METAR VIDP 141700Z 33004KT 2000 BR NSC 13/12 Q1017 NOSIG=
202001141630 METAR VIDP 141630Z 30004KT 2000 BR NSC 13/12 Q1017 NOSIG=
202001141600 METAR VIDP 141600Z 35005KT 1800 R28/P2000 R29/P2000 BR NSC 14/13 Q1017 NOSIG=
202001141530 METAR VIDP 141530Z 34004KT 1700 R28/P2000 R29/P2000 BR NSC 14/13 Q1016 NOSIG=
202001141500 METAR VIDP 141500Z 01004KT 1700 R28/P2000 R29/P2000 BR NSC 14/13 Q1016 NOSIG=
202001141430 METAR VIDP 141430Z 34004KT 1700 R28/P2000 R29/P2000 BR NSC 15/13 Q1016 NOSIG=
202001141400 METAR VIDP 141400Z 31005KT 1700 R28/P2000 R29/P2000 BR NSC 15/13 Q1015 NOSIG=
202001141330 METAR VIDP 141330Z 30005KT 1700 R28/P2000 R29/P2000 BR NSC 15/13 Q1015 NOSIG=
202001141300 METAR VIDP 141300Z 30005KT 1700 R28/P2000 R29/P2000 BR NSC 15/13 Q1015 NOSIG=
202001141230 METAR VIDP 141230Z 30005KT 1700 R28/P2000 R29/P2000 BR NSC 15/13 Q1014 NOSIG=
202001141200 METAR VIDP 141200Z 30005KT 1700 R28/P2000 R29/P2000 BR NSC 16/13 Q1014 NOSIG=
202001141130 METAR VIDP 141130Z 30006KT 1700 R28/P2000 R29/P2000 BR NSC 16/13 Q1014 NOSIG=
202001141100 METAR VIDP 141100Z 30006KT 1700 R28/1800 R29/1900 BR FEW100 16/13 Q1014 NOSIG=
202001141030 METAR VIDP 141030Z 31005KT 1500 R28/1800 R29/1700 BR SCT100 16/13 Q1014 NOSIG=
202001141000 METAR VIDP 141000Z 31007KT 1500 R28/1600 R29/1500 BR SCT100 16/13 Q1014 NOSIG=
202001140930 METAR VIDP 140930Z 31006KT 1500 R28/1600 R29/1600 BR SCT100 16/13 Q1014 NOSIG=
202001140900 METAR VIDP 140900Z 31007KT 1500 R28/1500 R29/1500 BR SCT100 16/13 Q1015 NOSIG=
202001140830 METAR VIDP 140830Z 30004KT 1500 R28/1500 R29/1500 BR SCT100 15/12 Q1015 NOSIG=
202001140800 METAR VIDP 140800Z 31004KT 1200 R28/1300 R29/1600 BR SCT100 15/12 Q1015 BECMG 1500 FU=
202001140730 METAR VIDP 140730Z 30007KT 1200 R28/1200 R29/1600 BR SCT100 15/11 Q1016 BECMG 1500 FU=
202001140700 METAR VIDP 140700Z 30007KT 1200 R28/1200 R29/1500 BR SCT100 14/11 Q1016 BECMG 1500 FU=
202001140630 METAR VIDP 140630Z 29005KT 1000 R28/1200 R29/1400 BR SCT100 14/11 Q1017 NOSIG=
202001140600 METAR VIDP 140600Z 31005KT 1000 R28/1200 R29/1300 BR SCT100 13/11 Q1017 NOSIG=
202001140530 METAR VIDP 140530Z 33005KT 1000 R28/1200 R29/1300 BR SCT100 12/10 Q1017 NOSIG=
202001140500 METAR VIDP 140500Z 31005KT 1000 R28/1200 R29/1300 BR SCT100 11/09 Q1017 NOSIG=
202001140430 METAR VIDP 140430Z 32005KT 1000 R28/1200 R29/1300 BR SCT100 11/09 Q1017 NOSIG=
202001140400 METAR VIDP 140400Z 31005KT 1000 R28/1200 R29/1400 BR SCT100 11/09 Q1017 NOSIG=
202001140330 METAR VIDP 140330Z 32005KT 1000 R28/1300 R29/1500 BR SCT100 10/09 Q1016 NOSIG=
202001140300 METAR VIDP 140300Z 34006KT 0700 R28/1400 R29/1500 MIFG SCT100 10/09 Q1016 BECMG 0800 MIFG=
202001140230 METAR VIDP 140230Z 32005KT 0700 R28/1400 R29/1600 MIFG SCT100 09/08 Q1015 NOSIG=
202001140200 METAR VIDP 140200Z 32004KT 1000 R28/1800 R29/1800 BR SCT100 09/08 Q1015 BECMG 0800 MIFG=
202001140130 METAR VIDP 140130Z 33005KT 1500 R28/2000 R29/2000 BR SCT100 10/08 Q1014 NOSIG=
202001140100 METAR VIDP 140100Z 33005KT 1500 R28/2000 R29/2000 BR SCT100 10/08 Q1014 NOSIG=
202001140030 METAR VIDP 140030Z 31007KT 1500 R28/P2000 R29/P2000 BR SCT100 11/09 Q1014 NOSIG=
202001140000 METAR VIDP 140000Z 30005KT 1500 R28/2000 R29/2000 BR SCT100 11/09 Q1014 NOSIG=
202001132330 METAR VIDP 132330Z 32005KT 1500 R28/P2000 R29/P2000 BR SCT100 11/09 Q1014 NOSIG=
202001132300 METAR VIDP 132300Z 32003KT 1500 R28/P2000 R29/P2000 BR SCT100 11/10 Q1013 NOSIG=
202001132230 METAR VIDP 132230Z 31005KT 1500 R28/P2000 R29/P2000 BR SCT100 12/12 Q1013 NOSIG=
202001132200 METAR VIDP 132200Z 32006KT 1500 R28/P2000 R29/P2000 BR SCT100 13/13 Q1013 NOSIG=
202001132130 METAR VIDP 132130Z 32006KT 1500 R28/P2000 R29/P2000 BR SCT100 13/13 Q1013 NOSIG=
202001132100 METAR VIDP 132100Z 32006KT 1500 R28/P2000 R29/P2000 BR SCT100 13/13 Q1013 NOSIG=
202001132030 METAR VIDP 132030Z 30006KT 1500 R28/P2000 R29/P2000 BR FEW035 SCT100 13/13 Q1014 NOSIG=
202001132000 METAR VIDP 132000Z 30006KT 1500 R28/P2000 R29/P2000 BR FEW035 SCT100 14/14 Q1014 NOSIG=
202001131930 METAR VIDP 131930Z 32008KT 1500 R28/P2000 R29/P2000 BR FEW035 SCT100 14/14 Q1014 NOSIG=
202001131900 METAR VIDP 131900Z 32007KT 1500 R28/P2000 R29/P2000 BR FEW035 SCT100 14/14 Q1014 NOSIG=
202001131830 METAR VIDP 131830Z 30008KT 1500 R28/P2000 R29/P2000 BR SCT030 BKN100 14/14 Q1014 NOSIG=
202001131800 METAR VIDP 131800Z 31009KT 1500 R28/P2000 R29/P2000 BR SCT030 BKN100 14/14 Q1014 NOSIG=
202001131730 METAR VIDP 131730Z 32007KT 1500 R28/P2000 R29/P2000 BR SCT030 BKN100 14/14 Q1014 NOSIG=
202001131700 METAR VIDP 131700Z 31006KT 1800 R28/P2000 R29/P2000 BR SCT030 BKN100 14/14 Q1014 BECMG 1500 BR=
202001131630 METAR VIDP 131630Z 31008KT 2200 BR SCT030 BKN100 14/13 Q1014 NOSIG=
202001131600 METAR VIDP 131600Z 30007KT 1400 R28/P2000 R29/P2000 BR SCT030 BKN090 15/14 Q1014 BECMG 1500 BR=
202001131530 METAR VIDP 131530Z 31006KT 1300 R28/P2000 R29/P2000 BR SCT030 BKN090 16/16 Q1013 NOSIG=
202001131500 METAR VIDP 131500Z 32006KT 1200 R28/P2000 R29/P2000 -RA SCT030 FEW035CB OVC080 16/16 Q1013 TEMPO TSRA=
202001131430 METAR VIDP 131430Z 33006KT 1200 R28/P2000 R29/P2000 -RA SCT030 FEW035CB OVC080 16/16 Q1013 TEMPO TSRA=
202001131400 METAR VIDP 131400Z 30004KT 1500 R28/P2000 R29/P2000 -RA SCT030 FEW040CB BKN100 18/16 Q1012 TEMPO TSRA=
202001131330 METAR VIDP 131330Z 00000KT 1500 R28/P2000 R29/P2000 BR SCT030 FEW040CB BKN100 18/14 Q1012 TEMPO TSRA=
202001131300 METAR VIDP 131300Z 29005KT 1500 R28/P2000 R29/P2000 BR SCT030 FEW040CB BKN100 18/14 Q1011 TEMPO TSRA=
202001131230 METAR VIDP 131230Z 24005KT 1500 R28/P2000 R29/P2000 FU SCT040 BKN100 19/13 Q1011 NOSIG=
202001131200 METAR VIDP 131200Z 20005KT 1500 R28/P2000 R29/P2000 FU SCT040 BKN100 19/13 Q1010 NOSIG=
202001131130 METAR VIDP 131130Z 14004KT 1500 R28/1900 R29/1900 FU SCT040 BKN100 20/12 Q1010 NOSIG=
202001131030 METAR VIDP 131030Z 14009KT 1300 R28/1600 R29/P2000 FU SCT040 BKN100 20/11 Q1009 BECMG 1500 FU=
202001131000 METAR VIDP 131000Z 13010KT 1200 R28/1600 R29/P2000 FU SCT040 BKN100 21/10 Q1008 BECMG 1500 FU=
202001130930 METAR VIDP 130930Z 13010KT 1200 R28/1600 R29/1900 FU SCT040 BKN100 21/10 Q1008 BECMG 1500 FU=
202001130900 METAR VIDP 130900Z 13010KT 1200 R28/1700 R29/1700 FU SCT040 BKN100 21/10 Q1009 NOSIG=
202001130830 METAR VIDP 130830Z 13010KT 1200 R28/1500 R29/2000 FU SCT040 BKN100 20/10 Q1009 NOSIG=
202001130800 METAR VIDP 130800Z 12009KT 1200 R28/1500 R29/1600 FU SCT040 BKN100 18/09 Q1009 NOSIG=
202001130730 METAR VIDP 130730Z 12010KT 1200 R28/1500 R29/P2000 FU SCT040 BKN100 17/09 Q1010 NOSIG=
202001130700 METAR VIDP 130700Z 13008KT 1200 R28/1600 R29/P2000 FU SCT040 BKN100 17/09 Q1011 NOSIG=
202001130630 METAR VIDP 130630Z 13008KT 1200 R28/1600 R29/P2000 FU SCT040 BKN100 17/09 Q1011 NOSIG=
202001130600 METAR VIDP 130600Z 13009KT 1200 R28/1700 R29/P2000 FU SCT040 BKN100 17/09 Q1012 NOSIG=
202001130530 METAR VIDP 130530Z 13009KT 1200 R28/1400 R29/1800 FU SCT040 BKN100 17/09 Q1012 NOSIG=
202001130500 METAR VIDP 130500Z 14009KT 1200 R28/1400 R29/1500 FU SCT040 BKN100 16/08 Q1013 NOSIG=
202001130430 METAR VIDP 130430Z 13006KT 1200 R28/1600 R29/P2000 FU FEW040 SCT100 16/10 Q1012 NOSIG=
202001130400 METAR VIDP 130400Z 13007KT 1000 R28/1500 R29/1900 FU FEW040 SCT100 16/10 Q1012 NOSIG=
202001130330 METAR VIDP 130330Z 12007KT 1000 R28/1400 R29/1900 BR FEW040 SCT100 14/11 Q1011 NOSIG=
202001130300 METAR VIDP 130300Z 12006KT 1000 R28/1500 R29/1700 BR FEW040 SCT100 13/11 Q1011 NOSIG=
202001130230 METAR VIDP 130230Z 10005KT 0800 R28/1000 R29/1000 MIFG FEW040 SCT100 13/11 Q1011 NOSIG=
202001130200 METAR VIDP 130200Z 10005KT 1000 R28/1600 R29/1600 BR FEW040 SCT100 12/11 Q1011 BECMG 0800 MIFG=
202001130130 METAR VIDP 130130Z 12007KT 1200 R28/P2000 R29/P2000 BR FEW040 SCT100 11/10 Q1010 NOSIG=
202001130100 METAR VIDP 130100Z 11006KT 1500 R28/P2000 R29/P2000 BR FEW100 11/10 Q1010 NOSIG=
202001130030 METAR VIDP 130030Z 10005KT 1500 R28/P2000 R29/P2000 BR FEW100 11/10 Q1010 NOSIG=
202001130000 METAR VIDP 130000Z 00000KT 1500 R28/P2000 R29/P2000 BR FEW100 11/10 Q1010 NOSIG=
202001122330 METAR VIDP 122330Z 00000KT 1500 R28/P2000 R29/P2000 BR FEW100 11/10 Q1011 NOSIG=
202001122300 METAR VIDP 122300Z 00000KT 1500 R28/P2000 R29/P2000 BR FEW100 12/10 Q1010 NOSIG=
202001122230 METAR VIDP 122230Z 00000KT 1500 R28/P2000 R29/P2000 BR FEW100 12/10 Q1011 NOSIG=
202001122200 METAR VIDP 122200Z 00000KT 1500 R28/P2000 R29/P2000 BR FEW100 12/10 Q1010 NOSIG=
202001122130 METAR VIDP 122130Z 07004KT 1500 R28/P2000 R29/P2000 BR FEW100 12/10 Q1011 NOSIG=
202001122100 METAR VIDP 122100Z 10005KT 1500 R28/P2000 R29/P2000 BR FEW100 12/10 Q1011 NOSIG=
202001122030 METAR VIDP 122030Z 09004KT 1500 R28/P2000 R29/P2000 BR FEW100 12/10 Q1011 NOSIG=
202001122000 METAR VIDP 122000Z 09005KT 1500 R28/P2000 R29/P2000 BR FEW100 12/10 Q1012 NOSIG=
202001121930 METAR VIDP 121930Z 09004KT 1500 R28/P2000 R29/P2000 BR FEW100 13/10 Q1012 NOSIG=
202001121900 METAR VIDP 121900Z 10004KT 1500 R28/P2000 R29/P2000 BR FEW100 13/10 Q1013 NOSIG=
202001121830 METAR VIDP 121830Z 07003KT 1500 R28/P2000 R29/P2000 BR FEW100 13/10 Q1013 NOSIG=
202001121800 METAR VIDP 121800Z 00000KT 1500 R28/P2000 R29/P2000 BR FEW100 13/11 Q1014 NOSIG=
202001121730 METAR VIDP 121730Z 00000KT 1800 R28/P2000 R29/P2000 BR FEW100 13/11 Q1014 BECMG 1500 BR=
202001121700 METAR VIDP 121700Z 00000KT 2200 BR FEW100 13/11 Q1014 NOSIG=
202001121630 METAR VIDP 121630Z 00000KT 2200 BR FEW100 14/10 Q1014 NOSIG=
202001121600 METAR VIDP 121600Z 00000KT 2200 BR FEW100 14/10 Q1014 NOSIG=
202001121530 METAR VIDP 121530Z 00000KT 2200 FU FEW100 15/09 Q1014 NOSIG=
202001121500 METAR VIDP 121500Z 00000KT 2200 FU FEW100 15/09 Q1014 NOSIG=
202001121430 METAR VIDP 121430Z 00000KT 2200 FU FEW100 16/09 Q1014 NOSIG=
202001121400 METAR VIDP 121400Z 00000KT 2200 FU FEW100 16/09 Q1014 NOSIG=
202001121330 METAR VIDP 121330Z 00000KT 2200 FU FEW100 16/09 Q1014 NOSIG=
202001121300 METAR VIDP 121300Z 32004KT 2200 FU FEW100 17/09 Q1014 NOSIG=
202001121230 METAR VIDP 121230Z 32004KT 2200 FU FEW100 18/09 Q1014 NOSIG=
202001121200 METAR VIDP 121200Z 29004KT 2200 FU FEW100 19/08 Q1014 NOSIG=
202001121130 METAR VIDP 121130Z 29004KT 2500 FU NSC 19/07 Q1013 NOSIG=
202001121100 METAR VIDP 121100Z 28005KT 2200 FU FEW100 20/08 Q1013 NOSIG=
202001121030 METAR VIDP 121030Z 26004KT 2200 FU NSC 21/07 Q1013 NOSIG=
202001121000 METAR VIDP 121000Z 25003KT 2200 FU NSC 21/07 Q1013 NOSIG=
202001120930 METAR VIDP 120930Z 24005KT 2000 FU NSC 21/07 Q1014 NOSIG=
202001120900 METAR VIDP 120900Z 24005KT 1800 R28/P2000 R29/P2000 FU NSC 21/07 Q1014 NOSIG=
202001120830 METAR VIDP 120830Z 26006KT 1800 R28/P2000 R29/P2000 FU NSC 20/07 Q1015 NOSIG=
202001120800 METAR VIDP 120800Z 26007KT 1600 R28/P2000 R29/P2000 FU NSC 19/07 Q1015 NOSIG=
202001120730 METAR VIDP 120730Z 25006KT 1500 R28/P2000 R29/P2000 FU NSC 19/07 Q1016 NOSIG=
202001120700 METAR VIDP 120700Z 26006KT 1500 R28/P2000 R29/P2000 FU NSC 18/07 Q1016 NOSIG=
202001120630 METAR VIDP 120630Z 25006KT 1300 R28/P2000 R29/P2000 FU NSC 17/07 Q1017 BECMG 1500 FU=
202001120600 METAR VIDP 120600Z 24007KT 1000 R28/1800 R29/P2000 FU NSC 16/07 Q1018 NOSIG=
202001120530 METAR VIDP 120530Z 24005KT 0900 R28/1600 R29/P2000 FU NSC 15/08 Q1018 NOSIG=
202001120500 METAR VIDP 120500Z 26005KT 0800 R28/1600 R29/P2000 FU NSC 15/10 Q1018 NOSIG=
202001120430 METAR VIDP 120430Z 23005KT 0700 R28/1300 R29/2000 MIFG NSC 14/10 Q1019 BECMG 0800 MIFG=
202001120400 METAR VIDP 120400Z 24004KT 0600 R28/1400 R29/2000 MIFG NSC 13/11 Q1018 BECMG 0800 MIFG=
202001120330 METAR VIDP 120330Z 20004KT 0600 R28/1300 R29/1900 MIFG NSC 11/10 Q1017 NOSIG=
202001120300 METAR VIDP 120300Z 00000KT 0600 R28/1200 R29/1200 MIFG NSC 10/09 Q1017 NOSIG=
202001120230 METAR VIDP 120230Z 00000KT 0700 R28/1300 R29/1000 MIFG FEW100 10/09 Q1017 BECMG 0600 MIFG=
202001120200 METAR VIDP 120200Z 00000KT 0700 R28/1700 R29/2000 MIFG FEW100 09/08 Q1017 NOSIG=
202001120130 METAR VIDP 120130Z 00000KT 0700 R28/2000 R29/2000 MIFG FEW100 09/08 Q1017 NOSIG=
202001120100 METAR VIDP 120100Z 00000KT 0700 R28/2000 R29/2000 MIFG FEW100 09/08 Q1017 NOSIG=
202001120030 METAR VIDP 120030Z 00000KT 0700 R28/2000 R29/2000 MIFG FEW100 09/08 Q1017 NOSIG=
202001120000 METAR VIDP 120000Z 26004KT 0700 R28/2000 R29/2000 MIFG FEW100 09/08 Q1018 NOSIG=
202001112330 METAR VIDP 112330Z 26004KT 0700 R28/2000 R29/2000 MIFG FEW100 09/08 Q1018 NOSIG=
202001112300 METAR VIDP 112300Z 27004KT 0800 R28/2000 R29/1800 MIFG FEW100 09/08 Q1017 BECMG 0600 MIFG=
202001112230 METAR VIDP 112230Z 00000KT 0800 R28/2000 R29/2000 MIFG FEW100 09/08 Q1017 BECMG 0600 MIFG=
202001112200 METAR VIDP 112200Z 00000KT 0800 R28/2000 R29/2000 MIFG FEW100 09/08 Q1017 BECMG 0600 MIFG=
202001112130 METAR VIDP 112130Z 00000KT 0800 R28/2000 R29/2000 MIFG FEW100 09/08 Q1017 BECMG 0600 MIFG=
202001112100 METAR VIDP 112100Z 00000KT 0800 R28/2000 R29/2000 MIFG FEW100 09/08 Q1018 NOSIG=
202001112030 METAR VIDP 112030Z 00000KT 0800 R28/2000 R29/2000 MIFG FEW100 09/08 Q1018 NOSIG=
202001112000 METAR VIDP 112000Z 00000KT 1000 R28/2000 R29/2000 BR FEW100 10/08 Q1018 BECMG 0800 MIFG=
202001111930 METAR VIDP 111930Z 00000KT 1000 R28/2000 R29/2000 BR SCT100 11/09 Q1018 NOSIG=
202001111900 METAR VIDP 111900Z 00000KT 1000 R28/2000 R29/2000 BR SCT100 11/09 Q1019 NOSIG=
202001111830 METAR VIDP 111830Z 00000KT 1200 R28/P2000 R29/P2000 BR SCT100 11/09 Q1019 NOSIG=
202001111800 METAR VIDP 111800Z 00000KT 1800 R28/P2000 R29/P2000 BR SCT100 11/09 Q1019 BECMG 1500 BR=
202001111730 METAR VIDP 111730Z 00000KT 2200 BR BKN100 11/09 Q1020 NOSIG=
202001111700 METAR VIDP 111700Z 00000KT 2200 BR BKN100 12/09 Q1020 NOSIG=
202001111630 METAR VIDP 111630Z 00000KT 2200 BR BKN100 12/09 Q1020 NOSIG=
202001111600 METAR VIDP 111600Z 00000KT 2200 BR SCT100 12/09 Q1019 NOSIG=
202001111530 METAR VIDP 111530Z 00000KT 2200 HZ NSC 13/09 Q1019 NOSIG=
202001111500 METAR VIDP 111500Z 00000KT 2200 HZ NSC 13/09 Q1019 NOSIG=
202001111430 METAR VIDP 111430Z 00000KT 2200 HZ NSC 14/08 Q1019 NOSIG=
202001111400 METAR VIDP 111400Z 26004KT 2200 HZ NSC 14/08 Q1018 NOSIG=
202001111330 METAR VIDP 111330Z 24003KT 2500 HZ NSC 15/08 Q1018 NOSIG=
202001111300 METAR VIDP 111300Z 25004KT 2800 HZ NSC 15/07 Q1018 NOSIG=
202001111230 METAR VIDP 111230Z 25004KT 2800 HZ NSC 16/06 Q1018 NOSIG=
202001111200 METAR VIDP 111200Z 27005KT 2800 HZ NSC 16/06 Q1017 NOSIG=
202001111130 METAR VIDP 111130Z 26006KT 2800 HZ NSC 17/06 Q1017 NOSIG=
202001111100 METAR VIDP 111100Z 26006KT 3000 HZ NSC 18/06 Q1017 NOSIG=
202001111030 METAR VIDP 111030Z 27007KT 3000 HZ NSC 18/06 Q1018 NOSIG=
202001111000 METAR VIDP 111000Z 27006KT 3000 HZ NSC 19/05 Q1018 NOSIG=
202001110930 METAR VIDP 110930Z 28006KT 2800 HZ NSC 18/06 Q1017 BECMG 3000 HZ=
202001110900 METAR VIDP 110900Z 27007KT 2500 HZ NSC 18/06 Q1018 NOSIG=
202001110830 METAR VIDP 110830Z 28008KT 2500 HZ NSC 17/06 Q1018 NOSIG=
202001110800 METAR VIDP 110800Z 29007KT 2500 HZ NSC 17/06 Q1019 NOSIG=
202001110730 METAR VIDP 110730Z 29008KT 2200 HZ NSC 17/06 Q1019 NOSIG=
202001110700 METAR VIDP 110700Z 27008KT 1600 R28/1600 R29/P2000 FU NSC 16/06 Q1020 NOSIG=
202001110630 METAR VIDP 110630Z 27006KT 1600 R28/1700 R29/P2000 FU FEW100 15/07 Q1020 NOSIG=
202001110600 METAR VIDP 110600Z 32006KT 1200 R28/1600 R29/P2000 FU SCT100 15/07 Q1021 BECMG 1500 FU=
202001110530 METAR VIDP 110530Z 31006KT 1200 R28/1500 R29/P2000 FU SCT100 14/07 Q1021 BECMG 1500 FU=
202001110500 METAR VIDP 110500Z 29004KT 1000 R28/1300 R29/P2000 FU SCT100 12/07 Q1021 NOSIG=
202001110430 METAR VIDP 110430Z 26004KT 1000 R28/1300 R29/P2000 BR SCT100 11/09 Q1021 NOSIG=
202001110400 METAR VIDP 110400Z 24004KT 0800 R28/1300 R29/1800 MIFG FEW040 SCT100 09/08 Q1020 NOSIG=
202001110330 METAR VIDP 110330Z 23004KT 0800 R28/1300 R29/2000 MIFG FEW040 SCT100 09/08 Q1020 NOSIG=
202001110300 METAR VIDP 110300Z 25004KT 0800 R28/1400 R29/1800 MIFG FEW040 SCT100 08/08 Q1020 NOSIG=
202001110230 METAR VIDP 110230Z 25004KT 0800 R28/1400 R29/1600 MIFG FEW040 SCT100 08/08 Q1019 NOSIG=
202001110200 METAR VIDP 110200Z 24005KT 0900 R28/P2000 R29/1800 MIFG FEW040 SCT100 08/07 Q1019 BECMG 0800 MIFG=
202001110130 METAR VIDP 110130Z 26004KT 1000 R28/P2000 R29/P2000 BR FEW040 SCT100 07/07 Q1019 NOSIG=
202001110100 METAR VIDP 110100Z 00000KT 1000 R28/P2000 R29/P2000 BR SCT100 07/07 Q1019 NOSIG=
202001110030 METAR VIDP 110030Z 00000KT 1200 R28/P2000 R29/P2000 BR SCT100 07/07 Q1019 NOSIG=
202001110000 METAR VIDP 110000Z 00000KT 1500 R28/P2000 R29/P2000 BR SCT100 07/07 Q1018 NOSIG=
202001102330 METAR VIDP 102330Z 00000KT 1500 R28/P2000 R29/P2000 BR SCT100 08/08 Q1018 NOSIG=
202001102300 METAR VIDP 102300Z 22003KT 1500 R28/P2000 R29/P2000 BR SCT100 08/08 Q1018 NOSIG=
202001102230 METAR VIDP 102230Z 27006KT 1500 R28/P2000 R29/P2000 BR SCT100 08/08 Q1018 NOSIG=
202001102200 METAR VIDP 102200Z 00000KT 1500 R28/P2000 R29/P2000 BR SCT100 09/09 Q1019 NOSIG=
202001102130 METAR VIDP 102130Z 00000KT 1500 R28/P2000 R29/P2000 BR SCT100 09/09 Q1019 NOSIG=
202001102100 METAR VIDP 102100Z 00000KT 1500 R28/P2000 R29/P2000 BR SCT100 09/09 Q1019 NOSIG=
202001102030 METAR VIDP 102030Z 00000KT 1500 R28/P2000 R29/P2000 BR SCT100 10/09 Q1019 NOSIG=
202001102000 METAR VIDP 102000Z 00000KT 1500 R28/P2000 R29/P2000 BR SCT100 10/09 Q1019 NOSIG=
202001101930 METAR VIDP 101930Z 00000KT 1500 R28/P2000 R29/P2000 BR SCT100 10/09 Q1019 NOSIG=
202001101900 METAR VIDP 101900Z 00000KT 1500 R28/P2000 R29/P2000 BR SCT100 10/09 Q1019 NOSIG=
202001101830 METAR VIDP 101830Z 00000KT 1500 R28/P2000 R29/P2000 BR SCT100 10/09 Q1019 NOSIG=
202001101800 METAR VIDP 101800Z 00000KT 1500 R28/P2000 R29/P2000 BR NSC 10/09 Q1019 NOSIG=
202001101730 METAR VIDP 101730Z 25004KT 1500 R28/P2000 R29/P2000 BR NSC 11/09 Q1020 NOSIG=
202001101700 METAR VIDP 101700Z 25004KT 1500 R28/P2000 R29/P2000 BR NSC 11/09 Q1020 NOSIG=
202001101630 METAR VIDP 101630Z 26004KT 1500 R28/P2000 R29/P2000 BR NSC 11/09 Q1020 NOSIG=
202001101600 METAR VIDP 101600Z 27004KT 1500 R28/P2000 R29/P2000 BR NSC 11/09 Q1020 NOSIG=
202001100700 METAR VIDP 100700Z 27007KT 1000 R28/1300 R29/1800 BR NSC 14/10 Q1020 NOSIG=
202001100630 METAR VIDP 100630Z 28006KT 1000 R28/1400 R29/1800 BR NSC 13/10 Q1020 NOSIG=
202001100600 METAR VIDP 100600Z 30005KT 0600 R28/1200 R29/1700 MIFG NSC 12/11 Q1020 BECMG 0800 MIFG=
202001100530 METAR VIDP 100530Z 29005KT 0600 R28/1200 R29/1600 MIFG NSC 10/08 Q1020 NOSIG=
202001100500 METAR VIDP 100500Z 28006KT 0500 R28/1200 R29/1400 MIFG NSC 08/07 Q1021 BECMG 0600 MIFG=
202001100430 METAR VIDP 100430Z 29005KT 0400 R28/1100 R29/1000 FG VV/// 08/07 Q1020 NOSIG=
202001100400 METAR VIDP 100400Z 28006KT 0400 R28/1000 R29/1000 FG VV/// 08/07 Q1020 NOSIG=
202001100330 METAR VIDP 100330Z 28006KT 0400 R28/0900 R29/0800 FG VV/// 07/06 Q1020 NOSIG=
202001100300 METAR VIDP 100300Z 28006KT 0400 R28/1100 R29/0900 FG VV/// 06/06 Q1020 NOSIG=
202001100230 METAR VIDP 100230Z 27006KT 0300 R28/1200 R29/0900 FG VV/// 06/06 Q1020 BECMG 0350 FG=
202001100200 METAR VIDP 100200Z 27007KT 0300 R28/1200 R29/0900 FG VV/// 07/07 Q1020 BECMG 0350 FG=
202001100130 METAR VIDP 100130Z 28006KT 0200 R28/P2000 R29/1200 FG VV/// 07/07 Q1019 TEMPO 0350 FG=
202001100100 METAR VIDP 100100Z 27007KT 0200 R28/1800 R29/0800 FG VV/// 07/07 Q1019 NOSIG=
202001100030 METAR VIDP 100030Z 28006KT 0150 R28/1600 R29/0500 FG VV/// 07/07 Q1019 NOSIG=
202001100000 METAR VIDP 100000Z 27006KT 0150 R28/1400 R29/0800 FG VV/// 07/07 Q1019 NOSIG=
202001092330 METAR VIDP 092330Z 28006KT 0100 R28/1400 R29/0400 FG VV/// 07/07 Q1018 BECMG 0150 FG=
202001092300 METAR VIDP 092300Z 27006KT 0100 R28/0700 R29/0300 FG VV/// 06/06 Q1018 NOSIG=
202001092230 METAR VIDP 092230Z 27006KT 0100 R28/0600 R29/0275 FG VV/// 06/06 Q1018 NOSIG=
202001092200 METAR VIDP 092200Z 26005KT 0100 R28/0500 R29/0200 FG VV/// 06/06 Q1019 NOSIG=
202001092130 METAR VIDP 092130Z 26005KT 0200 R28/0600 R29/0200 FG VV/// 06/06 Q1019 BECMG 0150 FG=
202001092100 METAR VIDP 092100Z 26005KT 0400 R28/1700 R29/0400 FG NSC 07/07 Q1019 BECMG 0350 FG=
202001092030 METAR VIDP 092030Z 26004KT 0600 R28/P2000 R29/1400 MIFG NSC 07/07 Q1019 NOSIG=
202001092000 METAR VIDP 092000Z 00000KT 0600 R28/P2000 R29/1400 MIFG NSC 08/08 Q1019 NOSIG=
202001091930 METAR VIDP 091930Z 00000KT 0600 R28/P2000 R29/1700 MIFG NSC 08/08 Q1020 NOSIG=
202001091900 METAR VIDP 091900Z 00000KT 0700 R28/P2000 R29/P2000 MIFG NSC 08/08 Q1020 BECMG 0600 MIFG=
202001091830 METAR VIDP 091830Z 27003KT 0800 R28/P2000 R29/P2000 MIFG NSC 08/08 Q1020 NOSIG=
202001091800 METAR VIDP 091800Z 25003KT 0900 R28/P2000 R29/P2000 MIFG NSC 08/08 Q1020 BECMG 0800 MIFG=
202001091730 METAR VIDP 091730Z 25004KT 1000 R28/P2000 R29/P2000 BR NSC 08/08 Q1021 NOSIG=
202001091700 METAR VIDP 091700Z 26004KT 1000 R28/P2000 R29/P2000 BR NSC 08/08 Q1021 NOSIG=
202001091630 METAR VIDP 091630Z 26005KT 1000 R28/P2000 R29/P2000 BR FEW100 09/09 Q1021 NOSIG=
202001091600 METAR VIDP 091600Z 26005KT 1000 R28/P2000 R29/P2000 BR FEW100 09/09 Q1021 NOSIG=
202001091530 METAR VIDP 091530Z 26004KT 1200 R28/P2000 R29/P2000 BR FEW100 09/09 Q1021 NOSIG=
202001091500 METAR VIDP 091500Z 26005KT 1500 R28/P2000 R29/P2000 BR FEW100 09/09 Q1021 NOSIG=
202001091030 METAR VIDP 091030Z 32007KT 1500 R28/1700 R29/1700 BR FEW100 13/08 Q1019 NOSIG=
202001091000 METAR VIDP 091000Z 29008KT 1500 R28/1700 R29/1700 BR FEW100 13/08 Q1019 NOSIG=
202001090930 METAR VIDP 090930Z 31008KT 1500 R28/1600 R29/1600 BR FEW100 13/09 Q1019 NOSIG=
202001090900 METAR VIDP 090900Z 32008KT 1500 R28/1600 R29/1600 BR FEW100 12/08 Q1020 NOSIG=
202001090830 METAR VIDP 090830Z 31007KT 1500 R28/1600 R29/1600 BR FEW100 12/09 Q1020 Q1020 NOSIG=
202001090800 METAR VIDP 090800Z 29007KT 1500 R28/1500 R29/P2000 BR FEW040 SCT100 13/09 Q1020 NOSIG=
202001090730 METAR VIDP 090730Z 30007KT 1300 R28/1400 R29/P2000 BR FEW040 SCT100 12/09 Q1020 BECMG 1500 BR=
202001090700 METAR VIDP 090700Z 29007KT 1200 R28/1500 R29/1500 BR FEW040 SCT100 12/09 Q1020 NOSIG=
202001090630 METAR VIDP 090630Z 29007KT 1200 R28/1200 R29/1700 BR FEW040 SCT100 12/09 Q1021 NOSIG=
202001090600 METAR VIDP 090600Z 27007KT 1100 R28/1200 R29/P2000 BR FEW040 SCT100 11/09 Q1021 NOSIG=
202001090530 METAR VIDP 090530Z 28006KT 1000 R28/1200 R29/1800 BR FEW040 SCT100 11/09 Q1021 NOSIG=
202001090500 METAR VIDP 090500Z 27007KT 1000 R28/1200 R29/1800 BR FEW040 SCT100 10/09 Q1021 NOSIG=
202001090430 METAR VIDP 090430Z 29006KT 1000 R28/1200 R29/1200 BR FEW040 SCT100 09/09 Q1021 NOSIG=
202001090400 METAR VIDP 090400Z 28009KT 1000 R28/1200 R29/1200 BR FEW040 SCT100 09/09 Q1021 NOSIG=
202001090330 METAR VIDP 090330Z 29009KT 1000 R28/1200 R29/1500 BR FEW040 SCT100 09/09 Q1020 NOSIG=
202001090300 METAR VIDP 090300Z 30009KT 0800 R28/1400 R29/1500 MIFG FEW040 SCT100 09/09 Q1019 NOSIG=
202001090230 METAR VIDP 090230Z 30008KT 0900 R28/1400 R29/1500 MIFG FEW040 SCT100 09/09 Q1019 BECMG 0800 MIFG=
202001090200 METAR VIDP 090200Z 30007KT 1000 R28/P2000 R29/P2000 BR FEW040 SCT100 09/09 Q1018 NOSIG=
202001090130 METAR VIDP 090130Z 31007KT 1000 R28/P2000 R29/P2000 BR FEW040 SCT100 09/09 Q1018 NOSIG=
202001090100 METAR VIDP 090100Z 28007KT 1000 R28/P2000 R29/P2000 BR FEW030 SCT100 09/09 Q1017 NOSIG=
202001090030 METAR VIDP 090030Z 28007KT 1000 R28/P2000 R29/P2000 BR FEW030 SCT100 09/09 Q1017 NOSIG=
202001090000 METAR VIDP 090000Z 30007KT 1000 R28/P2000 R29/P2000 BR SCT030 BKN100 09/09 Q1017 NOSIG=
202001082330 METAR VIDP 082330Z 30006KT 1000 R28/P2000 R29/P2000 BR SCT030 BKN100 09/09 Q1016 NOSIG=
202001082300 METAR VIDP 082300Z 30007KT 1000 R28/P2000 R29/P2000 BR SCT030 BKN100 10/10 Q1016 NOSIG=
202001082230 METAR VIDP 082230Z 30007KT 1000 R28/P2000 R29/P2000 BR SCT030 BKN100 10/10 Q1016 NOSIG=
202001082200 METAR VIDP 082200Z 30007KT 1000 R28/P2000 R29/P2000 BR SCT030 BKN100 10/10 Q1016 NOSIG=
202001082130 METAR VIDP 082130Z 30006KT 1000 R28/P2000 R29/P2000 BR SCT030 BKN100 10/10 Q1016 NOSIG=
202001082100 METAR VIDP 082100Z 30007KT 1000 R28/P2000 R29/P2000 BR SCT030 BKN100 11/10 Q1017 NOSIG=
202001082030 METAR VIDP 082030Z 31008KT 1000 R28/P2000 R29/P2000 BR SCT030 BKN100 11/10 Q1017 NOSIG=
202001082000 METAR VIDP 082000Z 31008KT 1000 R28/P2000 R29/P2000 BR SCT030 BKN100 11/11 Q1016 NOSIG=
202001081930 METAR VIDP 081930Z 31009KT 1000 R28/P2000 R29/P2000 BR SCT030 BKN100 11/11 Q1016 NOSIG=
202001081900 METAR VIDP 081900Z 31009KT 1000 R28/P2000 R29/P2000 BR SCT030 BKN100 12/11 Q1016 NOSIG=
202001081830 METAR VIDP 081830Z 30008KT 1000 R28/P2000 R29/P2000 BR SCT030 BKN100 12/12 Q1016 NOSIG=
202001081800 METAR VIDP 081800Z 30010KT 1000 R28/P2000 R29/P2000 BR SCT030 BKN100 12/12 Q1016 NOSIG=
202001081730 METAR VIDP 081730Z 31008KT 1000 R28/P2000 R29/P2000 BR SCT030 BKN100 12/12 Q1016 NOSIG=
202001081700 METAR VIDP 081700Z 31009KT 1000 R28/P2000 R29/P2000 BR SCT030 BKN100 13/12 Q1016 NOSIG=
202001081630 METAR VIDP 081630Z 31009KT 1000 R28/P2000 R29/P2000 BR SCT030 BKN100 13/12 Q1016 NOSIG=
202001081600 METAR VIDP 081600Z 30010KT 1000 R28/P2000 R29/P2000 BR SCT030 BKN100 13/12 Q1016 NOSIG=
202001081530 METAR VIDP 081530Z 29008KT 1000 R28/P2000 R29/P2000 BR SCT030 OVC080 13/12 Q1015 NOSIG=
202001081500 METAR VIDP 081500Z 29007KT 1000 R28/P2000 R29/P2000 BR SCT030 OVC080 13/12 Q1015 NOSIG=
202001081430 METAR VIDP 081430Z 29007KT 1000 R28/P2000 R29/P2000 BR SCT030 OVC080 13/12 Q1015 NOSIG=
202001081400 METAR VIDP 081400Z 28007KT 1000 R28/P2000 R29/P2000 BR SCT030 OVC080 13/12 Q1015 NOSIG=
202001081330 METAR VIDP 081330Z 29007KT 1000 R28/P2000 R29/P2000 BR SCT030 OVC080 13/12 Q1014 NOSIG=
202001081300 METAR VIDP 081300Z 28005KT 1000 R28/P2000 R29/P2000 BR SCT030 OVC080 13/12 Q1014 NOSIG=
202001081230 METAR VIDP 081230Z 27005KT 1000 R28/P2000 R29/P2000 BR SCT030 OVC080 13/12 Q1014 BECMG 0800 MIFG=
202001081200 METAR VIDP 081200Z 26005KT 1000 R28/2000 R29/2000 BR SCT030 OVC080 13/12 Q1013 BECMG 0800 MIFG=
202001081130 METAR VIDP 081130Z 27005KT 1200 R28/1900 R29/2000 BR SCT030 OVC080 14/13 Q1013 NOSIG=
202001081100 METAR VIDP 081100Z 00000KT 1500 R28/1800 R29/P2000 BR SCT030 OVC080 14/14 Q1013 NOSIG=
202001081030 METAR VIDP 081030Z 28003KT 1500 R28/1700 R29/1900 BR SCT030 OVC080 14/13 Q1012 NOSIG=
202001081000 METAR COR VIDP 081000Z 30002KT 1000 R28/1600 R29/2000 BR SCT030 FEW035CB OVC080 14/13 Q1012 BECMG 1500 BR=
202001080930 METAR VIDP 080930Z 04004KT 0700 R28/1500 R29/1500 MIFG SCT030 FEW035CB OVC080 14/14 Q1012 BECMG 0800 MIFG=
202001080900 METAR VIDP 080900Z 03003KT 0600 R28/1500 R29/1500 MIFG SCT030 FEW035CB OVC080 14/14 Q1013 NOSIG=
202001080830 METAR VIDP 080830Z 03003KT 0600 R28/1200 R29/1200 -RA SCT030 FEW035CB OVC080 14/14 Q1013 NOSIG=
202001080800 METAR VIDP 080800Z 03003KT 0700 R28/1400 R29/1500 MIFG SCT030 FEW035CB OVC080 14/13 Q1013 NOSIG=
202001080730 METAR VIDP 080730Z 04003KT 0700 R28/1200 R29/1600 MIFG SCT030 FEW035CB OVC080 14/13 Q1013 NOSIG=
202001080700 METAR VIDP 080700Z 04004KT 0700 R28/1100 R29/1600 MIFG SCT030 FEW035CB OVC080 14/13 Q1014 NOSIG=
202001080630 METAR VIDP 080630Z 06005KT 0700 R28/1200 R29/1600 MIFG SCT030 FEW035CB OVC080 14/13 Q1014 NOSIG=
202001080600 METAR VIDP 080600Z 09006KT 0700 R28/1200 R29/1700 MIFG SCT030 FEW035CB OVC080 14/13 Q1015 NOSIG=
202001080530 METAR VIDP 080530Z 07004KT 0700 R28/1200 R29/1900 MIFG SCT030 FEW035CB OVC080 14/13 Q1015 BECMG 0800 MIFG=
202001080500 METAR VIDP 080500Z 06005KT 0700 R28/1300 R29/1700 -RA SCT030 FEW035CB OVC080 13/13 Q1016 TEMPO TSRA=
202001080430 METAR VIDP 080430Z 04005KT 0700 R28/1200 R29/1700 -RA SCT030 FEW035CB OVC080 13/13 Q1015 TEMPO TSRA=
202001080400 METAR VIDP 080400Z 05006KT 0700 R28/1200 R29/1700 -TSRA SCT030 FEW035CB OVC080 13/13 Q1015 TEMPO TSRA=
202001080330 METAR VIDP 080330Z 01005KT 0700 R28/1200 R29/1600 -TSRA SCT030 FEW035CB OVC080 13/13 Q1015 TEMPO 32010G20KT 0600 TSRA=
202001080300 METAR VIDP 080300Z 32006KT 0700 R28/1800 R29/P2000 -TSRA SCT030 FEW035CB OVC080 13/13 Q1015 TEMPO 32010G20KT 0600 TSRA=
202001080230 METAR VIDP 080230Z 06005KT 0800 R28/1600 R29/P2000 MIFG SCT030 OVC080 13/13 Q1014 NOSIG=
202001080200 METAR VIDP 080200Z 07003KT 0900 R28/P2000 R29/P2000 MIFG SCT030 BKN100 13/12 Q1014 BECMG 0800 MIFG=
202001080130 METAR VIDP 080130Z 00000KT 1000 R28/P2000 R29/P2000 MIFG SCT030 BKN100 13/11 Q1014 BECMG 0800 MIFG=
202001080100 METAR VIDP 080100Z 00000KT 1200 R28/P2000 R29/P2000 BR SCT030 BKN100 13/11 Q1013 NOSIG=
202001080030 METAR VIDP 080030Z 00000KT 1200 R28/P2000 R29/P2000 BR SCT030 BKN100 13/11 Q1013 NOSIG=
202001080000 METAR VIDP 080000Z 00000KT 1200 R28/P2000 R29/P2000 BR SCT030 BKN100 12/10 Q1013 NOSIG=
202001072330 METAR VIDP 072330Z 08003KT 1500 R28/P2000 R29/P2000 BR SCT030 BKN100 11/10 Q1013 NOSIG=
202001072300 METAR VIDP 072300Z 02004KT 1500 R28/P2000 R29/P2000 BR SCT030 BKN100 11/10 Q1013 NOSIG=
202001072230 METAR VIDP 072230Z 05004KT 1500 R28/P2000 R29/P2000 BR SCT030 BKN090 11/10 Q1013 NOSIG=
202001072200 METAR VIDP 072200Z 32005KT 1500 R28/P2000 R29/P2000 -RA SCT030 BKN080 11/10 Q1014 NOSIG=
202001072130 METAR VIDP 072130Z 03003KT 1500 R28/P2000 R29/P2000 BR SCT030 BKN080 12/10 Q1014 NOSIG=
202001072100 METAR VIDP 072100Z 04003KT 1500 R28/P2000 R29/P2000 BR SCT030 BKN080 12/10 Q1014 NOSIG=
202001072030 METAR VIDP 072030Z 11005KT 1500 R28/P2000 R29/P2000 BR SCT030 BKN080 12/10 Q1014 NOSIG=
202001072000 METAR COR VIDP 072000Z 15005KT 1500 R28/P2000 R29/P2000 -RA SCT030 BKN080 12/10 Q1014 NOSIG=
202001071930 METAR VIDP 071930Z 15006KT 1500 R28/P2000 R29/P2000 BR SCT030 BKN100 13/10 Q1015 NOSIG=
202001071900 METAR VIDP 071900Z 11007KT 1500 R28/P2000 R29/P2000 BR SCT030 BKN080 13/10 Q1015 NOSIG=
202001071830 METAR VIDP 071830Z 11007KT 1500 R28/P2000 R29/P2000 BR SCT030 BKN080 13/10 Q1015 NOSIG=
202001071800 METAR VIDP 071800Z 11008KT 1500 R28/P2000 R29/P2000 BR SCT030 BKN100 13/10 Q1015 NOSIG=
202001071730 METAR VIDP 071730Z 11008KT 1500 R28/P2000 R29/P2000 BR SCT030 BKN100 13/10 Q1015 NOSIG=
202001071700 METAR VIDP 071700Z 12007KT 1500 R28/P2000 R29/P2000 BR SCT030 BKN100 13/11 Q1015 NOSIG=
202001071630 METAR VIDP 071630Z 11007KT 1500 R28/P2000 R29/P2000 BR SCT030 BKN100 14/11 Q1015 NOSIG=
202001071600 METAR VIDP 071600Z 09007KT 1500 R28/P2000 R29/P2000 BR SCT030 BKN100 15/13 Q1015 NOSIG=
202001071530 METAR VIDP 071530Z 10008KT 1500 R28/P2000 R29/P2000 BR SCT030 BKN100 15/13 Q1015 NOSIG=
202001071500 METAR VIDP 071500Z 10007KT 1500 R28/P2000 R29/P2000 BR SCT030 BKN100 15/13 Q1015 NOSIG=
202001071430 METAR VIDP 071430Z 09007KT 1600 R28/P2000 R29/P2000 BR SCT030 BKN100 15/13 Q1015 BECMG 1500 BR=
202001071400 METAR VIDP 071400Z 07006KT 1600 R28/P2000 R29/P2000 BR SCT030 BKN100 15/13 Q1014 BECMG 1500 BR=
202001071330 METAR VIDP 071330Z 08006KT 1800 R28/P2000 R29/P2000 BR SCT030 BKN080 16/12 Q1014 NOSIG=
202001071300 METAR VIDP 071300Z 09006KT 2200 BR SCT030 BKN080 16/12 Q1014 NOSIG=
202001071230 METAR VIDP 071230Z 07007KT 2200 BR SCT030 BKN080 16/12 Q1014 NOSIG=
202001071200 METAR VIDP 071200Z 09005KT 2200 HZ SCT030 BKN080 17/12 Q1014 NOSIG=
202001071130 METAR VIDP 071130Z 09006KT 2200 HZ SCT030 BKN080 17/12 Q1014 NOSIG=
202001071100 METAR VIDP 071100Z 09008KT 2200 HZ SCT030 BKN080 18/13 Q1014 NOSIG=
202001071030 METAR VIDP 071030Z 09009KT 2200 HZ SCT030 BKN080 18/12 Q1014 NOSIG=
202001071000 METAR VIDP 071000Z 10008KT 2200 HZ SCT030 OVC080 18/11 Q1014 NOSIG=
202001070930 METAR VIDP 070930Z 08008KT 2200 HZ SCT030 BKN090 18/11 Q1014 NOSIG=
202001070900 METAR VIDP 070900Z 09007KT 2200 HZ SCT030 BKN090 18/11 Q1015 NOSIG=
202001070830 METAR VIDP 070830Z 09006KT 2200 HZ SCT030 BKN090 17/12 Q1015 NOSIG=
202001070800 METAR VIDP 070800Z 10005KT 2000 HZ SCT030 OVC080 17/12 Q1016 NOSIG=
202001070730 METAR VIDP 070730Z 11005KT 2000 HZ SCT030 OVC080 17/12 Q1016 NOSIG=
202001070700 METAR VIDP 070700Z 11005KT 2000 DZ SCT030 OVC080 17/11 Q1017 NOSIG=
202001070630 METAR VIDP 070630Z 11005KT 2000 HZ SCT035 BKN100 17/10 Q1017 NOSIG=
202001070600 METAR VIDP 070600Z 10007KT 2000 HZ SCT035 BKN100 17/11 Q1018 NOSIG=
202001070530 METAR COR VIDP 070530Z 11007KT 2000 HZ SCT035 BKN100 17/12 Q1018 NOSIG=
202001070500 METAR VIDP 070500Z 11006KT 1800 R28/P2000 R29/P2000 HZ SCT035 BKN100 17/12 Q1018 NOSIG=
202001070430 METAR VIDP 070430Z 10006KT 1400 R28/1700 R29/P2000 BR SCT035 BKN100 16/13 Q1018 BECMG 1500 BR=
202001070400 METAR VIDP 070400Z 10006KT 1200 R28/1600 R29/P2000 BR SCT035 BKN100 15/13 Q1018 NOSIG=
202001070330 METAR VIDP 070330Z 10007KT 1200 R28/1500 R29/P2000 BR SCT035 BKN100 15/13 Q1018 NOSIG=
202001070300 METAR VIDP 070300Z 09005KT 1200 R28/1500 R29/P2000 BR SCT035 BKN100 14/13 Q1017 NOSIG=
202001070230 METAR VIDP 070230Z 08004KT 1200 R28/1400 R29/P2000 BR SCT035 BKN100 13/12 Q1017 NOSIG=
202001070200 METAR VIDP 070200Z 11003KT 1200 R28/P2000 R29/P2000 BR SCT035 BKN100 13/12 Q1017 NOSIG=
202001070130 METAR VIDP 070130Z 07004KT 1500 R28/P2000 R29/P2000 BR SCT035 BKN100 13/12 Q1017 NOSIG=
202001070100 METAR VIDP 070100Z 08004KT 1500 R28/P2000 R29/P2000 BR SCT035 BKN100 13/12 Q1017 NOSIG=
202001070030 METAR VIDP 070030Z 05003KT 1500 R28/P2000 R29/P2000 BR SCT035 BKN100 14/13 Q1017 NOSIG=
202001070000 METAR VIDP 070000Z 03003KT 1500 R28/P2000 R29/P2000 BR SCT035 BKN100 14/13 Q1017 NOSIG=
202001062330 METAR VIDP 062330Z 02003KT 1800 R28/P2000 R29/P2000 BR SCT035 BKN100 14/13 Q1017 BECMG 1500 BR=
202001062300 METAR VIDP 062300Z 09004KT 2000 BR SCT035 BKN100 14/12 Q1016 NOSIG=
202001062230 METAR VIDP 062230Z 10004KT 2000 BR SCT035 BKN100 14/12 Q1016 NOSIG=
202001062200 METAR VIDP 062200Z 12004KT 2000 BR SCT035 BKN100 14/12 Q1017 NOSIG=
202001062130 METAR VIDP 062130Z 13004KT 2000 BR SCT035 BKN100 14/12 Q1018 NOSIG=
202001062100 METAR VIDP 062100Z 13003KT 2000 BR SCT035 BKN100 14/12 Q1018 NOSIG=
202001062030 METAR VIDP 062030Z 00000KT 2000 BR SCT035 BKN100 14/12 Q1018 NOSIG=
202001062000 METAR VIDP 062000Z 00000KT 2000 BR SCT035 BKN100 14/12 Q1018 NOSIG=
202001061930 METAR VIDP 061930Z 06004KT 2000 BR SCT035 BKN100 14/12 Q1018 NOSIG=
202001061900 METAR VIDP 061900Z 08007KT 2000 BR SCT035 BKN100 14/12 Q1017 NOSIG=
202001061830 METAR VIDP 061830Z 08005KT 2000 BR SCT035 BKN100 14/12 Q1018 NOSIG=
202001061800 METAR VIDP 061800Z 07006KT 2000 BR SCT035 BKN100 14/12 Q1018 NOSIG=
202001061730 METAR VIDP 061730Z 06003KT 2000 BR SCT035 BKN100 14/12 Q1019 NOSIG=
202001061700 METAR VIDP 061700Z 06003KT 2000 BR SCT035 BKN100 14/12 Q1019 NOSIG=
202001061630 METAR VIDP 061630Z 06004KT 2000 BR SCT035 BKN100 14/12 Q1019 NOSIG=
202001061600 METAR VIDP 061600Z 08005KT 2000 BR SCT035 BKN100 14/11 Q1019 NOSIG=
202001061530 METAR VIDP 061530Z 06007KT 2000 BR SCT035 BKN100 14/11 Q1019 NOSIG=
202001061500 METAR VIDP 061500Z 06006KT 2000 BR SCT035 BKN100 14/11 Q1019 NOSIG=
202001061430 METAR VIDP 061430Z 05007KT 2000 BR SCT035 BKN100 14/10 Q1019 NOSIG=
202001061400 METAR VIDP 061400Z 05006KT 2000 BR SCT035 BKN100 14/10 Q1019 NOSIG=
202001061330 METAR VIDP 061330Z 05006KT 2000 HZ SCT035 BKN100 15/10 Q1018 NOSIG=
202001061300 METAR VIDP 061300Z 06006KT 2000 HZ SCT035 BKN100 15/10 Q1018 NOSIG=
202001061230 METAR VIDP 061230Z 06006KT 2000 HZ SCT035 BKN100 16/09 Q1018 NOSIG=
202001061200 METAR VIDP 061200Z 06006KT 2000 HZ SCT035 BKN100 16/09 Q1018 NOSIG=
202001061130 METAR VIDP 061130Z 04006KT 2000 HZ SCT035 BKN100 16/08 Q1018 NOSIG=
202001061100 METAR VIDP 061100Z 04006KT 2000 HZ SCT035 BKN100 17/08 Q1017 NOSIG=
202001061030 METAR VIDP 061030Z 03006KT 2000 HZ SCT035 BKN100 17/07 Q1018 NOSIG=
202001061000 METAR VIDP 061000Z 03007KT 2000 FU SCT035 BKN100 17/06 Q1018 NOSIG=
202001060930 METAR VIDP 060930Z 02007KT 2000 FU SCT035 BKN100 18/06 Q1017 NOSIG=
202001060900 METAR VIDP 060900Z 03006KT 2000 FU SCT035 BKN100 18/06 Q1017 NOSIG=
202001060830 METAR VIDP 060830Z 32004KT 2000 FU SCT035 BKN100 18/06 Q1018 NOSIG=
202001060800 METAR VIDP 060800Z 31004KT 1300 R28/2000 R29/2000 FU SCT035 BKN100 18/07 Q1018 BECMG 1500 FU=
202001060730 METAR VIDP 060730Z 30003KT 1200 R28/2000 R29/2000 FU SCT035 BKN100 17/07 Q1018 NOSIG=
202001060700 METAR VIDP 060700Z 35003KT 1200 R28/1700 R29/2000 BR SCT035 BKN100 17/06 Q1019 NOSIG=
202001060630 METAR VIDP 060630Z VRB02KT 1200 R28/1700 R29/2000 BR SCT035 BKN100 17/06 Q1019 NOSIG=
202001060600 METAR VIDP 060600Z 31004KT 1200 R28/1700 R29/1800 BR SCT035 BKN100 16/06 Q1020 NOSIG=
202001060530 METAR VIDP 060530Z 30004KT 1000 R28/1600 R29/2000 BR SCT035 BKN100 17/06 Q1020 NOSIG=
202001060500 METAR VIDP 060500Z 33004KT 1000 R28/1500 R29/1200 MIFG SCT035 BKN100 16/08 Q1020 NOSIG=
202001060430 METAR VIDP 060430Z 29003KT 0900 R28/1300 R29/1500 MIFG SCT035 BKN100 16/09 Q1020 NOSIG=
202001060400 METAR VIDP 060400Z 22004KT 0900 R28/1200 R29/2000 MIFG SCT035 BKN100 15/11 Q1019 NOSIG=
202001060330 METAR VIDP 060330Z 00000KT 0900 R28/1300 R29/1200 MIFG SCT035 BKN100 13/12 Q1019 NOSIG=
202001060300 METAR VIDP 060300Z 00000KT 0900 R28/1500 R29/1600 MIFG SCT035 BKN100 13/11 Q1019 NOSIG=
202001060230 METAR VIDP 060230Z 00000KT 0900 R28/1900 R29/2000 MIFG SCT035 BKN100 12/11 Q1018 NOSIG=
202001060200 METAR VIDP 060200Z 00000KT 0900 R28/P2000 R29/P2000 BR SCT035 BKN090 12/11 Q1018 NOSIG=
202001060130 METAR VIDP 060130Z 00000KT 0900 R28/P2000 R29/P2000 BR SCT035 BKN090 12/11 Q1018 TEMPO 0800 MIFG=
202001060100 METAR VIDP 060100Z 00000KT 0900 R28/P2000 R29/P2000 BR SCT035 BKN090 12/11 Q1017 TEMPO 0800 MIFG=
202001060030 METAR VIDP 060030Z 00000KT 0900 R28/P2000 R29/P2000 BR SCT035 BKN090 12/11 Q1017 NOSIG=
202001060000 METAR VIDP 060000Z 00000KT 0900 R28/P2000 R29/P2000 BR SCT035 BKN090 12/11 Q1018 NOSIG=
202001052330 METAR VIDP 052330Z 00000KT 0900 R28/P2000 R29/P2000 BR SCT035 BKN090 11/11 Q1018 NOSIG=
202001052300 METAR VIDP 052300Z 00000KT 1000 R28/P2000 R29/P2000 BR SCT035 BKN090 11/11 Q1018 NOSIG=
202001052230 METAR VIDP 052230Z 00000KT 1000 R28/P2000 R29/P2000 BR SCT035 BKN090 12/11 Q1018 NOSIG=
202001052200 METAR VIDP 052200Z 00000KT 1000 R28/P2000 R29/P2000 BR SCT035 BKN090 12/11 Q1018 NOSIG=
202001052130 METAR VIDP 052130Z 00000KT 1000 R28/P2000 R29/P2000 BR SCT035 BKN090 12/11 Q1018 BECMG 0800 MIFG=
202001052100 METAR VIDP 052100Z 00000KT 1000 R28/P2000 R29/P2000 BR SCT035 BKN090 12/10 Q1019 BECMG 0800 MIFG=
202001052030 METAR VIDP 052030Z 23003KT 1100 R28/P2000 R29/P2000 BR SCT035 BKN090 12/10 Q1019 NOSIG=
202001052000 METAR VIDP 052000Z 00000KT 1100 R28/P2000 R29/P2000 BR SCT035 BKN090 12/10 Q1019 NOSIG=
202001051930 METAR VIDP 051930Z 00000KT 1100 R28/P2000 R29/P2000 BR SCT035 BKN090 12/09 Q1019 NOSIG=
202001051900 METAR VIDP 051900Z 23003KT 1200 R28/P2000 R29/P2000 FU SCT035 BKN090 13/08 Q1019 NOSIG=
202001051830 METAR VIDP 051830Z 00000KT 1200 R28/P2000 R29/P2000 FU SCT035 BKN090 14/08 Q1018 NOSIG=
202001051800 METAR VIDP 051800Z 00000KT 1300 R28/P2000 R29/P2000 FU SCT035 BKN090 14/08 Q1018 NOSIG=
202001051730 METAR VIDP 051730Z 00000KT 1300 R28/P2000 R29/P2000 FU SCT035 BKN090 15/08 Q1018 NOSIG=
202001051700 METAR VIDP 051700Z 26003KT 1500 R28/P2000 R29/P2000 FU SCT035 BKN100 15/08 Q1019 NOSIG=
202001051630 METAR VIDP 051630Z 34004KT 1700 R28/P2000 R29/P2000 FU SCT035 BKN100 15/08 Q1019 BECMG 1500 FU=
202001051600 METAR VIDP 051600Z 33003KT 1800 R28/P2000 R29/P2000 FU SCT035 BKN100 15/08 Q1019 NOSIG=
202001051530 METAR VIDP 051530Z 30003KT 1800 R28/P2000 R29/P2000 FU SCT035 BKN100 16/08 Q1019 NOSIG=
202001051500 METAR VIDP 051500Z 30005KT 2200 HZ SCT035 BKN100 16/09 Q1019 NOSIG=
202001051430 METAR VIDP 051430Z 32004KT 2200 HZ SCT035 BKN100 16/10 Q1018 NOSIG=
202001051400 METAR VIDP 051400Z 31005KT 2200 HZ SCT040 BKN100 17/10 Q1019 NOSIG=
202001051330 METAR VIDP 051330Z 32005KT 2200 HZ SCT040 BKN100 17/09 Q1019 NOSIG=
202001051300 METAR VIDP 051300Z 31006KT 2200 HZ SCT040 BKN100 17/08 Q1018 NOSIG=
202001051230 METAR VIDP 051230Z 32006KT 2200 HZ SCT040 BKN100 17/07 Q1018 NOSIG=
202001051200 METAR VIDP 051200Z 32007KT 2200 HZ SCT040 BKN100 17/06 Q1017 NOSIG=
202001051130 METAR VIDP 051130Z 31007KT 2200 HZ SCT040 BKN100 18/06 Q1017 NOSIG=
202001051100 METAR VIDP 051100Z 30006KT 2500 HZ SCT040 BKN100 18/06 Q1017 NOSIG=
202001051030 METAR VIDP 051030Z 28008KT 2500 HZ SCT040 BKN100 19/07 Q1017 NOSIG=
202001051000 METAR VIDP 051000Z 28009KT 2700 HZ SCT040 BKN100 19/06 Q1017 NOSIG=
202001050930 METAR VIDP 050930Z 28008KT 2700 HZ SCT040 BKN100 19/06 Q1016 NOSIG=
202001050900 METAR VIDP 050900Z 28007KT 2700 HZ SCT040 BKN100 19/06 Q1016 NOSIG=
202001050830 METAR VIDP 050830Z 27008KT 2500 HZ FEW100 19/08 Q1016 NOSIG=
202001050800 METAR VIDP 050800Z 26007KT 2200 HZ FEW100 19/08 Q1016 NOSIG=
202001050730 METAR VIDP 050730Z 27007KT 2000 FU FEW100 19/08 Q1017 NOSIG=
202001050700 METAR VIDP 050700Z 26007KT 1800 R28/P2000 R29/P2000 FU FEW100 18/08 Q1017 NOSIG=
202001050630 METAR VIDP 050630Z 26006KT 1600 R28/1900 R29/2000 FU FEW100 17/09 Q1018 NOSIG=
202001050600 METAR VIDP 050600Z 26008KT 1500 R28/1500 R29/2000 FU FEW100 16/09 Q1019 NOSIG=
202001050530 METAR VIDP 050530Z 25007KT 1500 R28/1500 R29/2000 FU FEW100 15/10 Q1019 NOSIG=
202001050500 METAR VIDP 050500Z 25006KT 1200 R28/1300 R29/2000 BR FEW100 14/10 Q1019 BECMG 1500 FU=
202001050430 METAR VIDP 050430Z 25006KT 1000 R28/1200 R29/2000 BR FEW100 13/10 Q1019 NOSIG=
202001050400 METAR VIDP 050400Z 23003KT 0900 R28/1300 R29/1700 MIFG FEW100 12/10 Q1019 NOSIG=
202001050330 METAR VIDP 050330Z 00000KT 0700 R28/1200 R29/1700 MIFG FEW100 11/10 Q1018 BECMG 0800 MIFG=
202001050300 METAR VIDP 050300Z 00000KT 0600 R28/1200 R29/1400 MIFG FEW100 10/10 Q1018 NOSIG=
202001050230 METAR VIDP 050230Z 00000KT 0600 R28/1000 R29/0800 MIFG FEW100 09/09 Q1018 NOSIG=
202001050200 METAR VIDP 050200Z 00000KT 0600 R28/1500 R29/1000 MIFG FEW100 09/09 Q1018 NOSIG=
202001050130 METAR VIDP 050130Z 00000KT 0700 R28/P2000 R29/P2000 MIFG FEW100 09/09 Q1017 BECMG 0600 MIFG=
202001050100 METAR VIDP 050100Z 00000KT 0800 R28/1800 R29/P2000 MIFG FEW100 09/09 Q1017 NOSIG=
202001050030 METAR VIDP 050030Z 24004KT 0800 R28/P2000 R29/P2000 MIFG FEW100 09/09 Q1017 BECMG 0600 MIFG=
202001050000 METAR VIDP 050000Z 00000KT 0800 R28/P2000 R29/P2000 MIFG FEW100 09/09 Q1017 BECMG 0600 MIFG=
202001042330 METAR VIDP 042330Z 00000KT 0800 R28/P2000 R29/P2000 MIFG FEW100 10/09 Q1016 BECMG 0600 MIFG=
202001042300 METAR VIDP 042300Z 00000KT 0800 R28/P2000 R29/P2000 MIFG FEW100 10/09 Q1016 NOSIG=
202001042230 METAR VIDP 042230Z 00000KT 1000 R28/P2000 R29/P2000 BR FEW100 10/09 Q1016 BECMG 0800 MIFG=
202001042200 METAR VIDP 042200Z 00000KT 1000 R28/P2000 R29/P2000 BR FEW100 11/09 Q1016 NOSIG=
202001042130 METAR VIDP 042130Z 00000KT 1000 R28/P2000 R29/P2000 BR FEW100 11/09 Q1017 NOSIG=
202001042100 METAR VIDP 042100Z 00000KT 1000 R28/P2000 R29/P2000 BR FEW100 12/09 Q1017 NOSIG=
202001042030 METAR VIDP 042030Z 00000KT 1000 R28/P2000 R29/P2000 BR FEW100 13/10 Q1017 NOSIG=
202001042000 METAR VIDP 042000Z 00000KT 1200 R28/P2000 R29/P2000 BR FEW100 13/09 Q1017 NOSIG=
202001041930 METAR VIDP 041930Z 00000KT 1200 R28/P2000 R29/P2000 BR FEW100 13/09 Q1017 NOSIG=
202001041900 METAR VIDP 041900Z 00000KT 1200 R28/P2000 R29/P2000 BR FEW100 13/09 Q1017 NOSIG=
202001041830 METAR VIDP 041830Z 31003KT 1200 R28/P2000 R29/P2000 BR FEW100 13/09 Q1017 NOSIG=
202001041800 METAR VIDP 041800Z 05004KT 1200 R28/P2000 R29/P2000 BR FEW100 13/09 Q1018 NOSIG=
202001041730 METAR VIDP 041730Z 02003KT 1200 R28/P2000 R29/P2000 BR FEW100 14/10 Q1018 NOSIG=
202001041700 METAR VIDP 041700Z 36004KT 1200 R28/P2000 R29/P2000 BR FEW100 14/10 Q1018 NOSIG=
202001041630 METAR VIDP 041630Z 02004KT 1200 R28/P2000 R29/P2000 BR FEW100 14/10 Q1018 NOSIG=
202001041600 METAR VIDP 041600Z 34004KT 1500 R28/P2000 R29/P2000 BR FEW100 14/09 Q1018 NOSIG=
202001041530 METAR VIDP 041530Z 30003KT 1500 R28/P2000 R29/P2000 FU FEW100 15/08 Q1018 NOSIG=
202001041500 METAR VIDP 041500Z 31004KT 1500 R28/P2000 R29/P2000 FU FEW100 15/08 Q1017 NOSIG=
202001041430 METAR VIDP 041430Z 31005KT 1500 R28/P2000 R29/P2000 FU FEW100 16/08 Q1017 NOSIG=
202001041400 METAR VIDP 041400Z 32005KT 1500 R28/P2000 R29/P2000 FU FEW100 16/10 Q1017 NOSIG=
202001041330 METAR VIDP 041330Z 30005KT 1500 R28/P2000 R29/P2000 FU FEW100 17/09 Q1016 NOSIG=
202001041300 METAR VIDP 041300Z 29005KT 1500 R28/P2000 R29/P2000 FU FEW100 17/09 Q1016 NOSIG=
202001041230 METAR VIDP 041230Z 28005KT 1500 R28/P2000 R29/P2000 FU FEW100 17/08 Q1016 NOSIG=
202001041200 METAR VIDP 041200Z 27006KT 1500 R28/P2000 R29/P2000 FU FEW100 18/08 Q1016 NOSIG=
202001041130 METAR VIDP 041130Z 27007KT 1500 R28/P2000 R29/P2000 FU FEW100 19/07 Q1015 NOSIG=
202001041100 METAR VIDP 041100Z 27008KT 1500 R28/P2000 R29/P2000 FU FEW100 19/07 Q1015 NOSIG=
202001041030 METAR VIDP 041030Z 28006KT 1500 R28/P2000 R29/P2000 FU FEW100 19/09 Q1015 NOSIG=
202001041000 METAR VIDP 041000Z 29006KT 1500 R28/P2000 R29/P2000 FU FEW100 19/09 Q1015 NOSIG=
202001040930 METAR VIDP 040930Z 27007KT 1500 R28/P2000 R29/P2000 FU FEW100 19/09 Q1015 NOSIG=
202001040900 METAR VIDP 040900Z 28007KT 1500 R28/P2000 R29/P2000 FU FEW100 20/10 Q1016 NOSIG=
202001040830 METAR VIDP 040830Z 28007KT 1500 R28/P2000 R29/P2000 FU FEW100 20/10 Q1016 NOSIG=
202001040800 METAR VIDP 040800Z 27006KT 1500 R28/1900 R29/P2000 FU FEW100 19/11 Q1017 NOSIG=
202001040730 METAR VIDP 040730Z 27007KT 1300 R28/1800 R29/P2000 FU NSC 19/11 Q1017 BECMG 1500 FU=
202001040700 METAR VIDP 040700Z 26006KT 1000 R28/1800 R29/P2000 FU FEW100 18/12 Q1018 NOSIG=
202001040630 METAR VIDP 040630Z 24005KT 1000 R28/1500 R29/P2000 FU FEW100 18/12 Q1018 NOSIG=
202001040530 METAR VIDP 040530Z 27005KT 0700 R28/1200 R29/1700 MIFG NSC 16/13 Q1019 BECMG 0800 MIFG=
202001040500 METAR VIDP 040500Z 26004KT 0600 R28/1100 R29/1500 MIFG NSC 15/13 Q1019 NOSIG=
202001040430 METAR VIDP 040430Z 27004KT 0500 R28/1100 R29/1200 MIFG NSC 15/12 Q1019 BECMG 0600 MIFG=
202001040400 METAR VIDP 040400Z 00000KT 0500 R28/1000 R29/1000 MIFG NSC 13/10 Q1019 NOSIG=
202001040330 METAR VIDP 040330Z 00000KT 0400 R28/0900 R29/0900 FG NSC 12/10 Q1018 NOSIG=
202001040300 METAR VIDP 040300Z 00000KT 0400 R28/1000 R29/0700 FG NSC 11/10 Q1018 NOSIG=
202001040230 METAR VIDP 040230Z 00000KT 0300 R28/0800 R29/0600 FG NSC 10/09 Q1018 BECMG 0350 FG=
202001040200 METAR VIDP 040200Z 00000KT 0300 R28/1100 R29/0700 FG VV/// 10/09 Q1018 TEMPO 0150 FG=
202001040130 METAR VIDP 040130Z 00000KT 0600 R28/1700 R29/1400 MIFG NSC 10/09 Q1018 NOSIG=
202001040100 METAR COR VIDP 040100Z 00000KT 0700 R28/1800 R29/1800 MIFG NSC 10/09 Q1017 BECMG 0600 MIFG=
202001040030 METAR VIDP 040030Z 00000KT 0700 R28/P2000 R29/1600 MIFG NSC 10/09 Q1017 BECMG 0600 MIFG=
202001040000 METAR VIDP 040000Z 00000KT 0700 R28/P2000 R29/1200 MIFG NSC 10/09 Q1017 BECMG 0600 MIFG=
202001032330 METAR VIDP 032330Z 00000KT 0700 R28/P2000 R29/1200 MIFG NSC 11/09 Q1017 NOSIG=
202001032300 METAR VIDP 032300Z 00000KT 0700 R28/P2000 R29/1800 MIFG NSC 11/09 Q1017 BECMG 0800 MIFG=
202001032230 METAR VIDP 032230Z 00000KT 0700 R28/P2000 R29/P2000 MIFG NSC 11/09 Q1017 NOSIG=
202001032200 METAR VIDP 032200Z 00000KT 0700 R28/P2000 R29/P2000 MIFG NSC 11/09 Q1017 BECMG 0600 MIFG=
202001032130 METAR VIDP 032130Z 00000KT 0700 R28/P2000 R29/1300 BR NSC 11/09 Q1017 BECMG 0600 MIFG=
202001032100 METAR VIDP 032100Z 00000KT 0900 R28/P2000 R29/1300 BR NSC 12/10 Q1017 BECMG 0800 MIFG=
202001032030 METAR VIDP 032030Z 00000KT 1000 R28/P2000 R29/1800 BR NSC 12/10 Q1017 NOSIG=
202001032000 METAR VIDP 032000Z 00000KT 1200 R28/P2000 R29/P2000 BR NSC 12/11 Q1017 NOSIG=
202001031930 METAR VIDP 031930Z 00000KT 1500 R28/P2000 R29/P2000 BR FEW100 13/12 Q1018 NOSIG=
202001031900 METAR VIDP 031900Z 00000KT 1500 R28/2000 R29/2000 BR FEW100 13/12 Q1018 NOSIG=
202001031830 METAR VIDP 031830Z 00000KT 1600 R28/2000 R29/2000 BR FEW100 13/12 Q1018 BECMG 1500 BR=
202001031800 METAR VIDP 031800Z 00000KT 1600 R28/P2000 R29/P2000 BR FEW100 13/12 Q1018 BECMG 1500 BR=
202001031730 METAR VIDP 031730Z 00000KT 1800 R28/P2000 R29/P2000 BR FEW100 14/12 Q1018 NOSIG=
202001031700 METAR VIDP 031700Z 00000KT 2200 BR FEW100 14/12 Q1019 NOSIG=
202001031630 METAR VIDP 031630Z 00000KT 2200 BR FEW100 15/12 Q1019 NOSIG=
202001031600 METAR VIDP 031600Z 00000KT 2200 BR FEW100 16/10 Q1018 NOSIG=
202001031530 METAR VIDP 031530Z 00000KT 2200 HZ FEW100 16/10 Q1018 NOSIG=
202001031500 METAR VIDP 031500Z 00000KT 2200 HZ FEW100 16/10 Q1018 NOSIG=
202001031430 METAR VIDP 031430Z 00000KT 2200 HZ FEW100 17/10 Q1018 NOSIG=
202001031400 METAR VIDP 031400Z 00000KT 2200 HZ FEW100 17/10 Q1017 NOSIG=
202001031330 METAR VIDP 031330Z 00000KT 2500 HZ FEW100 18/10 Q1017 NOSIG=
202001031300 METAR VIDP 031300Z 00000KT 2500 HZ FEW100 18/10 Q1016 NOSIG=
202001031230 METAR VIDP 031230Z 15003KT 3000 HZ FEW100 18/09 Q1016 NOSIG=
202001031200 METAR VIDP 031200Z 09003KT 3000 HZ FEW100 19/09 Q1016 NOSIG=
202001031130 METAR VIDP 031130Z 11003KT 3000 HZ FEW100 20/09 Q1016 NOSIG=
202001031100 METAR VIDP 031100Z 10004KT 3000 HZ FEW100 21/08 Q1016 NOSIG=
202001031030 METAR VIDP 031030Z 12005KT 3000 HZ FEW100 21/08 Q1016 NOSIG=
202001031000 METAR VIDP 031000Z 10004KT 3000 HZ FEW100 21/08 Q1016 NOSIG=
202001030930 METAR VIDP 030930Z 10005KT 2800 HZ FEW100 21/08 Q1016 BECMG 3000 HZ=
202001030900 METAR VIDP 030900Z 09004KT 2500 HZ FEW100 22/09 Q1016 NOSIG=
202001030830 METAR VIDP 030830Z 06005KT 2500 HZ FEW100 21/09 Q1017 NOSIG=
202001030800 METAR VIDP 030800Z 10004KT 2000 HZ NSC 21/09 Q1017 NOSIG=
202001030730 METAR VIDP 030730Z 13005KT 2000 HZ NSC 20/09 Q1018 NOSIG=
202001030700 METAR VIDP 030700Z 10005KT 2000 HZ NSC 20/09 Q1018 NOSIG=
202001030630 METAR VIDP 030630Z 13005KT 1500 R28/2000 R29/2000 FU NSC 20/10 Q1019 NOSIG=
202001030600 METAR VIDP 030600Z 10005KT 1500 R28/1800 R29/2000 FU NSC 19/10 Q1020 NOSIG=
202001030530 METAR VIDP 030530Z 11007KT 1400 R28/1800 R29/2000 FU FEW100 19/10 Q1020 BECMG 1500 FU=
202001030500 METAR VIDP 030500Z 09007KT 1200 R28/1800 R29/2000 FU FEW100 18/10 Q1020 NOSIG=
202001030430 METAR VIDP 030430Z 09005KT 0800 R28/1600 R29/1800 FU SCT100 16/11 Q1020 NOSIG=
202001030400 METAR VIDP 030400Z 07004KT 0700 R28/1400 R29/1400 MIFG SCT100 14/12 Q1020 BECMG 0800 MIFG=
202001030330 METAR VIDP 030330Z 00000KT 0500 R28/1100 R29/0900 FG SCT100 13/12 Q1020 BECMG 0600 MIFG=
202001030300 METAR VIDP 030300Z 00000KT 0400 R28/0800 R29/0700 FG SCT100 11/11 Q1019 BECMG 0600 MIFG=
202001030230 METAR VIDP 030230Z 00000KT 0400 R28/0800 R29/0700 FG SCT100 11/11 Q1019 NOSIG=
202001030200 METAR VIDP 030200Z 00000KT 0400 R28/1100 R29/0900 FG SCT100 10/10 Q1019 NOSIG=
202001030130 METAR VIDP 030130Z 00000KT 0400 R28/1700 R29/1200 FG SCT100 10/10 Q1019 NOSIG=
202001030100 METAR VIDP 030100Z 00000KT 0400 R28/1700 R29/1100 FG SCT100 10/10 Q1018 NOSIG=
202001030030 METAR VIDP 030030Z 00000KT 0400 R28/1200 R29/0800 FG SCT100 11/11 Q1018 NOSIG=
202001030000 METAR VIDP 030000Z 00000KT 0400 R28/1200 R29/0800 FG SCT100 11/11 Q1018 NOSIG=
202001022330 METAR VIDP 022330Z 00000KT 0400 R28/1400 R29/0800 FG SCT100 11/11 Q1018 NOSIG=
202001022300 METAR VIDP 022300Z 00000KT 0400 R28/1500 R29/0900 FG SCT100 11/11 Q1018 TEMPO 0350 FG=
202001022230 METAR VIDP 022230Z 00000KT 0600 R28/1500 R29/1000 MIFG SCT100 11/11 Q1018 TEMPO 0350 FG=
202001022200 METAR VIDP 022200Z 00000KT 0700 R28/1900 R29/1100 MIFG SCT100 12/11 Q1018 TEMPO 0600 MIFG=
202001022130 METAR VIDP 022130Z 00000KT 0800 R28/1700 R29/1100 MIFG SCT100 13/12 Q1019 NOSIG=
202001022100 METAR VIDP 022100Z 00000KT 0800 R28/2000 R29/1400 MIFG SCT100 13/12 Q1019 NOSIG=
202001022030 METAR VIDP 022030Z 00000KT 0800 R28/1700 R29/1300 MIFG SCT100 13/12 Q1019 NOSIG=
202001022000 METAR VIDP 022000Z 00000KT 0800 R28/1900 R29/1400 MIFG SCT100 13/12 Q1019 NOSIG=
202001021930 METAR VIDP 021930Z 00000KT 0800 R28/1900 R29/1400 MIFG SCT100 12/12 Q1019 NOSIG=
202001021900 METAR VIDP 021900Z 00000KT 1000 R28/1900 R29/1700 BR SCT100 12/12 Q1019 BECMG 0800 MIFG=
202001021830 METAR VIDP 021830Z 00000KT 1000 R28/1900 R29/1500 BR SCT100 13/11 Q1019 TEMPO 0800 MIFG=
202001021800 METAR VIDP 021800Z 00000KT 1200 R28/1700 R29/1400 BR SCT100 13/11 Q1019 TEMPO 0800 MIFG=
202001021730 METAR VIDP 021730Z 00000KT 1500 R28/P2000 R29/P2000 BR FEW100 14/11 Q1020 NOSIG=
202001021700 METAR VIDP 021700Z 00000KT 1500 R28/P2000 R29/P2000 BR SCT100 14/11 Q1020 NOSIG=
202001021630 METAR VIDP 021630Z 00000KT 1500 R28/P2000 R29/P2000 BR SCT100 14/10 Q1020 NOSIG=
202001021600 METAR VIDP 021600Z 00000KT 1500 R28/P2000 R29/P2000 BR FEW100 14/10 Q1020 NOSIG=
202001021530 METAR VIDP 021530Z 00000KT 1500 R28/P2000 R29/P2000 BR FEW100 14/10 Q1020 NOSIG=
202001021500 METAR VIDP 021500Z 00000KT 1500 R28/P2000 R29/P2000 FU FEW100 15/10 Q1020 NOSIG=
202001021430 METAR VIDP 021430Z 00000KT 1500 R28/P2000 R29/P2000 FU FEW100 15/10 Q1019 NOSIG=
202001021400 METAR VIDP 021400Z 00000KT 1500 R28/P2000 R29/P2000 FU FEW100 16/10 Q1019 NOSIG=
202001021330 METAR VIDP 021330Z 00000KT 1500 R28/P2000 R29/P2000 FU FEW100 17/09 Q1019 NOSIG=
202001021300 METAR VIDP 021300Z 00000KT 1500 R28/P2000 R29/P2000 FU FEW100 18/10 Q1019 NOSIG=
202001021230 METAR VIDP 021230Z 05004KT 1500 R28/P2000 R29/P2000 FU FEW100 19/08 Q1019 NOSIG=
202001021200 METAR VIDP 021200Z 05004KT 1500 R28/P2000 R29/P2000 FU FEW100 19/08 Q1019 NOSIG=
202001021130 METAR VIDP 021130Z 06005KT 1500 R28/2000 R29/1900 FU FEW100 20/08 Q1018 NOSIG=
202001021100 METAR VIDP 021100Z 07005KT 1500 R28/2000 R29/1900 FU FEW100 20/07 Q1019 NOSIG=
202001021030 METAR VIDP 021030Z 07005KT 1500 R28/2000 R29/1600 FU FEW100 21/07 Q1019 NOSIG=
202001021000 METAR VIDP 021000Z 06005KT 1500 R28/2000 R29/1500 FU FEW100 21/07 Q1019 NOSIG=
202001020930 METAR VIDP 020930Z 07005KT 1500 R28/2000 R29/1500 FU FEW100 21/07 Q1019 NOSIG=
202001020900 METAR VIDP 020900Z 03005KT 1500 R28/2000 R29/1500 FU FEW100 21/07 Q1019 NOSIG=
202001020830 METAR VIDP 020830Z 07004KT 1500 R28/1900 R29/1500 FU FEW100 21/07 Q1019 NOSIG=
202001020800 METAR VIDP 020800Z 06005KT 1200 R28/1800 R29/1500 FU FEW100 21/07 Q1020 BECMG 1500 FU=
202001020730 METAR VIDP 020730Z 06004KT 1200 R28/1700 R29/1500 FU FEW100 20/07 Q1021 BECMG 1500 FU=
202001020700 METAR VIDP 020700Z 07004KT 1000 R28/2000 R29/1700 FU FEW100 19/07 Q1022 NOSIG=
202001020630 METAR VIDP 020630Z 11005KT 1000 R28/2000 R29/1600 FU FEW100 19/07 Q1022 NOSIG=
202001020600 METAR VIDP 020600Z 08005KT 0900 R28/1700 R29/1800 FU FEW100 19/07 Q1022 NOSIG=
202001020530 METAR VIDP 020530Z 07003KT 0700 R28/1600 R29/1800 MIFG FEW100 18/08 Q1023 BECMG 0800 MIFG=
202001020500 METAR VIDP 020500Z VRB02KT 0600 R28/1700 R29/1400 MIFG FEW100 18/08 Q1023 NOSIG=
202001020430 METAR VIDP 020430Z VRB02KT 0600 R28/1500 R29/1630 MIFG FEW100 17/09 Q1023 NOSIG=
202001020400 METAR VIDP 020400Z 00000KT 0500 R28/1300 R29/1600 MIFG FEW100 13/10 Q1023 BECMG 0600 MIFG=
202001020330 METAR VIDP 020330Z 00000KT 0500 R28/1200 R29/1200 MIFG FEW100 11/10 Q1022 BECMG 0600 MIFG=
202001020300 METAR VIDP 020300Z 00000KT 0400 R28/1100 R29/0900 FG FEW100 09/09 Q1022 NOSIG=
202001020230 METAR VIDP 020230Z 00000KT 0400 R28/1200 R29/0900 FG FEW100 08/08 Q1021 NOSIG=
202001020200 METAR VIDP 020200Z 00000KT 0500 R28/1300 R29/1000 MIFG FEW100 08/08 Q1021 TEMPO 0350 FG=
202001020130 METAR VIDP 020130Z 00000KT 0500 R28/1700 R29/1100 MIFG FEW100 08/08 Q1021 TEMPO 0350 FG=
202001020100 METAR VIDP 020100Z 00000KT 0600 R28/1700 R29/1400 MIFG FEW100 08/08 Q1021 NOSIG=
202001020030 METAR VIDP 020030Z 00000KT 0600 R28/1700 R29/1300 MIFG FEW100 08/08 Q1020 NOSIG=
202001020000 METAR VIDP 020000Z 00000KT 0600 R28/1800 R29/1400 MIFG FEW100 08/08 Q1020 NOSIG=
202001012330 METAR VIDP 012330Z 00000KT 0600 R28/1800 R29/1300 MIFG FEW100 08/08 Q1020 NOSIG=
202001012300 METAR VIDP 012300Z 00000KT 0600 R28/P2000 R29/1200 MIFG FEW100 08/08 Q1020 NOSIG=
202001012230 METAR VIDP 012230Z 00000KT 0600 R28/P2000 R29/1300 MIFG FEW100 08/08 Q1020 NOSIG=
202001012200 METAR VIDP 012200Z 00000KT 0600 R28/1900 R29/1300 MIFG FEW100 08/08 Q1020 NOSIG=
202001012130 METAR VIDP 012130Z 00000KT 0600 R28/1400 R29/1100 MIFG FEW100 09/08 Q1020 NOSIG=
202001012100 METAR VIDP 012100Z 00000KT 0700 R28/1400 R29/1000 MIFG FEW100 09/09 Q1020 BECMG 0600 MIFG=
202001012030 METAR VIDP 012030Z 00000KT 0700 R28/1600 R29/1500 MIFG FEW100 10/10 Q1021 BECMG 0600 MIFG=
202001012000 METAR VIDP 012000Z 00000KT 0700 R28/1300 R29/1400 MIFG FEW100 10/10 Q1021 BECMG 0600 MIFG=
202001011930 METAR VIDP 011930Z 00000KT 0800 R28/1300 R29/1700 MIFG FEW100 10/10 Q1021 NOSIG=
202001011900 METAR VIDP 011900Z 00000KT 0900 R28/1300 R29/1700 MIFG FEW100 11/10 Q1021 BECMG 0800 MIFG=
202001011830 METAR VIDP 011830Z 00000KT 1000 R28/1500 R29/1900 BR FEW100 11/10 Q1021 NOSIG=
202001011800 METAR VIDP 011800Z 00000KT 1200 R28/P2000 R29/P2000 BR FEW100 11/10 Q1021 NOSIG=
202001011730 METAR VIDP 011730Z 00000KT 1200 R28/P2000 R29/P2000 BR FEW100 11/10 Q1022 NOSIG=
202001011700 METAR VIDP 011700Z 00000KT 1500 R28/P2000 R29/P2000 BR FEW100 11/10 Q1022 NOSIG=
202001011630 METAR VIDP 011630Z 00000KT 1500 R28/P2000 R29/P2000 BR FEW100 11/10 Q1022 NOSIG=
202001011600 METAR VIDP 011600Z 00000KT 1500 R28/P2000 R29/P2000 BR FEW100 12/10 Q1022 NOSIG=
202001011530 METAR VIDP 011530Z 00000KT 1500 R28/P2000 R29/P2000 BR FEW100 12/10 Q1021 NOSIG=
202001011500 METAR VIDP 011500Z 00000KT 1500 R28/P2000 R29/P2000 BR FEW100 12/10 Q1021 NOSIG=
202001011430 METAR VIDP 011430Z 00000KT 1500 R28/P2000 R29/P2000 BR FEW100 13/10 Q1021 NOSIG=
202001011400 METAR VIDP 011400Z 00000KT 1500 R28/2000 R29/2000 FU FEW100 14/09 Q1021 NOSIG=
202001011330 METAR VIDP 011330Z 00000KT 1500 R28/2000 R29/2000 FU FEW100 14/09 Q1021 NOSIG=
202001011300 METAR VIDP 011300Z 00000KT 1500 R28/2000 R29/2000 FU FEW100 14/08 Q1020 NOSIG=
202001011230 METAR VIDP 011230Z 00000KT 1400 R28/2000 R29/2000 FU FEW100 15/08 Q1020 BECMG 1500 FU=
202001011200 METAR VIDP 011200Z 00000KT 1200 R28/2000 R29/2000 FU FEW100 16/08 Q1020 BECMG 1500 FU=
202001011130 METAR VIDP 011130Z 09004KT 1000 R28/2000 R29/1300 FU FEW100 18/09 Q1020 NOSIG=
202001011100 METAR VIDP 011100Z 09005KT 1000 R28/2000 R29/1200 FU FEW100 18/09 Q1020 NOSIG=
202001011030 METAR VIDP 011030Z 09006KT 1000 R28/1200 R29/1200 FU FEW100 19/08 Q1020 NOSIG=
202001011000 METAR VIDP 011000Z 10007KT 1000 R28/1200 R29/1200 FU FEW100 19/08 Q1020 NOSIG=
202001010930 METAR VIDP 010930Z 09007KT 1000 R28/1100 R29/2000 FU FEW100 18/07 Q1020 NOSIG=
202001010900 METAR VIDP 010900Z 10007KT 1000 R28/1100 R29/1100 FU FEW100 18/06 Q1020 NOSIG=
202001010830 METAR VIDP 010830Z 10007KT 1000 R28/1100 R29/1100 FU FEW100 18/06 Q1020 NOSIG=
202001010800 METAR VIDP 010800Z 07007KT 1000 R28/1000 R29/1100 FU FEW100 18/06 Q1021 NOSIG=
202001010730 METAR VIDP 010730Z 07006KT 0900 R28/1100 R29/1100 FU FEW100 18/06 Q1021 NOSIG=
202001010700 METAR VIDP 010700Z 09008KT 0900 R28/1000 R29/1100 FU FEW100 17/06 Q1021 NOSIG=
202001010630 METAR VIDP 010630Z 10007KT 0900 R28/1100 R29/1300 FU FEW100 16/07 Q1022 NOSIG=
202001010600 METAR VIDP 010600Z 11007KT 0800 R28/1000 R29/1200 FU FEW100 15/07 Q1023 NOSIG=
202001010530 METAR VIDP 010530Z 10007KT 0800 R28/1000 R29/1100 FU FEW100 14/07 Q1023 NOSIG=
202001010500 METAR VIDP 010500Z 08007KT 0700 R28/0900 R29/1000 MIFG FEW100 12/08 Q1023 BECMG 0800 MIFG=
202001010430 METAR VIDP 010430Z 09007KT 0600 R28/0800 R29/0900 MIFG FEW100 10/07 Q1022 NOSIG=
202001010400 METAR VIDP 010400Z 08005KT 0600 R28/0800 R29/0900 MIFG FEW100 09/07 Q1022 NOSIG=
202001010330 METAR VIDP 010330Z 05003KT 0400 R28/0700 R29/0800 FG FEW100 08/06 Q1022 BECMG 0600 MIFG=
202001010300 METAR VIDP 010300Z 07005KT 0300 R28/0800 R29/0700 FG FEW100 07/06 Q1021 BECMG 0350 FG=
202001010230 METAR VIDP 010230Z 00000KT 0300 R28/0600 R29/0500 FG FEW100 06/05 Q1021 NOSIG=
202001010200 METAR VIDP 010200Z 00000KT 0250 R28/0850 R29/0700 FG FEW100 06/05 Q1020 NOSIG=
202001010130 METAR VIDP 010130Z 00000KT 0200 R28/1100 R29/0850 FG FEW100 06/05 Q1020 BECMG 0150 FG=
202001010100 METAR VIDP 010100Z 00000KT 0200 R28/1150 R29/0950 FG FEW100 06/05 Q1019 BECMG 0150 FG=
202001010030 METAR VIDP 010030Z 00000KT 0200 R28/1200 R29/0800 FG FEW100 06/05 Q1019 BECMG 0150 FG=
202001010000 METAR VIDP 010000Z 00000KT 0350 R28/1100 R29/0800 FG FEW100 06/05 Q1019 NOSIG=

###################################
#  short TAF from VIDP
###################################
202001312300 TAF VIDP 312300Z 0100/0109 VRB02KT 1000 BR SCT100
                      TEMPO 0102/0103 0300 FG
                      BECMG 0105/0107 25005KT 1000 BR FEW100=
202001312000 TAF VIDP 312000Z 3121/0106 00000KT 2000 BR SCT100
                      BECMG 0101/0103 VRB02KT 0300 FG
                      BECMG 0104/0106 25005KT 1000 BR FEW100=
202001311700 TAF VIDP 311700Z 3118/0103 VRB02KT 2500 BR SCT100
                      BECMG 3123/0101 00000KT 1000 BR
                      TEMPO 0102/0103 0300 FG=
202001311400 TAF VIDP 311400Z 3115/3124 VRB02KT 2200 HZ NSC
                      BECMG 3118/3120 1200 BR
                      BECMG 3121/3123 0600 MIFG=
202001311100 TAF VIDP 311100Z 3112/3121 28004KT 3500 HZ NSC
                      BECMG 3119/3121 VRB02KT 1200 HZ BR=
202001310800 TAF VIDP 310800Z 3109/3118 29006KT 3000 HZ FEW100=
202001310500 TAF VIDP 310500Z 3106/3115 28006KT 1000 FU FEW100
                      BECMG 3108/3110 2000 HZ=
202001310200 TAF VIDP 310200Z 3103/3112 26005KT 0400 FG NSC
                      BECMG 3104/3106 32006KT 1000 BR FEW100
                      BECMG 3108/3110 29008KT 2000 HZ SCT100=
202001302300 TAF VIDP 302300Z 3100/3109 26003KT 0300 FG FEW100
                      BECMG 3104/3106 32006KT 1000 BR FU
                      BECMG 3108/3109 29008KT 2000 HZ SCT100=
202001302000 TAF VIDP 302000Z 3021/3106 29004KT 1500 BR NSC
                      BECMG 3100/3102 26003KT 0300 FG
                      BECMG 3104/3106 32006KT 1000 BR FEW100=
202001301700 TAF VIDP 301700Z 3018/3103 29005KT 2200 HZ NSC
                      BECMG 3020/3022 VRB02KT 1000 BR FEW100
                      BECMG 3100/3102 26003KT 0300 FG=
202001301400 TAF VIDP 301400Z 3015/3024 29005KT 2000 HZ NSC
                      BECMG 3020/3022 1000 BR=
202001301100 TAF VIDP 301100Z 3012/3021 29005KT 2000 HZ FEW100
                      BECMG 3020/3021 1000 BR=
202001300800 TAF VIDP 300800Z 3009/3018 32008KT 2200 HZ NSC
                      BECMG 3015/3017 1500 FU=
202001300500 TAF VIDP 300500Z 3006/3015 26006KT 0800 MIFG NSC
                      BECMG 3008/3010 32008KT 2000 HZ=
202001300200 TAF VIDP 300200Z 3003/3012 26005KT 0600 MIFG FEW100
                      BECMG 3004/3006 33008KT 1200 BR FU NSC
                      BECMG 3008/3010 2200 HZ=
202001292300 TAF VIDP 292300Z 3000/3009 30004KT 0800 MIFG NSC
                      BECMG 3004/3006 32008KT 1500 BR FU
                      BECMG 3008/3009 33010KT 2200 HZ=
202001292000 TAF VIDP 292000Z 2921/3006 26004KT 1000 BR NSC
                      BECMG 3000/3002 0500 MIFG
                      BECMG 3004/3005 33008KT 1000 BR FU=
202001291400 TAF VIDP 291400Z 2915/2924 32005KT 1800 HZ FEW100
                      BECMG 2920/2922 25003KT 0800 MIFG NSC=
202001291100 TAF VIDP 291100Z 2912/2921 32006KT 1500 FU FEW100
                      BECMG 2918/2920 25003KT 0800 MIFG NSC=
202001290800 TAF VIDP 290800Z 2909/2918 04006KT 2000 FU FEW100
                      BECMG 2915/2917 29005KT 1000 BR=
202001290500 TAF VIDP 290500Z 2906/2915 05005KT 1200 BR FU FEW035 SCT100
                      BECMG 2908/2910 32008KT 2000 HZ SCT100=
202001290200 TAF VIDP 290200Z 2903/2912 00000KT 1500 BR SCT035 BKN100
                      BECMG 2905/2907 29006KT 2500 FU=
202001282300 TAF VIDP 282300Z 2900/2909 27006KT 1500 BR RA SCT030 BKN090
                      BECMG 2901/2904 1000 TSRA FEW035CB OVC080
                       BECMG 2904/2906 1200 BR -RA SCT035 BKN090=
202001282000 TAF VIDP 282000Z 2821/2906 27005KT 1500 BR -RA SCT035 BKN100
                      BECMG 2822/2903 30005KT 1000 TSRA FEW040CB
                       OVC080=
202001281700 TAF VIDP 281700Z 2818/2903 11005KT 1500 BR -RA SCT030 BKN100
                      BECMG 2822/2903 30005KT 1000 TSRA FEW035CB
                       OVC080=
202001281400 TAF VIDP 281400Z 2815/2824 11008KT 1500 FU -RA SCT030 BKN100
                      BECMG 2815/2818 1000 -TSRA FEW035CB OVC080=
202001281100 TAF VIDP 281100Z 2812/2821 11008KT 1500 FU -RA SCT030 BKN100
                      BECMG 2815/2821 1000 -TSRA FEW035CB OVC080=
202001280800 TAF VIDP 280800Z 2809/2818 12010KT 1200 -TSRA SCT030 FEW035CB OVC080
                       TEMPO 2811/2815 23010G20KT 1000 TSRA=
202001280200 TAF VIDP 280200Z 2803/2812 09008KT 1200 BR SCT035 BKN090
                      BECMG 2805/2806 1800 BR -RA
                      TEMPO 2807/2812 23010G20KT 1000 TSRA SCT030
                       FEW040CB OVC090=
202001272301 TAF VIDP 272301Z 2800/2809 07006KT 1000 BR -RA SCT035 BKN090
                      BECMG 2804/2806 13008KT BR HZ
                      TEMPO 2807/2813 23010G20KT 1000 TSRA SCT030
                       FEW040CB OVC080=
202001272300 TAF VIDP 272300Z 2800/2809 07006KT 1000 BR -RA SCT035 BKN090
                      BECMG 2804/2806 13008KT BR HZ
                      TEMPO 2807/2809 23010G20KT 1000 TSRA SCT030
                       FEW040CB OVC080=
202001272000 TAF VIDP 272000Z 2721/2806 07007KT 1200 BR DZ SCT035 BKN090
                      TEMPO 2722/2802 15008G18KT 0800 MIFG -TSRA
                       SCT030 FEW040CB BKN090
                      BECMG 2803/2805 13008KT 1500 BR=
202001271700 TAF VIDP 271700Z 2718/2803 07007KT 1800 BR DZ SCT040 SCT100
                      BECMG 2722/2802 1200 -TSRA SCT035 FEW035CB
                       BKN090=
202001271400 TAF VIDP 271400Z 2715/2724 07008KT 1500 FU -RA SCT030 BKN090=
202001271100 TAF VIDP 271100Z 2712/2721 07008KT 1200 FU SCT030 BKN090
                      TEMPO 2712/2715 15010G20KT 0800 TSRA FEW040CB
                       OVC080
                      BECMG 2717/2719 1500 BR -RA=
202001270800 TAF VIDP 270800Z 2709/2718 07005KT 1800 FU SCT040 SCT100
                      TEMPO 2712/2718 FEW035CB BKN090=
202001270500 TAF VIDP 270500Z 2706/2715 32006KT 1500 BR SCT035 BKN100
                      BECMG 2709/2711 29008KT 2500 HZ/-RA
                      TEMPO 2709/2715 FEW035CB=
202001270200 TAF VIDP 270200Z 2703/2712 07003KT 1200 BR FEW035 SCT100
                      BECMG 2708/2710 29008KT 2500 -RA HZ SCT035
                       BKN090=
202001262000 TAF VIDP 262000Z 2621/2706 VRB02KT 1500 BR NSC
                      BECMG 2700/2702 00000KT 0600 MIFG FEW100
                       BECMG 2704/2706 26005KT 1200 BR FEW035 SCT100=
202001261700 TAF VIDP 261700Z 2618/2703 VRB02KT 2000 HZ NSC
                      BECMG 2620/2622 1200 BR FEW100
                      BECMG 2700/2702 0600 MIFG=
202001261400 TAF VIDP 261400Z 2615/2624 32005KT 2000 HZ NSC
                      BECMG 2620/2622 VRB02KT 0800 MIFG FEW100=
202001261100 TAF VIDP 261100Z 2612/2621 32007KT 2500 HZ NSC
                      BECMG 2618/2620 VRB02KT 1000 BR FEW100=
202001260800 TAF VIDP 260800Z 2609/2618 31008KT 2000 FU NSC
                      BECMG 2615/2617 VRB02KT 1200 FU BR FEW100=
202001260500 TAF VIDP 260500Z 2606/2615 31008KT 1200 BR FU NSC
                      BECMG 2609/2611 1800 FU=
202001260200 TAF VIDP 260200Z 2603/2612 VRB02KT 0600 MIFG FEW100
                      BECMG 2604/2606 32008KT 0800 MIFG NSC
                      BECMG 2608/2610 1800 FU=
202001252300 TAF VIDP 252300Z 2600/2609 00000KT 0300 FG FEW100
                      BECMG 2604/2606 32008KT 0600 MIFG NSC
                      BECMG 2608/2609 1800 BR=
202001252000 TAF VIDP 252000Z 2521/2606 00000KT 0600 MIFG FEW100
                      BECMG 2600/2602 0300 FG
                      BECMG 2604/2505 0600 MIFG NSC=
202001251700 TAF VIDP 251700Z 2518/2603 00000KT 1000 BR FEW100
                      BECMG 2520/2522 0600 MIFG
                      BECMG 2600/2602 0300 FG=
202001251400 TAF VIDP 251400Z 2515/2524 34004KT 2200 HZ FEW040 SCT100
                      BECMG 2520/2522 0800 MIFG=
202001251100 TAF VIDP 251100Z 2512/2521 VRB02KT 2500 HZ FEW100
                      BECMG 2518/2520 1200 BR FEW040 SCT100=
202001250800 TAF VIDP 250800Z 2509/2518 32008KT 3500 HZ FEW100
                      BECMG 2515/2517 11005KT 2500 HZ BR SCT100=
202001250500 TAF VIDP 250500Z 2506/2515 26005KT 2000 HZ FEW100
                      BECMG 2508/2510 29007G17KT 4000 HZ SCT100=
202001250200 TAF VIDP 250200Z 2503/2512 29005KT 1500 BR FEW100
                      BECMG 2506/2508 4000 HZ SCT100=
202001242300 TAF VIDP 242300Z 2500/2509 00000KT 1000 BR NSC
                      BECMG 2503/2505 2000 BR HZ FEW100
                      BECMG 2506/2508 29005KT 4000 HZ SCT100
                      BECMG 2515/2517 10005KT 2500
                      BECMG 2600/2602 00000KT 0800 MIFG
                      BECMG 2504/2606 VRB02KT 2000 BR HZ=
202001242000 TAF VIDP 242000Z 2421/2506 00000KT 2000 HZ BR NSC
                      BECMG 2500/2502 1000 BR
                      BECMG 2503/2505 VRB02KT 2000 BR HZ FEW100=
202001241700 TAF VIDP 241700Z 2418/2503 27007KT 2500 BR NSC
                      BECMG 2500/2502 1000 BR=
202001241400 TAF VIDP 241400Z 2415/2424 26008KT 3000 HZ FEW100
                      BECMG 2418/2420 23006KT 1500 BR NSC=
202001241100 TAF VIDP 241100Z 2412/2421 27008KT 3500 HZ FEW100
                      BECMG 2415/2417 24006KT 2500 BR HZ=
202001240800 TAF VIDP 240800Z 2409/2418 28008G18KT 4000 HZ SCT100
                      BECMG 2415/2417 29008KT 3000 HZ FEW030 SCT100=
202001240500 TAF VIDP 240500Z 2406/2415 27010KT 2000 BR SCT100
                      BECMG 2409/2411 29010G20KT 4000 HZ FEW030
                       SCT100=
202001240200 TAF VIDP 240200Z 2403/2412 26007KT 1500 BR SCT100
                      BECMG 2406/2408 32005G15KT 3200 HZ=
202001232300 TAF VIDP 232300Z 2400/2409 25006KT 0800 MIFG NSC
                      BECMG 2403/2405 31008KT 1500 BR HZ
                      BECMG 2407/2409 31005G15KT 3500 HZ=
202001232000 TAF VIDP 232000Z 2321/2406 25006KT 2500 BR NSC
                      BECMG 2400/2402 0800 MIFG
                      BECMG 2403/2405 31008KT 1500 BR HZ=
202001231700 TAF VIDP 231700Z 2318/2403 25006KT 2500 BR NSC
                      BECMG 2400/2402 0800 MIFG=
202001231400 TAF VIDP 231400Z 2315/2324 26005KT 2500 HZ NSC
                      BECMG 2317/2319 1800 HZ BR SCT100
                      BECMG 2320/2322 1200 BR=
202001231100 TAF VIDP 231100Z 2312/2321 30010KT 3500 HZ NSC
                      BECMG 2317/2319 26005KT 1800 HZ BR=
202001230800 TAF VIDP 230800Z 2309/2318 29007G17KT 2500 HZ NSC
                      BECMG 2315/2317 29006KT 1500 HZ BR=
202001230500 TAF VIDP 230500Z 2306/2315 29008KT 1200 BR NSC
                      BECMG 2309/2311 2000 FU=
202001230200 TAF VIDP 230200Z 2303/2312 26006KT 0800 MIFG NSC
                      BECMG 2308/2310 29008KT 2000 BR FU FEW100=
202001222300 TAF VIDP 222300Z 2300/2309 29005KT 0400 FG NSC
                      BECMG 2304/2306 32006KT 0800 MIFG FEW100
                       BECMG 2308/2309 29008KT 1200 BR FEW030 SCT100=
202001222000 TAF VIDP 222000Z 2221/2306 26004KT 1200 BR FEW100
                      BECMG 2300/2302 00000KT 0200 FG VV///
                      BECMG 2304/2305 32006KT 0800 MIFG SCT100=
202001221700 TAF VIDP 221700Z 2218/2303 26005KT 1200 BR FEW100
                      BECMG 2300/2302 0200 FG VV///=
202001221400 TAF VIDP 221400Z 2215/2224 25003KT 1500 BR FEW100
                      BECMG 2220/2222 0400 FG=
202001221100 TAF VIDP 221100Z 2212/2221 32005KT 1500 FU BR FEW100
                      BECMG 2218/2220 0800 MIFG=
202001220500 TAF VIDP 220500Z 2206/2215 27007KT 0400 FG VV///
                      BECMG 2209/2211 34008KT 1000 BR NSC=
202001220200 TAF VIDP 220200Z 2203/2212 30004KT 0100 FG VV///
                      BECMG 2204/2206 35008KT 0600 MIFG NSC
                      BECMG 2208/2210 1500 FU=
202001212300 TAF VIDP 212300Z 2200/2209 00000KT 0050 FG VV///
                      BECMG 2204/2206 33008KT 0800 MIFG NSC=
202001212000 TAF VIDP 212000Z 2121/2206 VRB02KT 0300 FG VV///
                      BECMG 2200/2202 0100 FG
                      BECMG 2203/2205 35008KT 0600 MIFG NSC=
202001211700 TAF VIDP 211700Z 2118/2203 09004KT 0600 MIFG FEW100
                      BECMG 2200/2202 0100 FG VV///=
202001211400 TAF VIDP 211400Z 2115/2124 07004KT 1000 FU BR SCT100
                      BECMG 2118/2120 0600 MIFG=
202001211100 TAF VIDP 211100Z 2112/2121 04006KT 1200 FU FEW035 SCT100
                      BECMG 2115/2117 VRB02KT 0800 MIFG SCT100=
202001210800 TAF VIDP 210800Z 2109/2118 14005KT 1500 FU -RA SCT035 BKN090
                      BECMG 2115/2117 VRB02KT 0800 MIFG FEW035
                       SCT100=
202001210200 TAF VIDP 210200Z 2103/2112 12003KT 0300 FG FEW040 SCT100
                      BECMG 2104/2106 0600 MIFG DZ
                      BECMG 2108/2110 03006KT 1500 BR FU SCT040
                       BKN100=
202001202300 TAF VIDP 202300Z 2100/2109 00000KT 0300 FG SCT040 BKN100
                      BECMG 2104/2106 09005KT 0600 MIFG DZ
                      BECMG 2109/2111 03006KT 1500 -RA BR
                      BECMG 2115/2117 00000KT 0800 MIFG
                      BECMG 2200/2202 0100 FG VV///
                      BECMG 2204/2206 VRB02KT 0600 MIFG SCT100=
202001202000 TAF VIDP 202000Z 2021/2106 00000KT 0600 MIFG FEW040 SCT100
                      BECMG 2100/2102 0300 FG SCT040
                      BECMG 2104/2106 09005KT 0600 MIFG DZ=
202001201700 TAF VIDP 201700Z 2018/2103 00000KT 0800 MIFG FEW040 SCT100
                      BECMG 2100/2102 0300 FG SCT040=
202001201400 TAF VIDP 201400Z 2015/2024 29004KT 1200 BR SCT100
                      BECMG 2020/2022 VRB02KT 0600 MIFG FEW030
                       SCT100=
202001201100 TAF VIDP 201100Z 2012/2021 27005KT 1500 BR SCT100
                      BECMG 2015/2017 VRB02KT 0800 MIFG FEW030
                       SCT100=
202001200800 TAF VIDP 200800Z 2009/2018 29008KT 1200 BR FU FEW030 SCT100
                      BECMG 2015/2017 VRB02KT 0800 MIFG SCT030
                       BKN100=
202001200501 TAF VIDP 200501Z 2006/2015 29006KT 0800 MIFG SCT100
                      BECMG 2009/2011 32008KT 1200 BR FU FEW030
                       SCT100
                      BECMG 2015/2017 VRB02KT 0800 MIFG SCT030
                       BKN100
                      BECMG 2022/2024 07003KT 0200 FG DZ VV///
                       BECMG 2104/2106 11006KT 0800 MIFG SCT030
                       BKN100
                      BECMG 2108/2110 15008KT 1200 BR -TSRA FEW035CB=
202001200500 TAF VIDP 200500Z 2006/2015 29006KT 0800 MIFG SCT100
                      BECMG 2009/2011 32008KT 1200 BR FU FEW030
                       SCT100=
202001200200 TAF VIDP 200200Z 2003/2012 29008KT 0400 FG FEW030 SCT090
                      BECMG 2004/2006 32006KT 0800 MIFG SCT100
                       BECMG 2008/2010 1200 FU=
202001192300 TAF VIDP 192300Z 2000/2009 25004KT 0050 FG VV///
                      BECMG 2004/2006 0600 MIFG NSC
                      BECMG 2008/2009 32007KT 1200 BR FU FEW100=
202001192000 TAF VIDP 192000Z 1921/2006 25005KT 0050 FG VV///
                      BECMG 2003/2005 0400 FG NSC=
202001191700 TAF VIDP 191700Z 1918/2003 25006KT 0200 FG VV///
                      BECMG 1921/1923 0050 FG VV///=
202001191400 TAF COR VIDP 191400Z 1915/1924 26005KT 1000 BR FEW090
                      BECMG 1918/1920 VRB02KT 0600 MIFG FEW030
                       SCT100=
202001190800 TAF VIDP 190800Z 1909/1918 30007KT 1500 BR FU FEW100
                      BECMG 1915/1917 34003KT 1000 BR SCT100=
202001190500 TAF VIDP 190500Z 1906/1915 28005KT 1000 BR FU FEW040 SCT100
                      BECMG 1909/1911 1500 FU=
202001190200 TAF VIDP 190200Z 1903/1912 26007KT 0500 FG NSC
                      BECMG 1905/1907 34006KT 0800 MIFG FEW100
                       BECMG 1908/1910 29008KT 1500 FU BR SCT100=
202001182300 TAF VIDP 182300Z 1900/1909 00000KT 0050 FG VV///
                      BECMG 1904/1906 34005KT 0600 MIFG FEW100
                       BECMG 1908/1909 29008KT 1500 FU BR SCT100=
202001182000 TAF VIDP 182000Z 1821/1906 VRB02KT 0600 MIFG FEW100
                      BECMG 1900/1902 00000KT 0200 FG VV///
                      BECMG 1905/1906 34005KT 0700 MIFG SCT100=
202001181700 TAF VIDP 181700Z 1818/1903 29004KT 1200 BR FEW100
                      BECMG 1820/1822 VRB02KT 0600 MIFG
                      BECMG 1900/1902 00000KT 0100 FG VV///=
202001181400 TAF VIDP 181400Z 1815/1824 32005KT 1500 BR FEW100
                      BECMG 1820/1822 00000KT 0500 FG=
202001181100 TAF VIDP 181100Z 1812/1821 29005KT 1500 FU BR NSC
                      BECMG 1818/1820 0600 MIFG=
202001180800 TAF VIDP 180800Z 1809/1818 34006KT 1500 FU FEW100
                      BECMG 1815/1817 29004KT 0800 MIFG NSC=
202001180500 TAF VIDP 180500Z 1806/1815 29005KT 0600 MIFG FEW100
                      BECMG 1809/1811 35005KT 1200 BR FU SCT100=
202001180200 TAF VIDP 180200Z 1803/1812 27004KT 0200 FG VV///
                      BECMG 1804/1806 33008KT 0600 MIFG FEW100
                       BECMG 1809/1811 1500 FU SCT100=
202001172300 TAF VIDP 172300Z 1800/1809 00000KT 0050 FG VV///
                      BECMG 1804/1806 27006KT 0500 MIFG FEW030
                       SCT100
                      BECMG 1808/1809 32008KT 1000 MIFG BR SCT100=
202001172000 TAF VIDP 172000Z 1721/1806 VRB02KT 0600 MIFG SCT100
                      BECMG 1800/1802 0100 FG VV///
                      BECMG 1804/1805 27006KT 0600 MIFG FEW030
                       SCT090=
202001171700 TAF VIDP 171700Z 1718/1803 35004KT 1200 BR FEW035 SCT090
                      BECMG 1721/1723 VRB02KT 0600 MIFG FEW100
                       BECMG 1800/1802 0200 FG=
202001171400 TAF VIDP 171400Z 1715/1724 29005KT 1500 BR FEW030 SCT100
                      BECMG 1720/1722 VRB02KT 0600 MIFG FEW100=
202001171100 TAF VIDP 171100Z 1712/1721 32006KT 1500 BR SCT035 SCT100
                      BECMG 1718/1720 VRB02KT 0800 MIFG FEW040
                       SCT100=
202001170800 TAF VIDP 170800Z 1709/1718 32006KT 1500 BR SCT030 BKN100
                      BECMG 1715/1717 29005KT 1000 BR FEW030 SCT100=
202001170500 TAF VIDP 170500Z 1706/1715 29006KT 1000 BR -RA SCT030 BKN100
                      BECMG 1708/1710 32008KT 2000 BR HZ=
202001162300 TAF VIDP 162300Z 1700/1709 29005KT 0400 -RA FG SCT030 BKN080
                      TEMPO 1700/1704 FEW035CB OVC080
                      BECMG 1704/1706 32006KT 1200 BR -RA=
202001162000 TAF VIDP 162000Z 1621/1706 32004KT 0600 MIFG -RA SCT030 BKN090
                       BECMG 1623/1701 VRB02KT 0300 FG SCT035 SCT090
                       BECMG 1704/1706 32006KT 1200 BR=
202001161700 TAF VIDP 161700Z 1618/1703 33005KT 0800 MIFG -RA SCT030 BKN090
                       BECMG 1623/1701 VRB02KT 0400 FG FEW030 SCT100=
202001161400 TAF VIDP 161400Z 1615/1624 04005KT 0800 MIFG -RA SCT030 BKN090
                       BECMG 1618/1620 0600 MIFG FEW030 SCT080=
202001161100 TAF VIDP 161100Z 1612/1621 32006KT 1200 BR -RA SCT030 BKN090
                      BECMG 1612/1618 0800 -TSRA FEW035CB OVC080=
202001160800 TAF VIDP 160800Z 1609/1618 32006KT 1500 BR SCT030 BKN090
                      TEMPO 1609/1615 15010G25KT 0800 TSRA SCT030
                       FEW035CB OVC080=
202001160500 TAF VIDP 160500Z 1606/1615 32004KT 1500 BR -RA SCT030 BKN100
                      BECMG 1609/1615 23010G20KT 1000 -TSRA SCT030
                       FEW035CB OVC080=
202001160200 TAF VIDP 160200Z 1603/1612 23005KT 0800 MIFG -RA SCT035 BKN100
                       BECMG 1605/1607 05006KT 1200 BR
                      TEMPO 1606/1610 2310G20KT 0600 -TSRA SCT030
                       FEW035CB OVC080=
202001152300 TAF VIDP 152300Z 1600/1609 02004KT 0500 MIFG SCT100
                      BECMG 1603/1605 0800 MIFG FEW040 SCT090
                      BECMG 1606/1608 07007KT 1200 BR -RA SCT035
                       BKN090=
202001152000 TAF VIDP 152000Z 1521/1606 31004KT 1000 BR SCT100
                      BECMG 1600/1602 03003KT 0500 MIFG FEW040
                       SCT100=
202001151700 TAF VIDP 151700Z 1518/1603 4004KT 1100 BR SCT100
                      BECMG 1523/1601 05004KT 0600 MIFG -RA SCT035
                       BKN090=
202001151400 TAF VIDP 151400Z 1515/1524 35008KT 1200 FU FEW035 SCT090
                      BECMG 1520/1524 24015G25KT 0800 TSRA SCT025
                       OVC080 FEW035CB=
202001151100 TAF VIDP 151100Z 1512/1521 35008KT 1200 FU FEW035 SCT090
                      BECMG 1520/1521 24015G25KT 0800 TSRA SCT025
                       OVC080 FEW035CB=
202001150800 TAF VIDP 150800Z 1509/1518 32006KT 2000 BR FEW040 SCT100=
202001150500 TAF VIDP 150500Z 1506/1515 32005KT 1500 BR HZ FEW100
                      BECMG 1508/1510 34008KT 2500 HZ FEW040 SCT100=
202001150200 TAF VIDP 150200Z 1503/1512 VRB02KT 1000 BR FEW100
                      BECMG 1508/1510 32006KT 2000 BR HZ FEW035
                       SCT100=
202001142300 TAF VIDP 142300Z 1500/1509 00000KT 0300 FG VV///
                      BECMG 1504/1506 32005KT 0800 MIFG FEW100
                       BECMG 1508/1509 35008KT 2000 BR FEW035 SCT100=
202001142000 TAF VIDP 142000Z 1421/1506 VRB02KT 1200 BR NSC
                      BECMG 1500/1502 00000KT 0300 FG VV///
                      BECMG 1504/1506 32005KT 0800 MIFG FEW100=
202001141700 TAF VIDP 141700Z 1418/1503 34005KT 1500 BR NSC
                      BECMG 1420/1422 VRB02KT 0800 MIFG
                      BECMG 1500/1502 00000KT 0300 FG VV///=
202001141400 TAF VIDP 141400Z 1415/1424 30005KT 1200 BR NSC
                      BECMG 1418/1420 0600 MIFG
                      BECMG 1421/1423 00000KT 0100 VV///=
202001140500 TAF VIDP 140500Z 1406/1415 34005KT 1000 BR SCT100
                      BECMG 1408/1410 05004KT 1500 HZ FEW100=
202001140200 TAF VIDP 140200Z 1403/1412 35008KT 0800 MIFG EW100
                      BECMG 1408/1410 1500 HZ FU=
202001132300 TAF VIDP 132300Z 1400/1409 35008KT 0400 FG FEW030 SCT090
                      BECMG 1404/1406 0800 MIFG SCT100=
202001132000 TAF VIDP 132000Z 1321/1406 35008KT 1000 BR -RA SCT030 BKN090
                      BECMG 1400/1402 0400 FG FEW030 SCT090
                      BECMG 1404/1405 0800 MIFG SCT100=
202001131700 TAF VIDP 131700Z 1318/1403 35008KT 1500 BR -RA SCT030 OVC090
                      BECMG 1400/1402 0400 FG FEW030 SCT090=
202001131400 TAF VIDP 131400Z 1315/1324 VRB02KT 1200 BR SCT030 FEW040CB BKN100
                       BECMG 1317/1319 0600 MIFG
                      BECMG 1321/1323 0300 FG -RA=
202001131100 TAF VIDP 131100Z 1312/1321 32008KT 1200 FU SCT040 BKN100
                      TEMPO 1313/1317 0800 -TSRA FEW040CB=
202001130800 TAF VIDP 130800Z 1309/1318 12010KT 2000 HZ SCT040 BKN100
                      BECMG 1312/1316 32010G25KT 1000 -TSRA SCT030
                       FEW035CB OVC080=
202001130500 TAF VIDP 130500Z 1306/1315 14006KT 1500 FU FEW040 SCT100
                      BECMG 1308/1310 15008KT 2500 RA BR
                      BECMG 1312/1315 14010G25KT 1000 -TSRA FEW035CB
                       OVC080=
202001130200 TAF VIDP 130200Z 1303/1312 13006KT 1000 BR SCT030 SCT100
                      BECMG 1308/1310 2000 HZ -RA=
202001122000 TAF VIDP 122000Z 1221/1306 11005KT 1000 BR SCT100
                      BECMG 1300/1302 0600 MIFG -RA SCT030 BKN090
                       BECMG 1304/1306 15008KT 1200 RA BR=
202001121700 TAF VIDP 121700Z 1218/1303 13006KT 1500 FU BR SCT100
                      BECMG 1300/1302 0600 MIFG RA SCT030 BKN090=
202001121400 TAF VIDP 121400Z 1215/1224 29005KT 2000 FU FEW100
                      BECMG 1220/1222 24003KT 1200 BR FEW030 SCT100=
202001120800 TAF VIDP 120800Z 1209/1218 28008KT 1800 FU FEW100
                      BECMG 1214/1216 2200 HZ FEW030 SCT100=
202001120500 TAF VIDP 120500Z 1206/1215 26006KT 1000 BR NSC
                      BECMG 1208/1210 29008KT 2000 HZ FEW100=
202001120200 TAF VIDP 120200Z 1203/1212 23004KT 0800 MIFG SCT100
                      BECMG 1206/1208 29007KT 1500 HZ=
202001112300 TAF VIDP 112300Z 1200/1209 00000KT 0400 FG SCT100
                      BECMG 1203/1205 23004KT 0800 MIFG SCT040
                       BKN100
                      BECMG 1208/1209 29007KT 1500 BR DZ SCT035
                       BKN090=
202001112000 TAF VIDP 112000Z 1121/1206 00000KT 0800 MIFG FEW100
                      BECMG 1200/1202 0400 FG
                      BECMG 1203/1205 23004KT 0800 MIFG FEW040
                       SCT100=
202001111700 TAF VIDP 111700Z 1118/1203 00000KT 1500 BR FEW040 BKN100
                      BECMG 1200/1202 23004KT 0400 FG=
202001111400 TAF VIDP 111400Z 1115/1124 26003KT 2000 HZ NSC
                      BECMG 1118/1120 1200 BR=
202001111100 TAF VIDP 111100Z 1112/1121 26006KT 3000 HZ NSC
                      BECMG 1116/1118 32004KT 2500=
202001110500 TAF VIDP 110500Z 1106/1115 27006KT 1500 FU FEW035 SCT100
                      BECMG 1108/1110 2000 FU=
202001110200 TAF VIDP 110200Z 1103/1112 26005KT 1000 BR FEW035 SCT100
                      BECMG 1108/1110 29008KT 2000 HZ BR SCT035
                       BKN100=
202001102300 TAF VIDP 102300Z 1100/1109 29005KT 0300 FG VV///
                      BECMG 1104/1106 26006KT 0800 MIFG FEW035
                       SCT100=
202001102000 TAF VIDP 102000Z 1021/1106 25003KT 1200 BR SCT100
                      BECMG 1100/1102 00000KT 0300 FG VV///
                      BECMG 1105/1106 29006KT 1000 BR FEW035 SCT100=
202001101700 TAF VIDP 101700Z 1018/1103 26005KT 1500 BR NSC
                      BECMG 1020/1022 29003KT 0800 MIFG FEW100
                       BECMG 1023/1101 00000KT 0200 FG VV///=
202001100500 TAF VIDP 100500Z 1006/1015 32007KT 0600 MIFG NSC
                      BECMG 1008/1010 1200 BR FU=
202001100200 TAF VIDP 100200Z 1003/1012 26008KT 0400 FG NSC
                      BECMG 1004/1006 33008KT 0800 MIFG
                      BECMG 1008/1010 1500 HZ FU=
202001092000 TAF VIDP 092000Z 0921/1006 26003KT 0400 FG NSC
                      BECMG 1000/1002 0100 FG VV///
                      BECMG 1004/1005 33008KT 0600 MIFG NSC=
202001091700 TAF VIDP 091700Z 0918/1003 26003KT 1000 BR NSC
                      BECMG 0920/0922 0600 MIFG
                      BECMG 1000/1002 0200 FG VV///=
202001091400 TAF VIDP 091400Z 0915/0924 29006KT 1200 BR NSC
                      BECMG 0920/0922 VRB02KT 0500 FG=
202001091100 TAF VIDP 091100Z 0912/0921 32005KT 1200 BR FEW100
                      BECMG 0915/0917 VRB02KT 0600 MIFG NSC=
202001090800 TAF VIDP 090800Z 0909/0918 29008KT 2000 HZ FEW040 SCT100
                      BECMG 0915/0917 26005KT 1000 BR=
202001090500 TAF VIDP 090500Z 0906/0915 29006KT 1200 BR FU FEW035 SCT100
                      BECMG 0908/0910 32008KT 2000 HZ SCT035 BKN100=
202001090200 TAF VIDP 090200Z 0903/0912 29007KT 0800 MIFG FEW030 SCT100
                      BECMG 0904/0906 1200 BR HZ
                      BECMG 0909/0911 27005KT 2000 HZ=
202001082300 TAF VIDP 082300Z 0900/0909 30004KT 0400 FG SCT030 SCT100
                      BECMG 0904/0906 32006KT 1000 BR HZ
                      BECMG 0908/0909 2000 HZ=
202001082000 TAF VIDP 082000Z 0821/0906 32008KT 0800 MIFG SCT030 BKN080
                      BECMG 0900/0902 0400 FG SCT100
                      BECMG 0904/0906 0600 MIFG=
202001081700 TAF VIDP 081700Z 0818/0903 29008KT 1000 BR SCT030 BKN080
                      BECMG 0900/0902 30003KT 0200 FG SCT100=
202001081400 TAF VIDP 081400Z 0815/0824 29005KT 1000 BR -RA SCT030 BKN090
                      BECMG 0820/0822 VRB02KT 0600 MIFG SCT035
                       SCT100=
202001081100 TAF VIDP 081100Z 0812/0821 32005KT 1500 BR -RA SCT030 BKN100
                      BECMG 0812/0815 FEW035CB OVC080
                      BECMG 0820/0821 29003KT 0800 MIFG=
202001080800 TAF VIDP 080800Z 0809/0818 05005KT 1000 BR SCT030 OVC080
                      BECMG 0810/0815 14010G20KT 0800 TSRA SCT030
                       FEW035CB OVC080=
202001080200 TAF VIDP 080200Z 0803/0812 05004KT 0800 MIFG SCT035 BKN100
                      BECMG 0805/0807 11007KT 1800 BR -RA=
202001072300 TAF VIDP 072300Z 0800/0809 05004KT 0400 SCT040 BKN100
                      BECMG 0804/0806 11008KT 1000 BR
                      BECMG 0808/0809 2000 HZ=
202001072000 TAF VIDP 072000Z 0721/0806 11007KT 1500 BR -RA SCT035 BKN090
                      BECMG 0800/0802 05004KT 0400 FG SCT040 BKN100
                       BECMG 0804/0806 11007KT 1000 BR=
202001071700 TAF VIDP 071700Z 0718/0803 11008KT 1500 BR DZ SCT035 BKN090
                      BECMG 0800/0802 05004KT 0400 FG SCT040 BKN100=
202001071400 TAF VIDP 071400Z 0715/0724 09008KT 1200 HZ BR SCT030 BKN090
                      BECMG 0720/0724 07008G18KT 0800 TSRA FEW035CB
                       OVC080=
202001071100 TAF VIDP 071100Z 0712/0721 09008KT 2200 HZ -RA SCT030 BKN090
                      BECMG 0720/0721 07008G18KT 1000 TSRA FEW035CB
                       OVC080=
202001070800 TAF VIDP 070800Z 0709/0718 09006KT 2000 HZ -RA SCT030 OVC080
                      BECMG 0712/0718 09010G25KT 0800 -TSRA FEW040CB=
202001070500 TAF VIDP 070500Z 0706/0715 11008KT 1500 BR -RA SCT035 BKN100
                      BECMG 0709/0715 09010G25KT 0800 -TSRA GR
                       FEW040CB OVC080=
202001070200 TAF VIDP 070200Z 0703/0712 07005KT 1500 BR -RA SCT035 BKN100
                      BECMG 0708/0710 11010KT 2500 HZ BR
                      BECMG 0708/0712 14010G20KT 1000 TSRAGR FEW035CB
                       OVC080=
202001062300 TAF VIDP 062300Z 0700/0709 11005KT 1200 BR -RA SCT030 BKN100
                      BECMG 0700/0704 0800 -TSRA FEW035CB OVC080
                       BECMG 0704/0706 14006KT 1500 BR -RA SCT030
                       SCT100
                      BECMG 0708/0709 09010KT 2500 HZ BR=
202001062000 TAF VIDP 062000Z 0621/0706 07004KT 1500 BR -RA SCT035 BKN100
                      BECMG 0623/0703 14010KT 0800 -TSRA MIFG FEW040CB
                       OVC090
                      BECMG 0704/0706 11006KT 1500 BR -RA SCT030
                       BKN090=
202001061700 TAF VIDP 061700Z 0618/0703 09005KT 1500 BR -RA SCT035 BKN100
                      BECMG 0622/0703 14010KT 0800 -TSRA MIFG FEW040CB
                       OVC090=
202001061400 TAF VIDP 061400Z 0615/0624 06006KT 1500 HZ BR SCT035 BKN100
                      BECMG 0622/0624 13008KT 0800 -TSRA MIFG FEW040CB
                       OVC090=
202001061100 TAF VIDP 061100Z 0612/0621 05008KT 1500 FU -RA SCT035 BKN100=
202001060800 TAF VIDP 060800Z 0609/0615 35004KT 1800 FU SCT035 BKN100
                      BECMG 0615/0617 09005KT 1500 FU DZ=
202001060500 TAF VIDP 060500Z 0606/0615 03004KT 1000 FU DZ SCT035 BKN100
                      BECMG 0609/0611 1500 FU DZ=
202001060201 TAF VIDP 060201Z 0603/0612 VRB02KT 0800 MIFG DZ SCT030 BKN090
                      BECMG 0608/0610 04006KT 1500 FU DZ=
202001060200 TAF VIDP 060200Z 0603/0612 VRB02KT 0800 MIFG SCT030 BKN090
                      BECMG 0608/0610 04006KT 1500 FU HZ=
202001052300 TAF VIDP 052300Z 0600/0609 00000KT 0600 SCT030 BKN090
                      BECMG 0604/0606 04006KT 0800 MIFG=
202001052000 TAF VIDP 052000Z 0521/0606 VRB02KT 0800 MIFG DZ SCT035 BKN090
                      BECMG 0600/0602 0400 FG
                      BECMG 0604/0605 04006KT 0800 MIFG=
202001051700 TAF VIDP 051700Z 0518/0603 33004KT 1200 FU BR SCT035 BKN090
                      BECMG 0521/0523 VRB02KT 0800 MIFG DZ
                      BECMG 0600/0602 0400 FG=
202001051400 TAF VIDP 051400Z 0515/0524 31006KT 1500 FU SCT040 BKN100
                      BECMG 0518/0520 1000 BR=
202001051100 TAF VIDP 051100Z 0512/0521 28007KT 2000 HZ SCT040 BKN100
                      BECMG 0517/0519 1000 BR=
202001050800 TAF VIDP 050800Z 0509/0518 26007KT 2500 HZ SCT100
                      BECMG 0515/0517 29005KT 1500 BR FEW100=
202001050500 TAF VIDP 050500Z 0506/0515 26006KT 1500 BR FU FEW100
                      BECMG 0509/0511 29008KT 2500 HZ SCT100=
202001050200 TAF VIDP 050200Z 0503/0512 00000KT 0600 MIFG FEW100
                      BECMG 0504/0506 27006KT 0800 MIFG FU FEW100
                       BECMG 0506/0508 1500 FU=
202001042300 TAF VIDP 042300Z 0500/0509 00000KT 0300 BR FEW100
                      BECMG 0504/0506 27006KT 0800 MIFG FU
                      BECMG 0507/0509 1500 FU=
202001042000 TAF VIDP 042000Z 0421/0506 02003KT 0800 MIFG FEW100
                      BECMG 0501/0503 00000KT 0300 FG
                      BECMG 0504/0506 27006KT 0800 MIFG FU=
202001041700 TAF VIDP 041700Z 0418/0503 30003KT 1000 FU BR FEW100
                      BECMG 0501/0503 00000KT 0200 FG=
202001041400 TAF VIDP 041400Z 0415/0424 31004KT 1200 FU FEW100
                      BECMG 0418/0420 VRB02KT 0600 MIFG=
202001041100 TAF VIDP 041100Z 0412/0421 29006KT 1500 FU FEW100
                      BECMG 0417/0419 VRB02KT 0800 MIFG=
202001040800 TAF VIDP 040800Z 0409/0418 23005KT 2000 FU FEW100
                      BECMG 0418/0420 1500 HZ BR=
202001040500 TAF VIDP 040500Z 0406/0415 14005KT 1000 BR FU NSC
                      BECMG 0409/0411 23004KT 2000 FU FEW100=
202001040200 TAF VIDP 040200Z 0403/0412 00000KT 0400 FG NSC
                      BECMG 0405/0407 05004KT 1000 BR FU
                      BECMG 0409/0411 27005KT 2000 FU FEW100=
202001032300 TAF VIDP 032300Z 0400/0409 00000KT 0300 FG NSC
                      BECMG 0403/0405 05004KT 0800 MIFG
                      BECMG 0408/0409 27005KT 1800 FU=
202001032000 TAF VIDP 032000Z 0321/0406 00000KT 0800 MIFG NSC
                      BECMG 0323/0401 0300 FG
                      BECMG 0403/0405 05004KT 0800 MIFG=
202001031700 TAF VIDP 031700Z 0318/0403 00000KT 1500 BR FEW100
                      BECMG 0400/0402 VRB02KT 0400 FG=
202001031400 TAF VIDP 031400Z 0315/0324 00000KT 2000 HZ FEW100
                      BECMG 0318/0320 1500 HZ BR=
202001031100 TAF VIDP 031100Z 0312/0321 12005KT 3000 HZ FEW100
                      BECMG 0315/0317 07004KT 2000 HZ=
202001030800 TAF VIDP 030800Z 0309/0318 11005KT 2200 HZ NSC
                      BECMG 0315/0317 07004KT 1500 BR=
202001030500 TAF VIDP 030500Z 0306/0315 05008KT 1200 FU FEW100
                      BECMG 0308/0310 1800 FU=
202001030200 TAF VIDP 030200Z 0303/0312 VRB02KT 0400 FG SCT100
                      BECMG 0304/0306 03005KT 0800 MIFG
                      BECMG 0308/0310 35006KT 1500 FU SCT035 SCT100=
202001022300 TAF VIDP 022300Z 0300/0309 00000KT 0300 FG SCT100
                      BECMG 0304/0306 03005KT 0800 MIFG
                      BECMG 0308/0309 35006KT 1500 FU SCT035 SCT100=
202001022000 TAF VIDP 022000Z 0221/0306 VRB02KT 0800 MIFG FEW100
                      BECMG 0300/0302 00000KT 0300 FG
                      BECMG 0304/0306 03005KT 0800 MIFG FU SCT100=
202001021700 TAF VIDP 021700Z 0218/0303 VRB02KT 1200 BR FEW100
                      BECMG 0300/0302 00000KT 0300 FG=
202001021400 TAF VIDP 021400Z 0215/0224 00000KT 1500 FU FEW100
                      BECMG 0218/0220 0800 MIFG=
202001021100 TAF VIDP 021100Z 0212/0221 03005KT 1200 FU BR FEW100
                      BECMG 0215/0217 0800 MIFG=
202001020800 TAF VIDP 020800Z 0209/0218 09007KT 1500 FU FEW100
                      BECMG 0215/0217 0800 MIFG=
202001020500 TAF VIDP 020500Z 0206/0215 03004KT 0800 MIFG FEW100
                      BECMG 0208/0210 09006KT 1500 FU FEW040 SCT100=
202001020200 TAF VIDP 020200Z 0203/0212 09004KT 300 FG VV///
                      BECMG 0204/0206 09008KT 0600 MIFG FEW035
                       SCT100
                      BECMG 0208/0210 1200 HZ FU SCT030 BKN090=
202001012000 TAF VIDP 012000Z 0121/0206 VRB02KT 0800 MIFG SCT100
                      BECMG 0200/0202 0300 FG VV///
                      BECMG 0204/0205 09008KT 0800 MIFG SCT030
                       BKN090=
202001011700 TAF VIDP 011700Z 0118/0203 VRB02KT 1200 BR SCT100
                      BECMG 0200/0202 07005KT 0400 FG=
202001011400 TAF VIDP 011400Z 0115/0124 09005KT 1200 BR FEW100
                      BECMG 0121/0123 0500 MIFG SCT100=
202001011100 TAF VIDP 011100Z 0112/0121 09006KT 1200 FU FEW100
                      BECMG 0117/0119 0800 MIFG=
202001010800 TAF VIDP 010800Z 0109/0118 09008KT 1500 FU FEW035 SCT100
                      BECMG 0115/0117 14005KT 0800 MIFG=
202001010500 TAF VIDP 010500Z 0106/0115 09006KT 1200 BR FU FEW100
                      BECMG 0108/0110 12008KT 2000 FU FEW035 SCT100=
202001010200 TAF VIDP 010200Z 0100/0112 09003KT 0300 FG FEW100
                      BECMG 0104/0106 0600 MIFG SCT100
                      BECMG 0108/0110 13005KT 1200 BR=

###################################
#  large TAF from VIDP
###################################
202001312300 TAF VIDP 312300Z 0100/0206 VRB02KT 1000 BR SCT100
                      TEMPO 0102/0103 0300 FG
                      BECMG 0105/0107 25005KT 1000 BR FEW100
                      BECMG 0109/0111 32008KT 2500 HZ NSC
                      BECMG 0120/0122 25004KT 1200 BR
                      BECMG 0200/0202 0300 FG
                      BECMG 0204/0206 0800 MIFG=
202001311700 TAF VIDP 311700Z 3118/0124 VRB02KT 2500 BR SCT100
                      BECMG 3123/0101 00000KT 1000 BR
                      TEMPO 0102/0103 0300 FG
                      BECMG 0105/0107 25005KT 1000 BR
                      BECMG 0109/0111 32007KT 2500 HZ NSC
                      BECMG 0118/0120 26004KT 1500 BR=
202001311100 TAF VIDP 311100Z 3112/0118 28004KT 3500 HZ NSC
                      BECMG 3119/3121 VRB02KT 1200 HZ BR
                      BECMG 0100/0102 26004KT 0400 FG
                      BECMG 0104/0106 31008KT 1200 BR FU
                      BECMG 0108/0110 3500 HZ
                      BECMG 0115/0117 VRB02KT 1800 HZ BR=
202001310500 TAF VIDP 310500Z 3106/0112 28006KT 1000 FU FEW100
                      BECMG 3108/3110 2000 HZ
                      BECMG 3118/3120 23003KT 1000 BR
                      BECMG 0101/0103 00000KT 0100 FG
                      BECMG 0104/0106 VRB02KT 0800 MIFG FU
                      BECMG 0108/0110 32005KT 1500 FU=
202001302300 TAF VIDP 302300Z 3100/0106 26003KT 0300 FG FEW100
                      BECMG 3104/3106 32006KT 1000 BR FU
                      BECMG 3108/3110 29008KT 2000 HZ SCT100
                      BECMG 3118/3120 26005KT 1200 BR FEW100
                      BECMG 0100/0102 VRB02KT 0300 FG
                      BECMG 0104/0106 29006KT 1200 BR FU SCT100=
202001301700 TAF VIDP 301700Z 3018/3124 29005KT 2200 HZ NSC
                      BECMG 3020/3022 VRB02KT 1000 BR FEW100
                      BECMG 3100/3102 26003KT 0300 FG
                      BECMG 3104/3106 32006KT 1000 BR FU
                      BECMG 3108/3110 29008KT 2000 HZ SCT100
                      BECMG 3118/3120 26005KT 1200 BR FEW100=
202001301100 TAF VIDP 301100Z 3012/3118 29005KT 2000 HZ FEW100
                      BECMG 3020/3022 1000 BR
                      BECMG 3101/3103 29003KT 0400 FG
                      BECMG 3105/3107 32006KT 1000 HZ
                      BECMG 3108/3110 2000 HZ
                      BECMG 3115/3117 29004KT 1500 HZ BR=
202001300500 TAF VIDP 300500Z 3006/3112 26006KT 0800 MIFG NSC
                      BECMG 3008/3010 32008KT 2000 HZ
                      BECMG 3015/3017 1500 HZ
                      BECMG 3020/3022 26004KT 0800 MIFG
                      BECMG 3101/3103 0400 FG
                      BECMG 3106/3108 32006KT 1000 HZ=
202001292300 TAF VIDP 292300Z 3000/3106 30004KT 0800 MIFG NSC
                      BECMG 3004/3006 32008KT 1500 BR FU
                      BECMG 3008/3010 33010KT 2200 HZ
                      BECMG 3017/3019 26005KT 1200 FU BR
                      BECMG 3022/3024 0500 MIFG
                      BECMG 3103/3105 29004KT 1200 BR FU=
202001291700 TAF VIDP 291700Z 2918/3024 26006KT 1500 BR NSC
                      BECMG 3000/3002 0500 MIFG
                      BECMG 3004/3006 3308KT 1200 BR FU
                      BECMG 3008/3010 2200 HZ
                      BECMG 3017/3019 26005KT 1200 FU BR=
202001291100 TAF VIDP 291100Z 2912/3018 32006KT 1500 FU FEW100
                      BECMG 2918/2920 25003KT 0800 MIFG NSC
                      BECMG 3000/3002 0500 MIFG
                      BECMG 3004/3006 32008KT 1000 BR HZ
                      BECMG 3008/3010 2000 HZ=
202001290500 TAF VIDP 290500Z 2906/3012 05005KT 1200 BR FU FEW035 SCT100
                      BECMG 2908/2910 32008KT 2000 HZ SCT100
                      BECMG 2915/2917 1000 BR FEW100
                      BECMG 3000/3002 00000KT 0200 FG VV///
                      BECMG 3004/3005 26005KT 1200 FU BR FEW035
                       SCT100
                      BECMG 3008/3010 29008KT 2000 FU=
202001282300 TAF VIDP 282300Z 2900/3006 27006KT 1500 BR RA SCT030 BKN090
                      BECMG 2901/2904 1000 TSRA FEW035CB OVC080
                       BECMG 2904/2906 1200 BR -RA SCT035 BKN090
                       BECMG 2908/2910 27005KT 1500 FU SCT100
                      BECMG 2915/2917 00000KT 0800 MIFG
                      BECMG 2920/2922 0300 FG
                      BECMG 3000/3002 0100 FG=
202001281700 TAF VIDP 281700Z 2818/2924 11005KT 1500 BR -RA SCT030 BKN100
                      BECMG 2822/2903 30005KT 1000 TSRA FEW035CB
                       OVC080
                      BECMG 2904/2906 1200 BR -RA SCT035 BKN100
                       BECMG 2908/2910 27005KT 1500 FU SCT100=
202001281100 TAF VIDP 281100Z 2812/2918 11008KT 1500 FU -RA SCT030 BKN100
                      BECMG 2815/2821 1000 -TSRA FEW035CB OVC080
                       BECMG 2903/2905 14006KT 1200 BR FU FEW030
                       SCT100
                      BECMG 2908/2910 29010KT 2500 HZ BR
                      BECMG 2915/2917 26006KT 1500 FU=
202001280500 TAF VIDP 280500Z 2806/2912 08008KT 1200 -RA SCT030 FEW035CB OVC080
                       BECMG 2809/2811 23010G20KT 1000
                      BECMG 2816/2818 23005KT 1500 BR DZ SCT030
                       BKN100
                      TEMPO 2820/2824 0800 -TSRA SCT035 FEW040CB
                       BKN090
                      BECMG 2903/2905 26010G20KT 1200 BR TSRA
                      BECMG 2908/2910 23010KT 1500 BR DZ SCT030
                       BKN090=
202001272300 TAF VIDP 272300Z 2800/2906 07006KT 1000 BR -RA SCT035 BKN090
                      BECMG 2804/2806 13008KT BR HZ
                      TEMPO 2807/2813 23010G20KT 1000 TSRA SCT030
                       FEW040CB OVC080
                      BECMG 2816/2818 23005KT 1500 BR DZ SCT040
                       BKN100
                      TEMPO 2820/2824 0800 -TSRA SCT035 FEW040CB
                       BKN090
                      BECMG 2903/2905 27006KT 1200 BR=
202001271700 TAF VIDP 271700Z 2718/2824 07007KT 1800 BR DZ SCT040 SCT100
                      BECMG 2722/2802 1200 -TSRA SCT035 FEW035CB
                       BKN090
                      BECMG 2804/2806 13008KT 1800 BR FU
                      BECMG 2807/2813 23010G20KT 1000 TSRA SCT030
                       FEW035CB OVC080
                      BECMG 2816/2818 23005KT 0800 MIFG=
202001271100 TAF VIDP 271100Z 2712/2818 07008KT 1200 FU SCT030 BKN090
                      TEMPO 2712/2715 15010G20KT 0800 TSRA FEW040CB
                       OVC080
                      BECMG 2717/2719 1500 BR -RA
                      TEMPO 2800/2804 15008KT 0800 TSRA FEW040CB
                       OVC080
                      BECMG 2806/2808 1500 BR -RA FEW030 SCT080
                       TEMPO 2810/2815 1000 TSRA FEW040CB OVC080=
202001270500 TAF VIDP 270500Z 2706/2812 32006KT 1500 BR SCT035 BKN100
                      BECMG 2709/2711 29008KT 2500 HZ/-RA
                      TEMPO 2709/2715 FEW035CB
                      BECMG 2718/2720 27004KT 1500 BR
                      BECMG 2800/2802 00000KT 0800 DZ/MIFG FEW030
                       SCT100
                      BECMG 2802/2808 1500 -TSRA FEW035CB BKN080
                       BECMG 2808/2810 15006KT 2000 HZ/BR SCT030
                       BKN090
                      TEMPO 2809/2812 FEW035CB=
202001262300 TAF VIDP 262300Z 2700/2806 VRB02KT 0600 MIFG FEW100
                      BECMG 2704/2706 26005KT 1200 BR FEW035 SCT100
                       BECMG 2708/2710 29008KT 2500 -RA HZ SCT035
                       BKN090
                      BECMG 2718/2720 VRB02KT 1500 BR
                      BECMG 2800/2802 00000KT 0800 DZ MIFG FEW030
                       SCT100
                      BECMG 2802/2806 1500 TSRA FEW035CB BKN090=
202001261700 TAF VIDP 261700Z 2618/2724 VRB02KT 2000 HZ NSC
                      BECMG 2620/2622 1200 BR FEW100
                      BECMG 2700/2702 0600 MOFG
                      BECMG 2704/2706 26005KT 1200 BR FEW035 SCT100
                       BECMG 2708/2710 29008KT 2500 -RA HZ SCT035
                       BKN090
                      BECMG 2718/2720 VRB02KT 1500 BR=
202001261100 TAF VIDP 261100Z 2612/2718 32007KT 2500 HZ NSC
                      BECMG 2618/2620 VRB02KT 1000 BR FEW100
                      BECMG 2700/2702 0600 MIFG FEW040 SCT100
                      BECMG 2704/2706 07005KT 1200 BR HZ
                      BECMG 2708/2710 12006KT 1800 HZ SCT030 BKN090
                       BECMG 2715/2717 VRB02KT 1200 BR=
202001260500 TAF VIDP 260500Z 2606/2712 31008KT 1200 BR FU NSC
                      BECMG 2609/2611 1800 FU
                      BECMG 2617/2619 VRB02KT 1000 FU BR FEW100
                       BECMG 2700/2702 0600 MIFG FEW035 SCT100
                       BECMG 2704/2706 0800 MIFG FU
                      BECMG 2708/2710 15006KT 1200 FU SCT030 BKN090=
202001252300 TAF VIDP 252300Z 2600/2706 00000KT 0300 FG FEW100
                      BECMG 2604/2606 32008KT 0600 MIFG NSC
                      BECMG 2608/2610 1800 BR
                      BECMG 2615/2617 VRB02KT 1200 BR FEW100
                      BECMG 2623/2701 00000KT 0500 MIFG SCT100
                       BECMG 2703/2705 24005KT 1200 BR FEW030 SCT100=
202001251700 TAF VIDP 251700Z 2518/2624 00000KT 1000 BR FEW100
                      BECMG 2520/2522 0600 MIFG
                      BECMG 2600/2602 0300 FG
                      BECMG 2604/2606 32008KT 0800 MIFG
                      BECMG 2608/2610 1800 FU
                      BECMG 2617/2619 VRB02KT 0800 MIFG FEW100=
202001251400 TAF VIDP 251400Z 2515/2524 34004KT 2200 HZ FEW040 SCT100
                      BECMG 2520/2522 0800 MIFG=
202001251102 TAF VIDP 251102Z 2512/2618 VRB02KT 2500 HZ FEW100
                      BECMG 2518/2520 1200 BR FEW040 SCT100
                      BECMG 2522/2524 00000KT 0400 MIFG
                      BECMG 2603/2605 33005KT 1200 BR FEW100
                      BECMG 2610/2612 3000 HZ
                      BECMG 2614/2616 VRB02KT 2000 BR=
202001251101 TAF COR VIDP 251101Z 2512/2618 VRB02KT 2500 HZ FEW100
                      BECMG 2518/2520 1200 BR FEW040 SCT100
                      BECMG 2522/2524 00000KT 0400 MIFG
                      BECMG 2603/2605 33005KT 1200 BR FEW100
                      BECMG 2610/2612 3000 HZ
                      BECMG 2614/2616 VRB02KT 2000 BR=
202001251100 TAF VIDP 251100Z 2512/2618 VRB02KT 2500 HZ FEW100
                      BECMG 2518/2520 1200 BR FEW040 SCT100
                      BECMG 2522/2524 00000KT 0400 MIFG
                      BECMG 2603/2605 33005KT 1200 BR FEW100
                      BECMG 2610/2612 3000 HZ
                      BECMG 2614/2616 VRB02KT 2000 BR=
202001250500 TAF VIDP 250500Z 2506/2612 26005KT 2000 HZ FEW100
                      BECMG 2508/2510 29007G17KT 4000 HZ SCT100
                       BECMG 2518/2520 11005KT 2500 HZ BR
                      BECMG 2601/2603 VRB02KT 0800 MIFG FEW100
                       BECMG 2604/2606 27006KT 2000 HZ
                      BECMG 2608/2610 30008KT 3500 HZ SCT100=
202001242301 TAF VIDP 242301Z 2500/2606 00000KT 1000 BR NSC
                      BECMG 2503/2505 2000 BR HZ FEW100
                      BECMG 2506/2508 29005KT 4000 HZ SCT100
                      BECMG 2515/2517 10005KT 2500
                      BECMG 2600/2602 00000KT 0800 MIFG
                      BECMG 2504/2606 VRB02KT 2000 BR HZ=
202001242300 TAF VIDP 242300Z 2500/2509 00000KT 1000 BR NSC
                      BECMG 2503/2505 2000 BR HZ FEW100
                      BECMG 2506/2508 29005KT 4000 HZ SCT100
                      BECMG 2515/2517 10005KT 2500
                      BECMG 2600/2602 00000KT 0800 MIFG
                      BECMG 2504/2606 VRB02KT 2000 BR HZ=
202001241700 TAF VIDP 241700Z 2418/2524 27007KT 2500 BR NSC
                      BECMG 2500/2502 1000 BR
                      BECMG 2503/2505 27010KT 2000 BR HZ FEW100
                       BECMG 2506/2508 27008G18KT 4000 HZ SCT100
                       BECMG 2515/2517 25006KT 2500 HZ
                      BECMG 2522/2524 1500 BR=
202001241100 TAF VIDP 241100Z 2412/2518 27008KT 3500 HZ FEW100
                      BECMG 2415/2417 24006KT 2500 BR HZ
                      BECMG 2500/2502 27005KT 0800 MIFG NSC
                      BECMG 2504/2506 29008KT 2000 BR SCT100
                      BECMG 2508/2510 32007G17KT 4000 HZ
                      BECMG 2515/2517 27005KT 2500 BR HZ FEW100=
202001240500 TAF VIDP 240500Z 2406/2512 27010KT 2000 BR SCT100
                      BECMG 2409/2411 29010G20KT 4000 HZ FEW030
                       SCT100
                      BECMG 2419/2421 26008KT 2500 HZ BR
                      BECMG 2501/2503 1000 BR
                      BECMG 2504/2506 29006KT 1500 BR SCT030 BKN100
                       BECMG 2509/2511 32004KT 3500 HZ FEW035CB=
202001232300 TAF VIDP 232300Z 2400/2506 25006KT 0800 MIFG NSC
                      BECMG 2403/2405 31008KT 1500 BR HZ
                      BECMG 2407/2409 31005G15KT 3500 HZ
                      BECMG 2415/2417 25006KT 2000 BR FEW100
                      BECMG 2423/2501 0800 MIFG NSC
                      BECMG 2503/2505 31007KT 1200 BR FU=
202001231700 TAF VIDP 231700Z 2318/2424 25006KT 2500 BR NSC
                      BECMG 2400/2402 0800 MIFG
                      BECMG 2404/2406 1500 BR
                      BECMG 2408/2410 32008G18KT 3000 HZ FEW100
                       BECMG 2419/2421 25006KT 1500 BR=
202001231100 TAF VIDP 231100Z 2312/2418 30010KT 3500 HZ NSC
                      BECMG 2317/2319 26005KT 1800 HZ BR
                      BECMG 2400/2402 1000 BR
                      BECMG 2404/2406 30008G18KT 1500 HZ
                      BECMG 2408/2410 4000 HZ
                      BECMG 2415/2417 27008KT 2000 HZ BR=
202001230500 TAF VIDP 230500Z 2306/2412 29008KT 1200 BR NSC
                      BECMG 2309/2311 2000 FU
                      BECMG 2319/2321 1200 BR
                      BECMG 2401/2403 0800 MIFG
                      BECMG 2404/2406 27010KT 1500 BR FU
                      BECMG 2409/2411 2500 HZ FEW100=
202001222300 TAF VIDP 222300Z 2300/2406 29005KT 0400 FG NSC
                      BECMG 2304/2306 32006KT 0800 MIFG FEW100
                       BECMG 2309/2311 29008KT 1500 BR FEW030 SCT100
                       BECMG 2318/2320 26005KT 0800 MIFG FEW100
                       BECMG 2400/2402 00000KT 0300 FG VV///
                      BECMG 2404/2406 29005KT 0800 MIFG SCT100=
202001221700 TAF VIDP 221700Z 2218/2324 26005KT 1200 BR FEW100
                      BECMG 2300/2302 0200 FG VV///
                      BECMG 2303/2305 32006KT 0600 MIFG FEW100
                       BECMG 2308/2310 1500 FU
                      BECMG 2315/2317 1200 FU BR
                      BECMG 2321/2323 27004KT 0800 MIFG=
202001221100 TAF VIDP 221100Z 2212/2318 32005KT 1500 FU BR FEW100
                      BECMG 2218/2220 0800 MIFG
                      BECMG 2300/2302 0300 FG
                      BECMG 2304/2306 27008KT 0800 MIFG FU
                      BECMG 2308/2310 2000 FU
                      BECMG 2315/2317 1200 FU BR=
202001220500 TAF VIDP 220500Z 2206/2312 27007KT 0400 FG VV///
                      BECMG 2209/2211 34008KT 1000 BR NSC
                      BECMG 2215/2217 26004KT 0800 MIFG
                      BECMG 2223/2301 26008KT 0200 FG VV///
                      BECMG 2304/2306 32005G15KT 0800 MIFG FEW100
                       BECMG 2308/2310 1500 BR HZ SCT100=
202001212300 TAF VIDP 212300Z 2200/2306 00000KT 0050 FG VV///
                      BECMG 2204/2206 33008KT 0800 MIFG NSC
                      BECMG 2209/2211 1500 BR
                      BECMG 2215/2217 29006KT 0800 MIFG
                      BECMG 2223/2301 0200 FG VV///
                      BECMG 2303/2305 32010KT 0800 MIFG FEW100=
202001211700 TAF VIDP 211700Z 2118/2224 09004KT 0600 MIFG FEW100
                      BECMG 2200/2202 0100 FG VV///
                      BECMG 2203/2205 35008KT 0800 MIFG NSC
                      BECMG 2208/2210 1500 FU
                      BECMG 2215/2217 VRB02KT 0800 MIFG
                      BECMG 2221/2223 33006KT 0300 FG=
202001211100 TAF VIDP 211100Z 2112/2218 04006KT 1200 FU FEW035 SCT100
                      BECMG 2115/2117 VRB02KT 0800 MIFG SCT100
                       BECMG 2200/2202 09005KT 0200 FG VV///
                      BECMG 2203/2205 35008KT 0800 MIFG FEW100
                       BECMG 2208/2210 1500 FU NSC
                      BECMG 2215/2217 VRB02KT 0800 MIFG=
202001210500 TAF VIDP 210500Z 2106/2212 09005KT 1000 BR DZ SCT035 BKN100
                      BECMG 2109/2111 05008KT 1500 -RA BR
                      BECMG 2115/2117 VRB02KT 0800 MIFG FEW035
                       SCT100
                      BECMG 2200/2202 00000KT 0100 FG VV///
                      BECMG 2204/2206 34005KT 0800 MIFG FEW100
                       BECMG 2208/2210 29008KT 1500 BR FU FEW035
                       SCT100=
202001202300 TAF VIDP 202300Z 2100/2109 00000KT 0300 FG SCT040 BKN100
                      BECMG 2104/2106 09005KT 0600 MIFG DZ
                      BECMG 2109/2111 03006KT 1500 -RA BR
                      BECMG 2115/2117 00000KT 0800 MIFG
                      BECMG 2200/2202 0100 FG VV///
                      BECMG 2204/2206 VRB02KT 0600 MIFG SCT100=
202001201700 TAF VIDP 201700Z 2018/2124 00000KT 0800 MIFG FEW040 SCT100
                      BECMG 2100/2102 0300 FG SCT040
                      BECMG 2104/2106 09005KT 0600 MIFG DZ
                      BECMG 2109/2111 03006KT 1500 -RA BR
                      BECMG 2120/2122 32003KT 0500 FG=
202001201100 TAF VIDP 201100Z 2012/2118 27005KT 1500 BR SCT100
                      BECMG 2015/2017 VRB02KT 0800 MIFG FEW030
                       SCT100
                      BECMG 2023/2101 05003KT 0200 FG VV///
                      BECMG 2104/2106 11006KT 0800 MIFG DZ SCT035
                       BKN090
                      BECMG 2108/2110 14008KT 1500 BR -RA -TSRA
                       FEW035CB
                      BECMG 2115/2112 09005KT 0800 MIFG FEW035
                       SCT100=
202001200501 TAF VIDP 200501Z 2006/2015 29006KT 0800 MIFG SCT100
                      BECMG 2009/2011 32008KT 1200 BR FU FEW030
                       SCT100
                      BECMG 2015/2017 VRB02KT 0800 MIFG SCT030
                       BKN100
                      BECMG 2022/2024 07003KT 0200 FG DZ VV///
                       BECMG 2104/2106 11006KT 0800 MIFG SCT030
                       BKN100
                      BECMG 2108/2110 15008KT 1200 BR -TSRA FEW035CB=
202001192300 TAF VIDP 192300Z 2000/2106 25004KT 0050 FG VV///
                      BECMG 2004/2006 0600 MIFG NSC
                      BECMG 2008/2010 32007KT 1200 BR FU FEW100
                       BECMG 2015/2017 VRB02KT 0800 MIFG FEW040
                       SCT100
                      BECMG 2023/2101 05003KT 0400 FG SCT040 BKN100
                       BECMG 2103/2105 11006KT 0800 MIFG DZ SCT035
                       BKN090=
202001191700 TAF VIDP 191700Z 1918/2024 25006KT 0200 FG VV///
                      BECMG 1921/1923 0050 FG VV///
                      BECMG 2003/2005 0500 MIFG NSC
                      BECMG 2006/2008 32007KT 1200 BR SCT100
                      BECMG 2015/2017 VRB02KT 0800 MIFG FEW040
                       BECMG 2021/2023 05003KT 0400 FG SCT040 BKN100=
202001190500 TAF VIDP 190500Z 1906/2012 28005KT 1000 BR FU FEW040 SCT100
                      BECMG 1909/1911 1500 FU
                      BECMG 1918/1920 23003KT 0800 MIFG FEW100
                       BECMG 2000/2002 00000KT 0100 FG VV///
                      BECMG 2004/2006 VRB02KT 0800 MIFG SCT100
                       BECMG 2008/2010 30005KT 1200 FU FEW030=
202001182300 TAF VIDP 182300Z 1900/2006 00000KT 0050 FG VV///
                      BECMG 1904/1906 34005KT 0600 MIFG FEW100
                       BECMG 1908/1910 29008KT 1500 FU BR SCT100
                       BECMG 1918/1920 VRB02KT 0800 MIFG
                      BECMG 2000/2002 00000KT 0300 FG NSC
                      BECMG 2004/2006 26005KT 0800 MIFG FEW100=
202001181700 TAF VIDP 181700Z 1818/1924 29004KT 1200 BR FEW100
                      BECMG 1820/1822 VRB02KT 0600 MIFG
                      BECMG 1900/1902 00000KT 0100 FG VV///
                      BECMG 1904/1906 34005KT 0600 MIFG FEW100
                       BECMG 1908/1910 29008KT 1500 FU BR SCT100
                       BECMG 1918/1920 VRB02KT 0800 MIFG FEW100=
202001181100 TAF VIDP 181100Z 1812/1918 29005KT 1500 FU BR NSC
                      BECMG 1818/1820 0600 MIFG
                      BECMG 1822/1824 00000KT 0100 FG VV///
                      BECMG 1904/1906 34005KT 0600 MIFG NSC
                      BECMG 1908/1910 1500 FU FEW100
                      BECMG 1915/1917 VRB02KT 0800 MIFG=
202001180500 TAF VIDP 180500Z 1806/1912 29005KT 0600 MIFG FEW100
                      BECMG 1809/1811 35005KT 1200 BR FU SCT100
                       BECMG 1815/1817 0800 MIFG
                      BECMG 1822/1824 00000KT 0100 FG VV///
                      BECMG 1904/1906 25004KT 0500 MIFG NSC
                      BECMG 1908/1910 32006KT 1200 BR FU=
202001172300 TAF VIDP 172300Z 1800/1906 00000KT 0050 FG VV///
                      BECMG 1804/1806 27006KT 0500 MIFG FEW030
                       SCT100
                      BECMG 1808/1810 32008KT 1000 MIFG BR SCT100
                       BECMG 1814/1816 1500 BR FEW100
                      BECMG 1818/1820 VRB02KT 0800 MIFG NSC
                      BECMG 1822/1902 00000KT 0100 FG VV///
                      BECMG 1904/1906 28005KT 0800 MIFG NSC=
202001171700 TAF VIDP 171700Z 1718/1824 35004KT 1200 BR FEW035 SCT090
                      BECMG 1721/1723 VRB02KT 0600 MIFG FEW100
                       BECMG 1800/1802 0200 FG
                      BECMG 1804/1806 27006KT 0800 MIFG FEW030
                       SCT090
                      BECMG 1809/1811 35008KT 1500 FU
                      BECMG 1819/1821 VRB02KT 0800 MIFG FEW100=
202001171100 TAF VIDP 171100Z 1712/1818 32006KT 1500 BR SCT035 SCT100
                      BECMG 1718/1720 VRB02KT 0800 MIFG FEW040
                       SCT100
                      BECMG 1800/1802 02003KT 0200 FG FEW100
                      BECMG 1804/1806 29006KT 0800 MIFG SCT040
                       BECMG 1808/1810 1500 FU SCT035 SCT100
                      BECMG 1815/1817 0800 MIFG=
202001170500 TAF VIDP 170500Z 1706/1812 29006KT 1000 BR -RA SCT030 BKN100
                      BECMG 1708/1710 32008KT 2000 BR HZ
                      BECMG 1715/1717 29005KT 1000 BR FEW035 SCT100
                       BECMG 1800/1802 VRB02KT 0400 FG NSC
                      BECMG 1804/1806 32005KT 1200 BR FEW100
                      BECMG 1808/1810 29008KT 2000 HZ BR SCT100=
202001162300 TAF VIDP 162300Z 1700/1806 29005KT 0400 -RA FG SCT030 BKN080
                      TEMPO 1700/1704 FEW035CB OVC080
                      BECMG 1704/1706 32006KT 1200 BR -RA
                      BECMG 1708/1710 27005KT 2000 HZ SCT040 SCT100
                       BECMG 1715/1717 32005KT 1000 R
                      BECMG 1721/1723 VRB02KT 0600 MIFG
                      BECMG 1803/1805 32005KT 1000 BR=
202001161700 TAF VIDP 161700Z 1618/1724 33005KT 0800 MIFG -RA SCT030 BKN090
                       BECMG 1623/1701 VRB02KT 0400 FG FEW030 SCT100
                       BECMG 1704/1706 32005KT 1200 BR
                      BECMG 1708/1710 27005KT 2000 HZ SCT040 BKN100
                       BECMG 1715/1717 32005KT 1000 BR
                      BECMG 1721/1723 VRB02KT 0800 MIFG=
202001161100 TAF VIDP 161100Z 1612/1718 32006KT 1200 BR -RA SCT030 BKN090
                      BECMG 1612/1618 0800 -TSRA FEW035CB OVC080
                       BECMG 1700/1702 02005KT 0600 MIFG FEW035
                       SCT100
                      BECMG 1704/1706 32006KT 1200 BR
                      BECMG 1709/1711 29008KT 2000 HZ BR SCT035
                       BKN100
                      BECMG 1715/1717 35005KT 1200 BR FEW035 SCT100=
202001160500 TAF VIDP 160500Z 1606/1712 32004KT 1500 BR -RA SCT030 BKN100
                      BECMG 1609/1615 23010G20KT 1000 -TSRA SCT030
                       FEW035CB OVC080
                      TEMPO 1618/1622 25010G20KT 0800 -TSRA SCT030
                       FEW035CB OVC080
                      BECMG 1700/1702 0600 MIFG SCT040
                      BECMG 1704/1706 29006KT 1200 BR SCT040 BKN100
                       BECMG 1709/1711 32008KT 2000 HZ SCT040 BKN100=
202001152300 TAF VIDP 152300Z 1600/1706 02004KT 0500 MIFG SCT100
                      BECMG 1603/1605 0800 MIFG FEW040 SCT090
                      BECMG 1606/1608 07007KT 1200 BR -RA SCT035
                       BKN090
                      TEMPO 1613/1618 23010G20KT 0600 -TSRA SCT030
                       FEW035CB OVC080
                      BECMG 1622/1624 34004KT 0800 MIFG -RA SCT035
                       BKN090
                      BECMG 1703/1705 29006KT 1200 BR SCT040 SCT100=
202001151700 TAF COR VIDP 151700Z 1518/1624 34004KT 1100 BR SCT100
                      BECMG 1523/1601 05004KT 0600 MIFG -RA SCT035
                       BKN090
                      BECMG 1603/1605 09006KT 1000 BR
                      TEMPO 1606/1612 25010G20KT 0600 TSRA SCT030
                       FEW035CB OVC090
                      BECMG 1615/1617 09005KT 1200 BR -RA
                      BECMG 1620/1622 VRB02KT 0800 MIFG SCT040
                       BKN100=
202001151100 TAF VIDP 151100Z 1512/1618 35008KT 1200 FU FEW035 SCT090
                      BECMG 1520/1603 24015G25KT 0800 TSRA SCT025
                       OVC080 FEW035CB
                      BECMG 1605/1607 1200 BR RA
                      BECMG 1615/1617 09008KT 0800 BR -RA FEW030
                       SCT090=
202001150500 TAF VIDP 150500Z 1506/1612 32005KT 1500 BR HZ FEW100
                      BECMG 1508/1510 34008KT 2500 HZ FEW040 SCT100
                       BECMG 1515/1517 27004KT 1500 BR
                      BECMG 1600/1602 05006KT 0600 MIFG RA SCT040
                       SCT100
                      BECMG 1603/1609 09008G18KT 1200 -TSRA FEW035CB
                       BKN080=
202001142300 TAF VIDP 142300Z 1500/1606 00000KT 0300 FG VV///
                      BECMG 1504/1506 32005KT 0800 MIFG FEW100
                       BECMG 1508/1510 35008KT 2000 BR FEW035 SCT100
                       BECMG 1518/1520 29005KT 1500 BR
                      BECMG 1600/1602 26005KT 0800 MIFG
                      BECMG 1602/1606 -TSRA FEW035CB BKN090=
202001141700 TAF VIDP 141700Z 1418/1524 34005KT 1500 BR NSC
                      BECMG 1420/1422 VRB02KT 0800 MIFG
                      BECMG 1500/1502 00000KT 0300 FG VV///
                      BECMG 1504/1506 32005KT 0800 MIFG FEW100
                       BECMG 1508/1510 35008KT 2000 BR FEW035 SCT100
                       BECMG 1518/1520 29005KT 1200 BR=
202001141100 TAF VIDP 141100Z 1412/1518 31005KT 1500 BR NSC
                      BECMG 1418/1420 0600 MIFG
                      BECMG 1422/1424 00000KT 0100 VV///
                      BECMG 1504/1506 32005KT 0800 MIFG NSC
                      BECMG 1508/1510 03005KT 1500 BR FEW100
                      BECMG 1515/1517 1000 BR=
202001140500 TAF VIDP 140500Z 1406/1512 34005KT 1000 BR SCT100
                      BECMG 1408/1410 05004KT 1500 HZ FEW100
                      BECMG 1416/1418 32003KT 0800 MIFG NSC
                      BECMG 1421/1423 00000KT 0200 FG VV///
                      BECMG 1503/1505 05004KT 0600 MIFG NSC
                      BECMG 1507/1509 09006KT 1500 BR FU FEW100=
202001132300 TAF VIDP 132300Z 1400/1506 35008KT 0400 FG FEW030 SCT090
                      BECMG 1404/1406 0800 MIFG SCT100
                      BECMG 1409/1411 1500 HZ FU FEW100
                      BECMG 1419/1421 VRB02KT 0600 MIFG
                      BECMG 1500/1502 0300 FG
                      BECMG 1504/1505 0600 MIFG FEW100=
202001131700 TAF VIDP 131700Z 1318/1424 35008KT 1500 BR -RA SCT030 OVC090
                      BECMG 1400/1402 0400 FG FEW030 SCT090
                      BECMG 1404/1406 0800 MIFG SCT100
                      BECMG 1409/1411 1500 HZ FU FEW100
                      BECMG 1419/1421 VRB02KT 0600 MIFG=
202001131100 TAF VIDP 131100Z 1312/1418 32008KT 1200 FU SCT040 BKN100
                      TEMPO 1313/1317 0800 -TSRA FEW040CB
                      BECMG 1321/1323 0300 MIFG -RA
                      BECMG 1404/1406 0800 MIFG FEW040 SCT100
                      BECMG 1408/1410 1500 FU
                      BECMG 1414/1416 24004KT 0800 MIFG=
202001130500 TAF VIDP 130500Z 1306/1412 14006KT 1500 FU FEW040 SCT100
                      BECMG 1308/1310 15008KT 2500 RA BR
                      BECMG 1312/1318 14010G25KT 1000 -TSRA FEW035CB
                       OVC080
                      BECMG 1400/1402 0500 MIFG SCT100
                      BECMG 1404/1406 13006KT 1000 BR SCT030 SCT100
                       BECMG 1408/1410 15008KT 2000 HZ SCT030 SCT100=
202001122300 TAF VIDP 122300Z 1300/1406 00000KT 0800 MIFG -RA SCT030 SCT100
                       BECMG 1304/1306 15008KT 1200 RA BR
                      BECMG 1312/1318 13010G25KT 1000 TSRA FEW035CB
                       OVC090
                      BECMG 1400/1402 00000KT 0200 FG SCT100=
202001121700 TAF VIDP 121700Z 1218/1324 13006KT 1500 FU BR SCT100
                      BECMG 1300/1302 0600 MIFG RA SCT030 BKN090
                       BECMG 1304/1306 15008KT 1200 RA BR
                      BECMG 1312/1318 13010G25KT 1000 TSRA FEW035CB
                       OVC090
                      BECMG 1320/1322 30004KT 0600 -RA MIFG=
202001121101 TAF VIDP 121101Z 1212/1318 26005KT 2500 HZ FEW100
                      BECMG 1218/1220 23003KT 1200 BR FEW030 SCT100
                       BECMG 1300/1302 VRB02KT 0800 MIFG DZ
                      BECMG 1305/1307 14008KT 1500 BR
                      BECMG 1308/1312 15010G20KT 2000 HZ -TSRA
                       BKN030 FEW035CB OVC080
                      BECMG 1315/1317 11005KT 1200 BR SCT030 SCT100=
202001120500 TAF VIDP 120500Z 1206/1312 26006KT 1000 BR NSC
                      BECMG 1208/1210 29008KT 2000 HZ FEW100
                      BECMG 1218/1220 VRB02KT 1000 BR FEW030 SCT100
                       BECMG 1300/1302 VRB02KT 0800 MIFG DZ SCT030
                       BKN100
                      BECMG 1304/1306 13008KT 1500 BR
                      BECMG 1308/1310 15010G20KT 2000 HZ -TSRA
                       BKN030 FEW035CB OVC090=
202001112300 TAF VIDP 112300Z 1200/1306 00000KT 0400 FG SCT100
                      BECMG 1203/1205 23004KT 0800 MIFG SCT040
                       BKN100
                      BECMG 1208/1210 29007KT 1500 BR DZ SCT035
                       BKN090
                      BECMG 1218/1220 VRB02KT 0800 MIFG -RA
                      TEMPO 1300/1304 15008G18KT 0600 MIFG -TSRA
                       SCT030 FEW040CB BKN080=
202001111700 TAF VIDP 111700Z 1118/1224 00000KT 1500 BR FEW040 BKN100
                      BECMG 1200/1202 23004KT 0400 FG
                      BECMG 1204/1206 1000 BR SCT040 BKN100
                      BECMG 1208/1210 29007KT 1500 BR DZ SCT035
                       BKN090
                      BECMG 1216/1218 VRB02KT 0800 MIFG -RA=
202001111100 TAF VIDP 111100Z 1112/1218 26006KT 3000 HZ NSC
                      BECMG 1116/1118 32004KT 2500
                      BECMG 1200/1202 VRB02KT 0800 BR MIFG FEW100
                       BECMG 1204/1206 26005KT 1500 BR
                      BECMG 1209/1211 29008KT 2500 HZ SCT100
                      BECMG 1215/1217 32005KT 1500 FEW030 SCT100=
202001110500 TAF VIDP 110500Z 1106/1212 27006KT 1500 FU FEW035 SCT100
                      BECMG 1108/1110 2000 FU
                      BECMG 1118/1120 VRB02KT 1000 BR SCT100
                      BECMG 1200/1202 00000KT 0300 FG FEW100
                      BECMG 1204/1206 31006KT 0800 MIFG SCT100
                       BECMG 1208/1210 1800 FU HZ=
202001102300 TAF VIDP 102300Z 1100/1206 29005KT 0300 FG VV///
                      BECMG 1104/1106 26006KT 0800 MIFG FEW035
                       SCT100
                      BECMG 1109/1111 32008KT 1500 FU BR SCT035
                       BKN100
                      BECMG 1120/1122 VRB02KT 0800 MIFG
                      BECMG 1200/1202 00000KT 0200 FG VV///
                      BECMG 1204/1205 29005KT 0800 MIFG FEW035
                       SCT100=
202001101700 TAF VIDP 101700Z 1018/1124 26005KT 1500 BR NSC
                      BECMG 1020/1022 29003KT 0800 MIFG FEW100
                       BECMG 1023/1101 00000KT 0200 FG VV///
                      BECMG 1105/1107 29006KT 0800 MIFG FEW035
                       SCT100
                      BECMG 1109/1111 32008KT 1500 FU SCT035 BKN100
                       BECMG 1118/1120 26005KT 0800 MIFG=
202001100500 TAF VIDP 100500Z 1006/1112 32007KT 0600 MIFG NSC
                      BECMG 1008/1010 1200 BR FU
                      BECMG 1016/1018 0800 MIFG
                      BECMG 1022/1024 25005KT 0200 FG VV///
                      BECMG 1104/1106 31006KT 0600 MIFG NSC
                      BECMG 1108/1110 1500 BR FU=
202001092300 TAF VIDP 092300Z 1000/1106 26003KT 0100 FG VV///
                      BECMG 1005/1007 33008KT 0800 MIFG NSC
                      BECMG 1009/1011 1500 HZ FU
                      BECMG 1018/1020 25003KT 0800 MIFG
                      BECMG 1100/1102 0200 FG VV///
                      BECMG 1104/1105 32006KT 0600 MIFG NSC=
202001091700 TAF VIDP 091700Z 0918/1024 26003KT 1000 BR NSC
                      BECMG 0920/0922 0600 MIFG
                      BECMG 1000/1002 0200 FG VV///
                      BECMG 1004/1006 33008KT 0800 MIFG
                      BECMG 1009/1011 1500 HZ FU
                      BECMG 1018/1020 25003KT 0800 MIFG=
202001090500 TAF VIDP 090500Z 0906/1012 29006KT 1200 BR FU FEW035 SCT100
                      BECMG 0908/0910 32008KT 2000 HZ SCT035 BKN100
                       BECMG 0915/0917 27005KT 1000 BR FEW035 SCT100
                       BECMG 1000/1002 00000KT 0200 FG VV///
                      BECMG 1004/1006 26005KT 0800 MIFG FEW100
                       BECMG 1008/1010 29008KT 2000 HZ FEW035 SCT100=
202001082300 TAF VIDP 082300Z 0900/1006 30004KT 0400 FG SCT030 SCT100
                      BECMG 0904/0906 32006KT 1000 BR HZ
                      BECMG 0908/0910 2000 HZ
                      BECMG 0915/0917 00000KT 0800 MIFG NSC
                      BECMG 1000/1002 0050 VV///=
202001081700 TAF VIDP 081700Z 0818/0924 29008KT 1000 BR SCT030 BKN080
                      BECMG 0900/0902 30003KT 0200 FG SCT100
                      BECMG 0904/0906 32006KT 0600 MIFG
                      BECMG 0908/0910 1200 BR FU
                      BECMG 0915/0917 00000KT 0800 MIFG NSC
                      BECMG 0921/0923 0200 FG=
202001081100 TAF VIDP 081100Z 0812/0918 32005KT 1500 BR -RA SCT030 BKN100
                      BECMG 0812/0815 FEW035CB OVC080
                      BECMG 0820/0821 29003KT 0800 MIFG
                      BECMG 0900/0902 00000KT 0400 FG FEW035 SCT100
                       BECMG 0904/0906 29006KT 1000 BR -RA SCT035
                       SCT100
                      BECMG 0908/0910 32008KT 2000 BR HZ
                      BECMG 0915/0917 26005KT 1200 BR FEW035 SCT100=
202001080500 TAF VIDP 080500Z 0806/0912 14006KT 1000 BR -RA SCT030 FEW035CB
                       OVC080
                      TEMPO 0809/0815 15010G20KT 1000 -TSRA SCT035
                       FEW035CB OVC080
                      BECMG 0818/0820 29006KT 1000 BR -RA
                      BECMG 0900/0902 23005KT 0300 FG VV///
                      BECMG 0904/0906 32006KT 1000 BR -RA SCT030
                       BKN080
                      TEMPO 0908/0912 FEW035CB=
202001072300 TAF VIDP 072300Z 0800/0906 05004KT 0400 FG SCT040 BKN100
                      BECMG 0804/0806 11008KT 1000 BR
                      BECMG 0808/0810 2000 HZ
                      TEMPO 0809/0815 15008G15KT 1000 -TSRA SCT030
                       FEW035 OVC090
                      BECMG 0818/0820 32006KT 1000 BR -RA
                      BECMG 0900/0902 25005KT 0300 FG VV///
                      BECMG 0903/0905 32008KT 1000 BR NSC=
202001071700 TAF VIDP 071700Z 0718/0824 11008KT 1500 BR DZ SCT035 BKN090
                      BECMG 0800/0802 05004KT 0400 FG SCT040 BKN100
                       BECMG 0804/0806 11006KT 1000 BR
                      BECMG 0808/0810 2000 HZ
                      TEMPO 0809/0815 15008G18KT 1000 -TSRA SCT030
                       FEW035CB OVC090
                      BECMG 0818/0820 32006KT BR -RA=
202001071100 TAF VIDP 071100Z 0712/0818 09008KT 2200 HZ -RA SCT030 BKN090
                      BECMG 0720/0803 07008G18KT 1000 TSRA FEW035CB
                       OVC080
                      BECMG 0806/0808 2000 HZ -RA
                      BECMG 0809/0815 13008G18KT 1000 TSRA FEW035CB
                       OVC080=
202001070500 TAF VIDP 070500Z 0706/0812 11008KT 1500 BR -RA SCT035 BKN100
                      BECMG 0709/0715 09010G25KT 0800 -TSRA GR
                       FEW040CB OVC080
                      BECMG 0718/0720 08008KT 1200 -RA BR SCT035
                       BKN100
                      BECMG 0800/0802 09004KT 0800 -RA MIFG
                      BECMG 0804/0806 11006KT 1500 -RA BR=
202001062300 TAF VIDP 062300Z 0700/0806 11005KT 1200 BR -RA SCT030 BKN100
                      BECMG 0700/0704 0800 -TSRA FEW035CB OVC080
                       BECMG 0704/0706 14006KT 1500 BR -RA SCT030
                       SCT100
                      BECMG 0708/0710 09010KT 2500 HZ BR
                      BECMG 0708/0712 12010G25KT 0800 TSRA GR FEW035CB
                       OVC080
                      BECMG 0718/0720 05008KT 1500 BR FEW035 SCT100
                       BECMG 0800/0802 00000KT 0800 MIFG
                      BECMG 0804/0805 09005KT 1500 BR -RA SCT035
                       BKN100=
202001061700 TAF VIDP 061700Z 0618/0724 09005KT 1500 BR -RA SCT035 BKN100
                      BECMG 0622/0703 14010KT 0800 -TSRA MIFG FEW040CB
                       OVC090
                      BECMG 0704/0706 11006KT 1500 BR -RA SCT030
                       BKN090
                      BECMG 0708/0710 08010KT 2500 HZ BR
                      BECMG 0710/0712 12010G25KT 0800 TSRA GR FEW035CB
                       OVC080
                      BECMG 0718/0720 05006KT 1500 BR FEW035 SCT100=
202001061100 TAF VIDP 061100Z 0612/0718 05008KT 1500 FU -RA SCT035 BKN100
                      BECMG 0622/0703 13010KT 0800 -TSRA MIFG FEW040CB
                       OVC090
                      BECMG 0704/0705 13006KT 1200 -RA BR SCT030
                       BKN090
                      BECMG 0706/0712 09010G25KT 0800 TSRA GR FEW035CB
                       OVC080
                      BECMG 0714/0716 05008KT 1200 -RA BR=
202001060500 TAF COR VIDP 060500Z 0606/0712 03004KT 1000 FU DZ SCT035 BKN100
                       BECMG 0609/0611 1500 FU DZ
                      BECMG 0618/0620 09006KT 0800 MIFG
                      BECMG 0700/0702 VRB02KT 0400 FG DZ
                      BECMG 0704/0706 09008KT 0800 MIFG SCT030
                       BKN090
                      TEMPO 0709/0711 FEW035CB=
202001052300 TAF VIDP 052300Z 0600/0706 00000KT 0600 SCT030 BKN090
                      BECMG 0604/0606 04006KT 0800 MIFG
                      BECMG 0608/0610 1500 FU HZ
                      BECMG 0617/0619 09008KT 0800 MIFG ...RA
                      BECMG 0700/0702 0400 FG DZ
                      BECMG 0704/0706 0800 MIFG ...RA=
202001051700 TAF VIDP 051700Z 0518/0624 33004KT 1200 FU BR SCT035 BKN090
                      BECMG 0521/0523 VRB02KT 0800 MIFG DZ
                      BECMG 0600/0602 0400 FG
                      BECMG 0604/0606 04006KT 0800 MIFG
                      BECMG 0608/0610 1500 FU HZ
                      BECMG 0617/0619 09008KT 0800 MIFG -RA=
202001051100 TAF VIDP 051100Z 0512/0618 28007KT 2000 HZ SCT040 BKN100
                      BECMG 0517/0519 1000 BR
                      BECMG 0601/0603 VRB02KT 0500 MIFG -RA
                      BECMG 0606/0608 07008KT 1200 FU
                      BECMG 0611/0613 0800 MIFG
                      TEMPO 0615/0618 0600 -TSRA FEW030CB=
202001050500 TAF VIDP 050500Z 0506/0612 26006KT 1500 BR FU FEW100
                      BECMG 0509/0511 29008KT 2500 HZ SCT100
                      BECMG 0518/0520 VRB02KT 1000 BR FEW100
                      BECMG 0600/0602 00000KT 0400 FG
                      BECMG 0604/0606 26005KT 0800 MIFG
                      BECMG 0608/0610 29006KT 2000 FU FEW035 SCT100=
202001042300 TAF VIDP 042300Z 0500/0606 00000KT 0300 BR FEW100
                      BECMG 0504/0506 27006KT 0800 MIFG FU
                      BECMG 0507/0509 1500 FU
                      BECMG 0523/0601 00000KT 0300 FG=
202001041700 TAF VIDP 041700Z 0418/0524 30003KT 1000 FU BR FEW100
                      BECMG 0501/0503 00000KT 0200 FG
                      BECMG 0504/0506 27006KT 0800 MIFG FU
                      BECMG 0507/0509 1500 FU
                      BECMG 0518/0520 00000KT 0800 MIFG
                      BECMG 0522/0524 0300 FG=
202001041100 TAF VIDP 041100Z 0412/0518 29006KT 1500 FU FEW100
                      BECMG 0417/0419 VRB02KT 0800 MIFG
                      BECMG 0500/0502 25004KT 0300 FG FEW035 SCT100
                       BECMG 0504/0506 31006KT 0600 MIFG
                      BECMG 0509/0511 1200 FU SCT035 BKN090
                      BECMG 0515/0517 VRB02KT 0800 MIFG=
202001040500 TAF VIDP 040500Z 0406/0512 14005KT 1000 BR FU NSC
                      BECMG 0409/0411 23004KT 2000 FU FEW100
                      BECMG 0418/0420 00000KT 0800 MIFG
                      BECMG 0500/0502 0400 FG FEW100
                      BECMG 0504/0506 VRB02KT 0600 MIFG FEW100
                       BECMG 0508/0510 23005KT 1500 FU=
202001032300 TAF VIDP 032300Z 0400/0506 00000KT 0300 FG NSC
                      BECMG 0403/0405 05004KT 0800 MIFG
                      BECMG 0408/0410 27005KT 1800 FU
                      BECMG 0415/0417 00000KT 1200 BR
                      BECMG 0423/0501 0300 FG FEW100
                      BECMG 0503/0505 25004KT 0800 MIFG FEW040
                       SCT100=
202001031700 TAF VIDP 031700Z 0318/0424 00000KT 1500 BR FEW100
                      BECMG 0400/0402 VRB02KT 0400 FG
                      BECMG 0404/0406 05004KT 1200 BR FU NSC
                      BECMG 0408/0410 27005KT 2200 FU
                      BECMG 0415/0417 00000KT 1500 BR
                      BECMG 0420/0422 0800 MIFG SCT100=
202001031100 TAF VIDP 031100Z 0312/0418 12005KT 3000 HZ FEW100
                      BECMG 0315/0317 07004KT 2000 HZ
                      BECMG 0400/0402 00000KT 0500 MIFG
                      BECMG 0404/0406 VRB02KT 1500 FU NSC
                      BECMG 0408/0410 32003KT 2500 HZ FEW100
                      BECMG 0415/0417 34006KT 2000 HZ=
202001030500 TAF VIDP 030500Z 0306/0412 05008KT 1200 FU FEW100
                      BECMG 0308/0310 1800 FU
                      BECMG 0318/0320 00000KT 0800 MIFG
                      BECMG 0400/0402 0100 FG
                      BECMG 0404/0406 VRB02KT 0600 MIFG FU NSC
                       BECMG 0408/0410 29005KT 1500 FU=
202001022300 TAF VIDP 022300Z 0300/0406 00000KT 0300 FG SCT100
                      BECMG 0304/0306 03005KT 0800 MIFG
                      BECMG 0308/0310 35006KT 1500 FU SCT035 SCT100
                       BECMG 0315/0317 32005KT 0800 MIFG
                      BECMG 0400/0402 00000KT 0400 FG FEW100
                      BECMG 0404/0405 29005KT 0800 MIFG FEW030
                       SCT100=
202001021700 TAF VIDP 021700Z 0218/0324 VRB02KT 1200 BR FEW100
                      BECMG 0300/0302 00000KT 0300 FG
                      BECMG 0304/0306 03005KT 0800 MIFG FU SCT100
                       BECMG 0308/0310 34006KT 1500 FU SCT035 SCT100
                       BECMG 0315/0317 31004KT 0800 MIFG
                      BECMG 0322/0324 00000KT 0400 FG=
202001021100 TAF VIDP 021100Z 0212/0318 03005KT 1200 FU BR FEW100
                      BECMG 0215/0217 0800 MIFG
                      BECMG 0300/0302 00000KT 0300 FG SCT100
                      BECMG 0304/0306 VRB02KT 1000 BR FU
                      BECMG 0308/0310 35006KT 1500 FU
                      BECMG 0315/0317 VRB02KT 0800 MIFG=
202001020500 TAF VIDP 020500Z 0206/0312 03004KT 0800 MIFG FEW100
                      BECMG 0208/0210 09006KT 1500 FU FEW040 SCT100
                       BECMG 0218/0220 VRB02KT 0800 MIFG SCT040
                       SCT100
                      BECMG 0300/0302 03003KT 0150 FG VV///
                      BECMG 0304/0306 VRB02KT 0600 MIFG NSC
                      BECMG 0309/0311 32004KT 1200 BR FU=
202001012300 TAF VIDP 012300Z 0200/0306 07005KT 0500 FG FEW035 SCT100
                      BECMG 0204/0206 09008KT 0800 MIFG SCT030
                       BKN090
                      BECMG 0208/0210 1200 HZ FU
                      BECMG 0218/0220 VRB02KT 0800 MIFG ...RA
                      BECMG 0221/0303 FEW040CB
                      BECMG 0300/0302 0300 FG
                      BECMG 0304/0305 04004KT 0600 MIFG FEW035=
202001011700 TAF VIDP 011700Z 0118/0224 VRB02KT 1200 BR SCT100
                      BECMG 0200/0202 07005KT 0400 FG
                      BECMG 0204/0206 09008KT 0800 MIFG SCT030
                       BKN090
                      BECMG 0208/0210 1200
                      BECMG 0218/0220 VRB02KT 0800 MIFG -RA=
202001011100 TAF VIDP 011100Z 0112/0218 09006KT 1200 FU FEW100
                      BECMG 0117/0119 0800 MIFG
                      BECMG 0123/0201 03003KT 0200 FG VV///
                      BECMG 0204/0206 09008KT 0700 MIFG FEW040
                       SCT100
                      BECMG 0209/0211 1200 FU
                      BECMG 0215/0217 05004KT 0800 MIFG SCT040
                       BKN100=
202001010500 TAF VIDP 010500Z 0106/0212 09006KT 1200 BR FU FEW100
                      BECMG 0108/0110 12008KT 2000 FU FEW035 SCT100
                       BECMG 0115/0117 15005KT 0800 MIFG
                      BECMG 0200/0202 0200 FG FEW100
                      BECMG 0203/0205 11005KT 0600 MIFG FEW035
                       SCT100
                      BECMG 0208/0210 14008KT 1500 FU SCT030 BKN090=
202001010200 TAF VIDP 010200Z 0100/0112 09003KT 0300 FG FEW100
                      BECMG 0104/0106 0600 MIFG SCT100
                      BECMG 0108/0110 13005KT 1200 BR=

