
##########################################################
# Query made at 07/09/2023 14:49:04 UTC
# Time interval: from 10/01/2020 00:00  to 10/31/2020 23:59  UTC
##########################################################

##########################################################
# VIDP, New Delhi / Palam (India)
# WMO index: 42181
# Latitude 28-34-00N. Longitude 077-07-00E. Altitude 225 m.
##########################################################

###################################
#  METAR/SPECI from VIDP
###################################
202010312330 METAR VIDP 312330Z 00000KT 1200 R28/P2000 R29/P2000 FU NSC 17/11 Q1014 NOSIG=
202010312300 METAR VIDP 312300Z 00000KT 1200 R28/P2000 R29/P2000 FU NSC 17/11 Q1014 NOSIG=
202010312230 METAR VIDP 312230Z 00000KT 1200 R28/P2000 R29/P2000 FU NSC 17/11 Q1013 NOSIG=
202010312200 METAR COR VIDP 312200Z 00000KT 1200 R28/P2000 R29/P2000 FU NSC 17/11 Q1014 NOSIG=
202010312130 METAR VIDP 312130Z 00000KT 1200 R28/2000 R29/2000 FU NSC 17/11 Q1013 NOSIG=
202010312100 METAR VIDP 312100Z 00000KT 1200 R28/2000 R29/2000 FU NSC 17/11 Q1013 NOSIG=
202010312030 METAR VIDP 312030Z 00000KT 1200 R28/2000 R29/2000 FU NSC 17/10 Q1014 NOSIG=
202010312000 METAR VIDP 312000Z 00000KT 1200 R28/2000 R29/2000 FU NSC 17/10 Q1014 NOSIG=
202010311930 METAR VIDP 311930Z 00000KT 1200 FU NSC 17/09 Q1014 NOSIG=
202010311900 METAR VIDP 311900Z 00000KT 1200 FU NSC 18/09 Q1014 NOSIG=
202010311830 METAR VIDP 311830Z 00000KT 1200 FU NSC 18/09 Q1014 NOSIG=
202010311730 METAR VIDP 311730Z 00000KT 2500 HZ NSC 19/09 Q1014 NOSIG=
202010311700 METAR VIDP 311700Z 00000KT 2800 HZ NSC 20/09 Q1014 NOSIG=
202010311630 METAR VIDP 311630Z 00000KT 2800 HZ NSC 21/09 Q1014 NOSIG=
202010311600 METAR VIDP 311600Z 00000KT 2800 HZ NSC 21/09 Q1014 NOSIG=
202010311530 METAR VIDP 311530Z 00000KT 2800 HZ NSC 22/09 Q1014 NOSIG=
202010311500 METAR VIDP 311500Z 27003KT 3000 HZ NSC 22/09 Q1014 NOSIG=
202010311430 METAR VIDP 311430Z 27004KT 3200 HZ NSC 23/09 Q1013 BECMG 3000 HZ=
202010311400 METAR VIDP 311400Z 27004KT 3200 HZ NSC 24/09 Q1013 NOSIG=
202010311330 METAR VIDP 311330Z 28004KT 3200 HZ NSC 24/09 Q1013 NOSIG=
202010311300 METAR VIDP 311300Z 27004KT 3200 HZ NSC 25/09 Q1012 NOSIG=
202010311230 METAR VIDP 311230Z 28005KT 3200 HZ NSC 26/08 Q1012 NOSIG=
202010311200 METAR VIDP 311200Z 29006KT 3200 HZ NSC 27/09 Q1012 NOSIG=
202010311130 METAR VIDP 311130Z 30008KT 3500 HZ NSC 28/09 Q1012 NOSIG=
202010311100 METAR VIDP 311100Z 30008KT 3500 HZ NSC 29/09 Q1012 NOSIG=
202010311030 METAR VIDP 311030Z 30008KT 3500 HZ NSC 30/09 Q1012 NOSIG=
202010311000 METAR VIDP 311000Z 31009KT 3500 HZ NSC 30/09 Q1012 NOSIG=
202010310930 METAR VIDP 310930Z 30009KT 3000 HZ NSC 30/10 Q1012 NOSIG=
202010310900 METAR VIDP 310900Z 29009KT 2500 HZ NSC 30/10 Q1013 BECMG 3000 HZ=
202010310830 METAR VIDP 310830Z 30009KT 2200 HZ NSC 29/10 Q1013 NOSIG=
202010310800 METAR VIDP 310800Z 28008KT 1800 R28/2000 R29/2000 FU NSC 29/12 Q1014 NOSIG=
202010310730 METAR VIDP 310730Z 32008KT 1500 R28/2000 R29/2000 FU NSC 29/12 Q1014 NOSIG=
202010310700 METAR VIDP 310700Z 29008KT 1300 R28/2000 R29/2000 FU NSC 28/14 Q1014 BECMG VIS 1500 FU=
202010310630 METAR VIDP 310630Z 28008KT 1200 R28/2000 R29/2000 FU NSC 26/14 Q1015 NOSIG=
202010310600 METAR VIDP 310600Z 29008KT 1200 R28/2000 R29/2000 FU NSC 24/14 Q1015 NOSIG=
202010310530 METAR VIDP 310530Z 29007KT 1100 R28/1700 R29/1900 FU NSC 22/14 Q1016 NOSIG=
202010310500 METAR VIDP 310500Z 27006KT 1000 R28/1300 R29/1600 FU NSC 20/13 Q1016 NOSIG=
202010310430 METAR VIDP 310430Z 27007KT 0900 R28/1200 R29/1400 FU NSC 19/13 Q1016 NOSIG=
202010310400 METAR COR VIDP 310400Z 27005KT 0800 R28/1100 R29/1300 FU NSC 19/13 Q1016 NOSIG=
202010310330 METAR VIDP 310330Z 26004KT 0700 R28/1100 R29/1200 MIFG NSC 18/14 Q1016 BECMG 0800 MIFG=
202010310300 METAR VIDP 310300Z 25004KT 0600 R28/0800 R29/0800 MIFG NSC 17/14 Q1015 NOSIG=
202010310230 METAR VIDP 310230Z 26004KT 0600 R28/1000 R29/1000 MIFG NSC 16/14 Q1015 NOSIG=
202010310200 METAR VIDP 310200Z 25004KT 0600 R28/1100 R29/1200 MIFG NSC 16/13 Q1015 NOSIG=
202010310130 METAR VIDP 310130Z 24003KT 0600 R28/1300 R29/1400 MIFG NSC 16/13 Q1014 NOSIG=
202010310100 METAR VIDP 310100Z 24003KT 0700 R28/1600 R29/1500 MIFG NSC 16/13 Q1014 TEMPO 0600 MIFG=
202010310030 METAR VIDP 310030Z 00000KT 0800 R28/2000 R29/2000 MIFG NSC 17/13 Q1014 NOSIG=
202010310000 METAR VIDP 310000Z 00000KT 0800 R28/2000 R29/2000 MIFG NSC 17/13 Q1014 NOSIG=
202010302330 METAR VIDP 302330Z 00000KT 0800 R28/2000 R29/2000 MIFG NSC 17/13 Q1013 NOSIG=
202010302300 METAR VIDP 302300Z 00000KT 1000 R28/2000 R29/2000 BR NSC 17/13 Q1013 BECMG 0800 MIFG=
202010302230 METAR VIDP 302230Z 00000KT 1200 R28/2000 R29/2000 FU NSC 18/12 Q1013 NOSIG=
202010302200 METAR VIDP 302200Z 00000KT 1200 R28/2000 R29/2000 FU NSC 18/12 Q1014 NOSIG=
202010302130 METAR VIDP 302130Z 00000KT 1200 R28/2000 R29/2000 FU NSC 18/12 Q1014 NOSIG=
202010302100 METAR VIDP 302100Z 00000KT 1200 R28/2000 R29/2000 FU NSC 18/12 Q1014 NOSIG=
202010302030 METAR VIDP 302030Z 00000KT 1200 R28/2000 R29/2000 FU NSC 19/12 Q1014 NOSIG=
202010302000 METAR VIDP 302000Z 00000KT 1200 R28/2000 R29/2000 FU NSC 19/12 Q1014 NOSIG=
202010301930 METAR VIDP 301930Z 00000KT 1200 R28/2000 R29/2000 FU NSC 20/12 Q1014 NOSIG=
202010301900 METAR VIDP 301900Z 00000KT 1500 R28/P2000 R29/P2000 FU NSC 20/12 Q1014 NOSIG=
202010301830 METAR VIDP 301830Z 25004KT 1500 R28/P2000 R29/P2000 FU NSC 21/12 Q1014 NOSIG=
202010301800 METAR VIDP 301800Z 25004KT 1500 R28/P2000 R29/P2000 FU NSC 21/11 Q1014 NOSIG=
202010301730 METAR VIDP 301730Z 26004KT 1600 R28/P2000 R29/P2000 FU NSC 22/12 Q1014 BECMG 1500 FU=
202010301700 METAR VIDP 301700Z 29004KT 1800 R28/P2000 R29/P2000 FU NSC 23/13 Q1014 NOSIG=
202010301630 METAR VIDP 301630Z 29004KT 2200 FU NSC 23/13 Q1014 NOSIG=
202010301600 METAR VIDP 301600Z 00000KT 2200 FU NSC 23/13 Q1013 NOSIG=
202010301530 METAR VIDP 301530Z 00000KT 2200 FU NSC 24/13 Q1013 NOSIG=
202010301500 METAR VIDP 301500Z 00000KT 2200 FU NSC 25/13 Q1013 NOSIG=
202010301430 METAR VIDP 301430Z 00000KT 2200 FU NSC 25/12 Q1013 NOSIG=
202010301400 METAR VIDP 301400Z 00000KT 2500 FU NSC 26/12 Q1013 NOSIG=
202010301330 METAR VIDP 301330Z 28003KT 2500 FU NSC 26/11 Q1013 NOSIG=
202010301300 METAR VIDP 301300Z 29003KT 2500 HZ NSC 27/11 Q1012 NOSIG=
202010301230 METAR VIDP 301230Z 31004KT 2500 HZ NSC 27/10 Q1012 NOSIG=
202010301200 METAR VIDP 301200Z 32005KT 2500 HZ NSC 28/09 Q1012 NOSIG=
202010301130 METAR VIDP 301130Z 31006KT 2500 HZ NSC 29/09 Q1012 NOSIG=
202010301100 METAR VIDP 301100Z 31006KT 2500 HZ NSC 30/09 Q1012 NOSIG=
202010301030 METAR VIDP 301030Z 31007KT 2500 HZ NSC 30/09 Q1012 NOSIG=
202010301000 METAR VIDP 301000Z 33006KT 2500 HZ NSC 30/09 Q1012 NOSIG=
202010300930 METAR VIDP 300930Z 32007KT 2500 HZ NSC 30/09 Q1012 NOSIG=
202010300900 METAR VIDP 300900Z 29008KT 2200 HZ NSC 30/09 Q1013 NOSIG=
202010300830 METAR VIDP 300830Z 32006KT 2000 FU NSC 30/09 Q1013 NOSIG=
202010300800 METAR VIDP 300800Z 31006KT 1800 R28/P2000 R29/P2000 FU NSC 30/09 Q1013 NOSIG=
202010300730 METAR VIDP 300730Z 30006KT 1500 R28/P2000 R29/P2000 FU NSC 29/09 Q1014 NOSIG=
202010300700 METAR COR VIDP 300700Z 30006KT 1500 R28/P2000 R29/P2000 FU NSC 28/10 Q1014 NOSIG=
202010300630 METAR VIDP 300630Z 30005KT 1200 R28/P2000 R29/P2000 FU NSC 27/10 Q1015 BECMG 1500 FU=
202010300600 METAR VIDP 300600Z 29003KT 1200 R28/P2000 R29/P2000 FU NSC 26/11 Q1015 NOSIG=
202010300530 METAR VIDP 300530Z 28003KT 1000 R28/P2000 R29/P2000 FU NSC 24/11 Q1016 NOSIG=
202010300500 METAR VIDP 300500Z 00000KT 1000 R28/P2000 R29/P2000 FU NSC 23/11 Q1016 NOSIG=
202010300430 METAR VIDP 300430Z 25003KT 0800 R28/1600 R29/P2000 FU NSC 22/11 Q1016 NOSIG=
202010300400 METAR VIDP 300400Z 24003KT 0800 R28/1500 R29/1800 FU NSC 20/11 Q1016 NOSIG=
202010300330 METAR VIDP 300330Z 25003KT 0800 R28/1600 R29/1800 FU NSC 19/11 Q1016 NOSIG=
202010300300 METAR VIDP 300300Z 25003KT 1000 R28/1600 R29/P2000 FU NSC 18/12 Q1016 BECMG 0800 FU=
202010300230 METAR VIDP 300230Z 24003KT 1100 R28/1700 R29/1600 BR NSC 16/12 Q1015 NOSIG=
202010300200 METAR VIDP 300200Z 00000KT 1100 R28/1900 R29/1600 BR NSC 16/12 Q1015 NOSIG=
202010300130 METAR VIDP 300130Z 24003KT 1200 R28/P2000 R29/P2000 BR NSC 15/11 Q1015 NOSIG=
202010300100 METAR VIDP 300100Z 00000KT 1200 R28/P2000 R29/P2000 BR NSC 15/11 Q1014 NOSIG=
202010300030 METAR VIDP 300030Z 00000KT 1300 R28/P2000 R29/P2000 BR NSC 15/12 Q1014 NOSIG=
202010300000 METAR VIDP 300000Z 25003KT 1300 R28/P2000 R29/P2000 BR NSC 16/12 Q1014 NOSIG=
202010292330 METAR VIDP 292330Z 25004KT 1300 R28/P2000 R29/P2000 BR NSC 16/13 Q1014 NOSIG=
202010292300 METAR VIDP 292300Z 28004KT 1500 R28/P2000 R29/P2000 BR NSC 16/13 Q1014 NOSIG=
202010292230 METAR VIDP 292230Z 27003KT 1600 R28/P2000 R29/P2000 BR NSC 16/13 Q1014 BECMG 1500 BR=
202010292200 METAR VIDP 292200Z 00000KT 1600 R28/P2000 R29/P2000 BR NSC 16/13 Q1014 NOSIG=
202010292130 METAR VIDP 292130Z 00000KT 1600 R28/P2000 R29/P2000 BR NSC 16/13 Q1014 NOSIG=
202010292100 METAR VIDP 292100Z 00000KT 1600 R28/P2000 R29/P2000 BR NSC 17/13 Q1014 NOSIG=
202010292030 METAR VIDP 292030Z 00000KT 1600 R28/P2000 R29/P2000 BR NSC 17/13 Q1014 NOSIG=
202010292000 METAR VIDP 292000Z 00000KT 1600 R28/2000 R29/2000 BR NSC 17/13 Q1014 NOSIG=
202010291930 METAR VIDP 291930Z 00000KT 1600 R28/2000 R29/2000 BR NSC 17/13 Q1014 NOSIG=
202010291900 METAR VIDP 291900Z 00000KT 1600 R28/P2000 R29/P2000 FU NSC 18/13 Q1014 NOSIG=
202010291830 METAR VIDP 291830Z 00000KT 1600 R28/2000 R29/2000 FU NSC 18/13 Q1015 NOSIG=
202010291800 METAR VIDP 291800Z 00000KT 1600 R28/2000 R29/2000 FU NSC 18/13 Q1015 NOSIG=
202010291730 METAR VIDP 291730Z 00000KT 1600 R28/P2000 R29/P2000 FU NSC 18/12 Q1015 NOSIG=
202010291700 METAR VIDP 291700Z 00000KT 1600 R28/P2000 R29/P2000 FU NSC 19/12 Q1014 NOSIG=
202010291630 METAR VIDP 291630Z 00000KT 1600 R28/P2000 R29/P2000 FU NSC 19/12 Q1014 NOSIG=
202010291600 METAR VIDP 291600Z 00000KT 1600 R28/P2000 R29/P2000 FU NSC 20/12 Q1014 NOSIG=
202010291530 METAR VIDP 291530Z 00000KT 1800 R28/P2000 R29/P2000 FU NSC 21/12 Q1014 NOSIG=
202010291500 METAR VIDP 291500Z 00000KT 1800 R28/P2000 R29/P2000 FU NSC 22/11 Q1014 NOSIG=
202010291430 METAR VIDP 291430Z 00000KT 1800 R28/P2000 R29/P2000 FU NSC 22/11 Q1014 NOSIG=
202010291400 METAR VIDP 291400Z 00000KT 1800 R28/2000 R29/2000 FU NSC 23/11 Q1014 NOSIG=
202010291330 METAR VIDP 291330Z 00000KT 1800 R28/2000 R29/2000 FU NSC 24/11 Q1013 NOSIG=
202010291300 METAR VIDP 291300Z 00000KT 1800 R28/2000 R29/2000 FU NSC 26/10 Q1013 NOSIG=
202010291230 METAR VIDP 291230Z 00000KT 1800 R28/2000 R29/2000 FU NSC 27/10 Q1013 NOSIG=
202010291200 METAR VIDP 291200Z 00000KT 1800 R28/2000 R29/2000 FU NSC 28/09 Q1013 NOSIG=
202010291130 METAR VIDP 291130Z 00000KT 1800 R28/2000 R29/2000 FU NSC 29/09 Q1013 NOSIG=
202010291100 METAR VIDP 291100Z 00000KT 1800 R28/2000 R29/2000 FU NSC 29/09 Q1013 NOSIG=
202010291030 METAR VIDP 291030Z 00000KT 1800 R28/2000 R29/2000 FU NSC 29/08 Q1013 NOSIG=
202010291000 METAR VIDP 291000Z 00000KT 1800 R28/2000 R29/2000 FU NSC 30/08 Q1013 NOSIG=
202010290930 METAR COR VIDP 290930Z 31004KT 1800 R28/2000 R29/2000 FU NSC 30/08 Q1013 NOSIG=
202010290900 METAR VIDP 290900Z 27003KT 1500 R28/2000 R29/2000 FU NSC 30/08 Q1013 NOSIG=
202010290830 METAR VIDP 290830Z 30003KT 1500 R28/2000 R29/2000 FU NSC 29/08 Q1014 NOSIG=
202010290800 METAR VIDP 290800Z 31003KT 1400 R28/2000 R29/2000 FU NSC 29/08 Q1014 BECMG 1500 FU=
202010290730 METAR VIDP 290730Z 31004KT 1200 R28/2000 R29/2000 FU NSC 28/09 Q1014 NOSIG=
202010290700 METAR VIDP 290700Z 32003KT 1200 R28/2000 R29/2000 FU NSC 28/10 Q1015 NOSIG=
202010290630 METAR VIDP 290630Z VRB02KT 1000 R28/2000 R29/2000 FU NSC 28/10 Q1016 NOSIG=
202010290600 METAR VIDP 290600Z 00000KT 1000 R28/2000 R29/2000 FU NSC 27/10 Q1016 NOSIG=
202010290530 METAR VIDP 290530Z 00000KT 0800 R28/2000 R29/2000 FU NSC 26/10 Q1016 NOSIG=
202010290500 METAR VIDP 290500Z 00000KT 0800 R28/1500 R29/2000 FU NSC 25/11 Q1017 NOSIG=
202010290430 METAR VIDP 290430Z 00000KT 0800 R28/1500 R29/2000 FU NSC 23/12 Q1017 NOSIG=
202010290400 METAR VIDP 290400Z 00000KT 0800 R28/1400 R29/2000 FU NSC 21/12 Q1017 NOSIG=
202010290330 METAR VIDP 290330Z 00000KT 0800 R28/1400 R29/2000 FU NSC 19/12 Q1016 NOSIG=
202010290300 METAR VIDP 290300Z 00000KT 0800 R28/1500 R29/2000 FU NSC 17/12 Q1016 NOSIG=
202010290230 METAR VIDP 290230Z 00000KT 1000 R28/1500 R29/1500 FU NSC 17/12 Q1015 BECMG 0800 FU=
202010290200 METAR VIDP 290200Z 00000KT 1000 R28/1500 R29/1100 BR NSC 15/12 Q1015 NOSIG=
202010290130 METAR VIDP 290130Z 00000KT 1000 R28/1800 R29/1200 BR NSC 15/13 Q1015 NOSIG=
202010290100 METAR VIDP 290100Z 00000KT 1200 R28/P2000 R29/P2000 BR NSC 15/13 Q1014 NOSIG=
202010290030 METAR VIDP 290030Z 00000KT 1500 R28/P2000 R29/P2000 BR NSC 15/12 Q1014 NOSIG=
202010290000 METAR VIDP 290000Z 00000KT 1500 R28/P2000 R29/P2000 BR NSC 15/12 Q1014 NOSIG=
202010282330 METAR VIDP 282330Z 00000KT 1500 R28/P2000 R29/P2000 BR NSC 16/12 Q1013 NOSIG=
202010282300 METAR VIDP 282300Z 00000KT 1800 R28/P2000 R29/P2000 BR NSC 16/12 Q1013 NOSIG=
202010282230 METAR VIDP 282230Z 00000KT 1800 R28/P2000 R29/P2000 BR NSC 16/12 Q1013 NOSIG=
202010282200 METAR VIDP 282200Z 00000KT 1800 R28/P2000 R29/P2000 BR NSC 16/12 Q1013 NOSIG=
202010282130 METAR VIDP 282130Z 00000KT 1800 R28/P2000 R29/P2000 BR NSC 16/12 Q1013 NOSIG=
202010282100 METAR VIDP 282100Z 00000KT 1800 R28/P2000 R29/P2000 BR NSC 16/12 Q1013 NOSIG=
202010282030 METAR VIDP 282030Z 00000KT 2200 FU NSC 17/11 Q1013 NOSIG=
202010282000 METAR VIDP 282000Z 00000KT 2200 FU NSC 18/11 Q1013 NOSIG=
202010281930 METAR VIDP 281930Z 00000KT 2200 FU NSC 19/11 Q1013 NOSIG=
202010281900 METAR VIDP 281900Z 00000KT 2200 FU NSC 19/11 Q1013 NOSIG=
202010281830 METAR VIDP 281830Z 00000KT 2200 FU NSC 19/11 Q1013 NOSIG=
202010281800 METAR VIDP 281800Z 00000KT 2200 FU NSC 20/11 Q1014 NOSIG=
202010281730 METAR VIDP 281730Z 00000KT 2200 FU NSC 21/10 Q1014 NOSIG=
202010281700 METAR VIDP 281700Z 00000KT 2200 FU NSC 22/12 Q1014 NOSIG=
202010281630 METAR VIDP 281630Z 00000KT 2200 FU NSC 22/12 Q1014 NOSIG=
202010281600 METAR VIDP 281600Z 00000KT 2200 FU NSC 22/12 Q1014 NOSIG=
202010281530 METAR VIDP 281530Z 00000KT 2200 FU NSC 22/11 Q1014 NOSIG=
202010281500 METAR VIDP 281500Z 00000KT 2200 FU NSC 23/11 Q1013 NOSIG=
202010281430 METAR VIDP 281430Z 00000KT 2200 FU NSC 23/10 Q1013 NOSIG=
202010281400 METAR VIDP 281400Z 00000KT 2200 FU NSC 23/10 Q1013 NOSIG=
202010281330 METAR VIDP 281330Z 00000KT 2200 FU NSC 24/10 Q1013 NOSIG=
202010281300 METAR VIDP 281300Z 00000KT 2200 FU NSC 25/10 Q1012 NOSIG=
202010281230 METAR VIDP 281230Z 00000KT 2200 FU NSC 27/09 Q1012 NOSIG=
202010281200 METAR VIDP 281200Z 00000KT 2200 FU NSC 28/09 Q1012 NOSIG=
202010281130 METAR VIDP 281130Z 00000KT 2200 FU NSC 29/09 Q1012 NOSIG=
202010281100 METAR VIDP 281100Z 29004KT 2200 FU NSC 30/08 Q1012 NOSIG=
202010281030 METAR VIDP 281030Z 31003KT 2200 FU NSC 30/07 Q1012 NOSIG=
202010281000 METAR VIDP 281000Z 30003KT 2200 FU NSC 30/06 Q1012 NOSIG=
202010280930 METAR VIDP 280930Z 30004KT 2200 FU NSC 30/06 Q1012 NOSIG=
202010280900 METAR VIDP 280900Z 27004KT 2200 FU NSC 30/06 Q1012 NOSIG=
202010280830 METAR VIDP 280830Z 29004KT 2200 FU NSC 30/07 Q1013 NOSIG=
202010280800 METAR VIDP 280800Z 28004KT 2200 FU NSC 29/08 Q1013 NOSIG=
202010280730 METAR VIDP 280730Z 29004KT 2200 FU NSC 29/08 Q1013 NOSIG=
202010280700 METAR VIDP 280700Z 32004KT 1800 R28/P2000 R29/P2000 FU NSC 28/08 Q1014 NOSIG=
202010280630 METAR VIDP 280630Z 28004KT 1800 R28/P2000 R29/P2000 FU NSC 27/09 Q1014 NOSIG=
202010280600 METAR VIDP 280600Z 25003KT 1700 R28/P2000 R29/P2000 FU NSC 26/09 Q1015 NOSIG=
202010280530 METAR VIDP 280530Z 26003KT 1600 R28/P2000 R29/P2000 FU NSC 25/09 Q1015 NOSIG=
202010280500 METAR VIDP 280500Z 25004KT 1600 R28/P2000 R29/P2000 FU NSC 24/09 Q1016 NOSIG=
202010280430 METAR VIDP 280430Z 26004KT 1500 R28/P2000 R29/P2000 FU NSC 22/09 Q1016 NOSIG=
202010280400 METAR VIDP 280400Z 25004KT 1500 R28/P2000 R29/P2000 FU NSC 21/10 Q1016 NOSIG=
202010280330 METAR VIDP 280330Z 27004KT 1500 R28/P2000 R29/P2000 FU NSC 20/11 Q1015 NOSIG=
202010280300 METAR VIDP 280300Z 00000KT 1500 R28/P2000 R29/P2000 FU NSC 18/12 Q1015 NOSIG=
202010280230 METAR VIDP 280230Z 00000KT 1500 R28/P2000 R29/P2000 FU NSC 17/12 Q1015 NOSIG=
202010280200 METAR VIDP 280200Z 00000KT 1500 R28/P2000 R29/P2000 BR NSC 15/12 Q1014 NOSIG=
202010280130 METAR VIDP 280130Z 00000KT 1500 R28/P2000 R29/P2000 BR NSC 16/12 Q1014 NOSIG=
202010280100 METAR VIDP 280100Z 00000KT 1500 R28/P2000 R29/P2000 BR NSC 16/12 Q1013 NOSIG=
202010280030 METAR VIDP 280030Z 00000KT 1500 R28/P2000 R29/P2000 BR NSC 16/12 Q1013 NOSIG=
202010280000 METAR VIDP 280000Z 00000KT 1500 R28/P2000 R29/P2000 BR NSC 16/12 Q1013 NOSIG=
202010272330 METAR COR VIDP 272330Z 00000KT 1500 R28/P2000 R29/P2000 FU NSC 17/11 Q1012 NOSIG=
202010272300 METAR VIDP 272300Z 00000KT 1500 R28/P2000 R29/P2000 FU NSC 17/11 Q1012 NOSIG=
202010272230 METAR VIDP 272230Z 00000KT 1600 R28/P2000 R29/P2000 FU NSC 17/11 Q1012 BECMG 1500 FU=
202010272200 METAR VIDP 272200Z 00000KT 1600 R28/P2000 R29/P2000 FU NSC 17/11 Q1012 NOSIG=
202010272130 METAR VIDP 272130Z 00000KT 1600 R28/P2000 R29/P2000 FU NSC 17/11 Q1012 NOSIG=
202010272100 METAR VIDP 272100Z 00000KT 1600 R28/P2000 R29/P2000 FU NSC 18/12 Q1012 NOSIG=
202010272030 METAR VIDP 272030Z 00000KT 1800 R28/P2000 R29/P2000 FU NSC 18/12 Q1012 NOSIG=
202010272000 METAR VIDP 272000Z 00000KT 1800 R28/P2000 R29/P2000 FU NSC 19/12 Q1013 NOSIG=
202010271930 METAR VIDP 271930Z 00000KT 2200 FU NSC 19/12 Q1013 NOSIG=
202010271900 METAR VIDP 271900Z 00000KT 2200 FU NSC 19/12 Q1013 NOSIG=
202010271830 METAR VIDP 271830Z 00000KT 2200 FU NSC 20/13 Q1013 NOSIG=
202010271800 METAR VIDP 271800Z 00000KT 2200 FU NSC 20/14 Q1013 NOSIG=
202010271730 METAR VIDP 271730Z 00000KT 2500 FU NSC 21/15 Q1013 NOSIG=
202010271700 METAR VIDP 271700Z 00000KT 2500 FU NSC 21/15 Q1013 NOSIG=
202010271630 METAR VIDP 271630Z 00000KT 2500 FU NSC 22/15 Q1013 NOSIG=
202010271600 METAR VIDP 271600Z 00000KT 2500 FU NSC 22/15 Q1013 NOSIG=
202010271530 METAR VIDP 271530Z 00000KT 3000 HZ NSC 22/15 Q1013 NOSIG=
202010271500 METAR VIDP 271500Z 00000KT 3200 HZ NSC 22/15 Q1013 BECMG 3000 HZ=
202010271430 METAR VIDP 271430Z 00000KT 3500 HZ NSC 23/14 Q1013 NOSIG=
202010271400 METAR VIDP 271400Z 00000KT 3500 HZ NSC 25/12 Q1013 NOSIG=
202010271330 METAR VIDP 271330Z 00000KT 3500 HZ NSC 26/12 Q1013 NOSIG=
202010271300 METAR VIDP 271300Z 00000KT 3500 HZ NSC 27/11 Q1012 NOSIG=
202010271230 METAR VIDP 271230Z 27003KT 3500 HZ NSC 28/10 Q1012 NOSIG=
202010271200 METAR VIDP 271200Z 28004KT 3500 HZ NSC 29/09 Q1012 NOSIG=
202010271130 METAR VIDP 271130Z 28005KT 3500 HZ NSC 30/09 Q1012 NOSIG=
202010271100 METAR VIDP 271100Z 29006KT 2800 HZ NSC 31/08 Q1012 BECMG 3000 HZ=
202010271030 METAR VIDP 271030Z 30006KT 2800 HZ NSC 31/08 Q1011 NOSIG=
202010271000 METAR VIDP 271000Z 29007KT 2800 HZ NSC 31/08 Q1012 NOSIG=
202010270930 METAR VIDP 270930Z 30007KT 2500 HZ NSC 31/09 Q1012 NOSIG=
202010270900 METAR VIDP 270900Z 31006KT 2500 HZ NSC 31/09 Q1012 NOSIG=
202010270830 METAR VIDP 270830Z 30006KT 2500 HZ NSC 31/09 Q1012 NOSIG=
202010270800 METAR VIDP 270800Z 29006KT 2200 FU NSC 30/09 Q1012 NOSIG=
202010270730 METAR VIDP 270730Z 30006KT 2200 FU NSC 29/09 Q1012 NOSIG=
202010270700 METAR VIDP 270700Z 30005KT 2200 FU NSC 28/09 Q1013 NOSIG=
202010270630 METAR VIDP 270630Z 31005KT 2200 FU NSC 27/10 Q1014 NOSIG=
202010270600 METAR VIDP 270600Z 30005KT 2000 FU NSC 26/11 Q1014 NOSIG=
202010270530 METAR VIDP 270530Z 29005KT 1600 R28/P2000 R29/P2000 FU NSC 25/11 Q1014 NOSIG=
202010270500 METAR VIDP 270500Z 28005KT 1400 R28/P2000 R29/P2000 FU NSC 24/11 Q1014 BECMG 1500 FU=
202010270430 METAR VIDP 270430Z 25004KT 1300 R28/P2000 R29/P2000 FU NSC 22/11 Q1014 NOSIG=
202010270400 METAR VIDP 270400Z 26005KT 1200 R28/P2000 R29/P2000 FU NSC 22/11 Q1014 NOSIG=
202010270330 METAR VIDP 270330Z 26005KT 1200 R28/P2000 R29/P2000 FU NSC 21/11 Q1014 NOSIG=
202010270300 METAR VIDP 270300Z 26004KT 1200 R28/P2000 R29/P2000 FU NSC 20/11 Q1014 NOSIG=
202010270230 METAR VIDP 270230Z 26003KT 1200 R28/2000 R29/2000 FU NSC 19/11 Q1014 NOSIG=
202010270200 METAR VIDP 270200Z 25004KT 1200 R28/2000 R29/1900 FU NSC 18/11 Q1013 NOSIG=
202010270130 METAR VIDP 270130Z 25003KT 1200 R28/2000 R29/2000 FU NSC 18/11 Q1013 NOSIG=
202010270100 METAR VIDP 270100Z 25004KT 1500 R28/P2000 R29/P2000 FU NSC 18/12 Q1012 NOSIG=
202010270030 METAR VIDP 270030Z 28004KT 1800 R28/P2000 R29/P2000 FU NSC 18/12 Q1012 BECMG 1500 FU=
202010270000 METAR VIDP 270000Z 27004KT 2200 HZ NSC 18/12 Q1012 NOSIG=
202010262330 METAR VIDP 262330Z 28004KT 2200 HZ NSC 18/12 Q1012 NOSIG=
202010262300 METAR VIDP 262300Z 27004KT 2200 HZ NSC 19/12 Q1011 NOSIG=
202010262230 METAR VIDP 262230Z 28003KT 2200 HZ NSC 19/12 Q1011 NOSIG=
202010262200 METAR VIDP 262200Z 26003KT 2200 HZ NSC 19/11 Q1011 NOSIG=
202010262130 METAR VIDP 262130Z 27003KT 2500 HZ NSC 20/10 Q1012 NOSIG=
202010262100 METAR VIDP 262100Z 27004KT 2500 HZ NSC 20/10 Q1012 NOSIG=
202010262030 METAR VIDP 262030Z 22004KT 2500 HZ NSC 21/10 Q1012 NOSIG=
202010262000 METAR VIDP 262000Z 00000KT 2500 HZ NSC 21/10 Q1012 NOSIG=
202010261930 METAR VIDP 261930Z 30004KT 2500 HZ NSC 21/10 Q1012 NOSIG=
202010261900 METAR VIDP 261900Z 00000KT 2500 HZ NSC 21/10 Q1012 NOSIG=
202010261830 METAR VIDP 261830Z 31004KT 2500 HZ NSC 21/10 Q1012 NOSIG=
202010261800 METAR VIDP 261800Z 33003KT 2500 HZ NSC 21/10 Q1012 NOSIG=
202010261730 METAR VIDP 261730Z 18004KT 2500 HZ NSC 21/10 Q1012 NOSIG=
202010261700 METAR VIDP 261700Z 28003KT 2500 HZ NSC 21/10 Q1013 NOSIG=
202010261630 METAR VIDP 261630Z 21004KT 2500 HZ NSC 22/10 Q1013 NOSIG=
202010261600 METAR VIDP 261600Z 00000KT 2500 HZ NSC 23/10 Q1013 NOSIG=
202010261530 METAR VIDP 261530Z 00000KT 2500 HZ NSC 24/10 Q1013 NOSIG=
202010261500 METAR VIDP 261500Z 33003KT 2500 HZ NSC 25/10 Q1013 NOSIG=
202010261430 METAR VIDP 261430Z 32004KT 3000 HZ NSC 26/10 Q1013 NOSIG=
202010261400 METAR VIDP 261400Z 33003KT 3000 HZ NSC 27/11 Q1012 NOSIG=
202010261330 METAR VIDP 261330Z 32003KT 3000 HZ NSC 27/11 Q1012 NOSIG=
202010261300 METAR VIDP 261300Z 32004KT 3000 FU NSC 28/10 Q1012 NOSIG=
202010261230 METAR VIDP 261230Z 35004KT 3000 FU NSC 29/10 Q1012 NOSIG=
202010261200 METAR VIDP 261200Z 33004KT 3000 FU NSC 30/09 Q1012 NOSIG=
202010261130 METAR VIDP 261130Z 34004KT 2800 FU NSC 31/10 Q1011 BECMG 3000 FU=
202010261100 METAR VIDP 261100Z 33005KT 2500 FU NSC 31/10 Q1011 NOSIG=
202010261030 METAR VIDP 261030Z 33005KT 2500 FU FEW100 31/10 Q1011 NOSIG=
202010261000 METAR VIDP 261000Z 33005KT 2500 FU FEW100 32/10 Q1012 NOSIG=
202010260930 METAR VIDP 260930Z 30004KT 2200 FU FEW100 32/11 Q1012 NOSIG=
202010260900 METAR VIDP 260900Z 32005KT 1800 R28/P2000 R29/P2000 FU FEW100 32/11 Q1012 NOSIG=
202010260830 METAR VIDP 260830Z 30004KT 1800 R28/P2000 R29/P2000 FU SCT100 32/12 Q1012 NOSIG=
202010260800 METAR VIDP 260800Z 29004KT 1600 R28/P2000 R29/P2000 FU SCT100 31/13 Q1013 NOSIG=
202010260730 METAR VIDP 260730Z 31004KT 1600 R28/P2000 R29/P2000 FU SCT100 31/13 Q1013 NOSIG=
202010260700 METAR VIDP 260700Z 30003KT 1400 R28/P2000 R29/P2000 FU SCT100 30/14 Q1014 BECMG 1500 FU=
202010260630 METAR VIDP 260630Z 25003KT 1200 R28/P2000 R29/P2000 FU SCT100 29/14 Q1014 NOSIG=
202010260600 METAR VIDP 260600Z 24004KT 1200 R28/P2000 R29/P2000 FU SCT100 29/14 Q1014 NOSIG=
202010260530 METAR VIDP 260530Z 00000KT 1200 R28/P2000 R29/P2000 FU SCT100 27/15 Q1015 NOSIG=
202010260500 METAR VIDP 260500Z 00000KT 1200 R28/P2000 R29/P2000 FU SCT040 BKN100 26/15 Q1015 NOSIG=
202010260430 METAR VIDP 260430Z 30003KT 1200 R28/P2000 R29/P2000 FU SCT040 BKN100 25/15 Q1015 NOSIG=
202010260400 METAR VIDP 260400Z 32003KT 1200 R28/P2000 R29/P2000 FU SCT040 BKN100 23/14 Q1015 NOSIG=
202010260330 METAR VIDP 260330Z 31004KT 1200 R28/P2000 R29/P2000 FU SCT040 BKN100 23/14 Q1015 NOSIG=
202010260300 METAR VIDP 260300Z 00000KT 1500 R28/P2000 R29/P2000 FU SCT040 BKN100 21/14 Q1015 NOSIG=
202010260230 METAR VIDP 260230Z 00000KT 1500 R28/P2000 R29/P2000 FU FEW040 SCT100 21/12 Q1014 NOSIG=
202010260200 METAR VIDP 260200Z 00000KT 1500 R28/P2000 R29/P2000 FU FEW040 SCT100 19/13 Q1014 NOSIG=
202010260130 METAR VIDP 260130Z 00000KT 1500 R28/P2000 R29/P2000 FU FEW040 SCT100 19/13 Q1013 NOSIG=
202010260100 METAR VIDP 260100Z 00000KT 1800 R28/P2000 R29/P2000 FU FEW040 18/13 Q1013 BECMG 1500 FU=
202010260030 METAR VIDP 260030Z 00000KT 2200 HZ NSC 18/13 Q1012 NOSIG=
202010260000 METAR VIDP 260000Z 00000KT 2200 HZ NSC 18/12 Q1012 NOSIG=
202010252330 METAR VIDP 252330Z 00000KT 2200 HZ NSC 18/12 Q1012 NOSIG=
202010252300 METAR VIDP 252300Z 00000KT 2200 HZ NSC 18/12 Q1012 NOSIG=
202010252230 METAR VIDP 252230Z 00000KT 2200 HZ NSC 18/11 Q1012 NOSIG=
202010252200 METAR VIDP 252200Z 00000KT 2200 HZ NSC 18/11 Q1012 NOSIG=
202010252130 METAR VIDP 252130Z 00000KT 2200 HZ NSC 19/11 Q1012 NOSIG=
202010252100 METAR VIDP 252100Z 00000KT 2200 HZ NSC 19/11 Q1012 NOSIG=
202010252030 METAR VIDP 252030Z 00000KT 2200 HZ NSC 19/11 Q1012 NOSIG=
202010252000 METAR VIDP 252000Z 00000KT 2200 HZ NSC 20/11 Q1012 NOSIG=
202010251930 METAR VIDP 251930Z 00000KT 2200 HZ NSC 20/11 Q1012 NOSIG=
202010251900 METAR VIDP 251900Z 00000KT 2200 HZ NSC 20/12 Q1012 NOSIG=
202010251830 METAR VIDP 251830Z 00000KT 2200 HZ NSC 21/12 Q1012 NOSIG=
202010251800 METAR VIDP 251800Z 00000KT 2200 HZ NSC 21/12 Q1012 NOSIG=
202010251730 METAR VIDP 251730Z 00000KT 2200 HZ NSC 22/12 Q1012 NOSIG=
202010251700 METAR VIDP 251700Z 00000KT 2200 HZ NSC 22/12 Q1012 NOSIG=
202010251630 METAR VIDP 251630Z 00000KT 2200 HZ NSC 22/12 Q1012 NOSIG=
202010251600 METAR VIDP 251600Z 00000KT 2200 HZ NSC 22/12 Q1012 NOSIG=
202010251530 METAR VIDP 251530Z 00000KT 2200 HZ NSC 23/12 Q1012 NOSIG=
202010251500 METAR VIDP 251500Z 00000KT 2200 HZ NSC 24/12 Q1012 NOSIG=
202010251430 METAR VIDP 251430Z 00000KT 2200 HZ NSC 25/13 Q1012 NOSIG=
202010251400 METAR VIDP 251400Z 00000KT 1600 R28/P2000 R29/P2000 FU NSC 26/15 Q1011 NOSIG=
202010251330 METAR VIDP 251330Z 00000KT 1600 R28/P2000 R29/P2000 FU NSC 27/14 Q1011 NOSIG=
202010251300 METAR VIDP 251300Z 00000KT 1600 R28/P2000 R29/P2000 FU NSC 28/13 Q1011 NOSIG=
202010251230 METAR VIDP 251230Z 04004KT 1600 R28/P2000 R29/P2000 FU NSC 29/13 Q1010 NOSIG=
202010251200 METAR VIDP 251200Z 03004KT 1600 R28/P2000 R29/P2000 FU NSC 30/12 Q1010 NOSIG=
202010251130 METAR VIDP 251130Z 00000KT 1600 R28/P2000 R29/P2000 FU NSC 31/12 Q1010 NOSIG=
202010251100 METAR VIDP 251100Z 00000KT 1800 R28/P2000 R29/P2000 FU NSC 32/11 Q1010 NOSIG=
202010251030 METAR VIDP 251030Z 32003KT 1800 R28/P2000 R29/P2000 FU NSC 32/11 Q1010 NOSIG=
202010251000 METAR VIDP 251000Z 32003KT 1800 R28/P2000 R29/P2000 FU NSC 32/11 Q1010 NOSIG=
202010250930 METAR VIDP 250930Z 32004KT 1800 R28/P2000 R29/P2000 FU NSC 32/11 Q1010 NOSIG=
202010250900 METAR VIDP 250900Z 30004KT 1800 R28/P2000 R29/P2000 FU NSC 32/11 Q1010 NOSIG=
202010250830 METAR VIDP 250830Z 28003KT 1800 R28/P2000 R29/P2000 FU NSC 32/11 Q1011 NOSIG=
202010250800 METAR VIDP 250800Z 24004KT 1500 R28/P2000 R29/P2000 FU NSC 31/11 Q1011 NOSIG=
202010250730 METAR VIDP 250730Z 21004KT 1500 R28/P2000 R29/P2000 FU NSC 30/12 Q1012 NOSIG=
202010250700 METAR VIDP 250700Z 21003KT 1500 R28/P2000 R29/P2000 FU NSC 30/13 Q1012 NOSIG=
202010250630 METAR VIDP 250630Z 21003KT 1400 R28/2000 R29/2000 FU NSC 29/13 Q1012 BECMG 1500 FU=
202010250600 METAR VIDP 250600Z 20003KT 1200 R28/2000 R29/2000 FU NSC 28/13 Q1013 NOSIG=
202010250530 METAR VIDP 250530Z 20003KT 1200 R28/2000 R29/2000 FU NSC 27/13 Q1013 NOSIG=
202010250500 METAR VIDP 250500Z 21003KT 1200 R28/2000 R29/2000 FU NSC 25/14 Q1013 NOSIG=
202010250430 METAR VIDP 250430Z 00000KT 1200 R28/2000 R29/2000 FU NSC 23/13 Q1013 NOSIG=
202010250400 METAR VIDP 250400Z 26004KT 1200 R28/2000 R29/2000 FU NSC 22/13 Q1013 NOSIG=
202010250330 METAR VIDP 250330Z 23003KT 1200 R28/2000 R29/2000 FU NSC 20/14 Q1013 NOSIG=
202010250300 METAR VIDP 250300Z 00000KT 1200 R28/2000 R29/2000 BR NSC 19/15 Q1013 NOSIG=
202010250230 METAR VIDP 250230Z 00000KT 1200 R28/2000 R29/2000 BR NSC 18/14 Q1012 NOSIG=
202010250200 METAR VIDP 250200Z 00000KT 1400 R28/P2000 R29/P2000 BR NSC 17/13 Q1012 NOSIG=
202010250130 METAR VIDP 250130Z 00000KT 1500 R28/P2000 R29/P2000 BR NSC 17/13 Q1012 NOSIG=
202010250100 METAR VIDP 250100Z 00000KT 1800 R28/P2000 R29/P2000 BR NSC 17/13 Q1011 BECMG 1500 BR=
202010250030 METAR VIDP 250030Z 00000KT 2200 BR NSC 17/13 Q1011 NOSIG=
202010250000 METAR VIDP 250000Z 00000KT 2200 BR NSC 17/13 Q1010 NOSIG=
202010242330 METAR VIDP 242330Z 00000KT 2200 BR NSC 17/13 Q1010 NOSIG=
202010242300 METAR VIDP 242300Z 00000KT 2500 HZ NSC 18/13 Q1010 NOSIG=
202010242230 METAR VIDP 242230Z 00000KT 2500 HZ NSC 18/13 Q1010 NOSIG=
202010242200 METAR VIDP 242200Z 00000KT 2500 HZ NSC 19/13 Q1010 NOSIG=
202010242130 METAR VIDP 242130Z 00000KT 2500 HZ NSC 19/13 Q1010 NOSIG=
202010242100 METAR VIDP 242100Z 00000KT 2500 HZ NSC 19/13 Q1010 NOSIG=
202010242030 METAR VIDP 242030Z 00000KT 2500 HZ NSC 19/13 Q1010 NOSIG=
202010242000 METAR VIDP 242000Z 00000KT 2500 HZ NSC 19/13 Q1011 NOSIG=
202010241930 METAR VIDP 241930Z 00000KT 2500 HZ NSC 19/13 Q1011 NOSIG=
202010241900 METAR VIDP 241900Z 00000KT 2500 HZ NSC 20/13 Q1011 NOSIG=
202010241830 METAR VIDP 241830Z 00000KT 2500 HZ NSC 20/13 Q1011 NOSIG=
202010241800 METAR VIDP 241800Z 00000KT 2500 HZ NSC 20/13 Q1011 NOSIG=
202010241730 METAR VIDP 241730Z 00000KT 2500 HZ NSC 21/12 Q1011 NOSIG=
202010241700 METAR VIDP 241700Z 00000KT 2500 HZ NSC 22/11 Q1011 NOSIG=
202010241630 METAR VIDP 241630Z 00000KT 2500 HZ NSC 22/11 Q1010 NOSIG=
202010241600 METAR VIDP 241600Z 00000KT 2500 HZ NSC 23/10 Q1010 NOSIG=
202010241530 METAR VIDP 241530Z 00000KT 2500 HZ NSC 24/09 Q1010 NOSIG=
202010241500 METAR VIDP 241500Z 00000KT 2500 HZ NSC 26/08 Q1010 NOSIG=
202010241430 METAR VIDP 241430Z 00000KT 2500 HZ NSC 26/06 Q1010 NOSIG=
202010241400 METAR VIDP 241400Z 00000KT 2500 HZ NSC 26/06 Q1009 NOSIG=
202010241330 METAR VIDP 241330Z 00000KT 2500 HZ NSC 26/06 Q1009 NOSIG=
202010241300 METAR VIDP 241300Z 30004KT 3000 HZ NSC 27/06 Q1009 NOSIG=
202010241230 METAR VIDP 241230Z 30004KT 3000 HZ NSC 28/06 Q1008 NOSIG=
202010241200 METAR VIDP 241200Z 31005KT 3000 HZ NSC 29/06 Q1008 NOSIG=
202010241130 METAR VIDP 241130Z 31005KT 3000 HZ NSC 30/06 Q1008 NOSIG=
202010241100 METAR VIDP 241100Z 29006KT 3000 HZ NSC 31/06 Q1008 NOSIG=
202010241030 METAR VIDP 241030Z 30008KT 3000 HZ NSC 31/06 Q1008 NOSIG=
202010241000 METAR VIDP 241000Z 30007KT 3000 HZ NSC 31/06 Q1008 NOSIG=
202010240930 METAR VIDP 240930Z 29006KT 3000 HZ NSC 32/07 Q1008 NOSIG=
202010240900 METAR VIDP 240900Z 29006KT 3000 HZ NSC 31/07 Q1008 NOSIG=
202010240830 METAR VIDP 240830Z 27007KT 3000 HZ NSC 31/08 Q1009 NOSIG=
202010240800 METAR VIDP 240800Z 27005KT 2800 HZ NSC 30/09 Q1009 BECMG 3000 HZ=
202010240730 METAR VIDP 240730Z 28005KT 2800 HZ NSC 29/10 Q1009 NOSIG=
202010240700 METAR VIDP 240700Z 29005KT 2500 HZ NSC 29/10 Q1009 NOSIG=
202010240630 METAR VIDP 240630Z 28005KT 2500 HZ NSC 28/11 Q1010 NOSIG=
202010240600 METAR VIDP 240600Z 25004KT 2500 HZ NSC 28/11 Q1010 NOSIG=
202010240530 METAR VIDP 240530Z 23004KT 2500 HZ NSC 27/11 Q1010 NOSIG=
202010240500 METAR VIDP 240500Z 24003KT 2200 HZ NSC 26/11 Q1010 NOSIG=
202010240430 METAR VIDP 240430Z 24003KT 1800 R28/P2000 R29/P2000 HZ NSC 24/11 Q1010 NOSIG=
202010240400 METAR VIDP 240400Z 00000KT 1500 R28/P2000 R29/P2000 HZ NSC 23/12 Q1010 NOSIG=
202010240330 METAR VIDP 240330Z 00000KT 1400 R28/P2000 R29/P2000 HZ NSC 22/12 Q1010 BECMG 1500 HZ=
202010240300 METAR VIDP 240300Z 00000KT 1400 R28/P2000 R29/P2000 HZ NSC 20/13 Q1010 NOSIG=
202010240230 METAR COR VIDP 240230Z 23003KT 1400 R28/P2000 R29/P2000 HZ NSC 19/13 Q1009 NOSIG=
202010240200 METAR VIDP 240200Z 26004KT 1200 R28/P2000 R29/P2000 BR NSC 18/14 Q1009 NOSIG=
202010240130 METAR VIDP 240130Z 26005KT 1300 R28/P2000 R29/1900 BR NSC 18/14 Q1009 NOSIG=
202010240100 METAR VIDP 240100Z 00000KT 1600 R28/P2000 R29/P2000 BR NSC 18/14 Q1008 BECMG 1500 BR=
202010240030 METAR VIDP 240030Z 00000KT 1800 R28/P2000 R29/P2000 BR NSC 18/14 Q1008 NOSIG=
202010240000 METAR VIDP 240000Z 00000KT 1800 R28/P2000 R29/P2000 FU NSC 18/13 Q1008 NOSIG=
202010232330 METAR VIDP 232330Z 00000KT 1800 R28/P2000 R29/P2000 FU NSC 19/13 Q1008 NOSIG=
202010232300 METAR VIDP 232300Z 00000KT 2200 FU NSC 19/12 Q1008 NOSIG=
202010232230 METAR VIDP 232230Z 00000KT 2200 FU NSC 19/12 Q1008 NOSIG=
202010232200 METAR VIDP 232200Z 00000KT 2200 FU NSC 20/12 Q1008 NOSIG=
202010232130 METAR VIDP 232130Z 00000KT 2500 FU NSC 20/12 Q1008 NOSIG=
202010232100 METAR VIDP 232100Z 00000KT 2500 FU NSC 20/12 Q1008 NOSIG=
202010232030 METAR VIDP 232030Z 00000KT 2800 HZ NSC 20/12 Q1008 NOSIG=
202010232000 METAR VIDP 232000Z 00000KT 3000 HZ NSC 21/12 Q1008 NOSIG=
202010231930 METAR VIDP 231930Z 00000KT 3000 HZ NSC 21/11 Q1008 NOSIG=
202010231900 METAR VIDP 231900Z 00000KT 3000 HZ NSC 22/11 Q1008 NOSIG=
202010231830 METAR VIDP 231830Z 00000KT 3000 HZ NSC 22/11 Q1008 NOSIG=
202010231800 METAR VIDP 231800Z 00000KT 3000 HZ NSC 23/10 Q1008 NOSIG=
202010231730 METAR VIDP 231730Z 00000KT 3000 HZ NSC 23/10 Q1008 NOSIG=
202010231700 METAR VIDP 231700Z 00000KT 3000 HZ NSC 23/10 Q1008 NOSIG=
202010231630 METAR VIDP 231630Z 00000KT 3000 HZ NSC 24/10 Q1008 NOSIG=
202010231600 METAR VIDP 231600Z 00000KT 3000 HZ NSC 24/10 Q1008 NOSIG=
202010231530 METAR VIDP 231530Z 00000KT 3000 HZ NSC 25/10 Q1008 NOSIG=
202010231500 METAR VIDP 231500Z 00000KT 3000 HZ NSC 26/09 Q1008 NOSIG=
202010231430 METAR COR VIDP 231430Z 00000KT 3200 HZ NSC 26/09 Q1008 BECMG 3000 HZ=
202010231400 METAR VIDP 231400Z 00000KT 3200 HZ NSC 26/09 Q1007 NOSIG=
202010231330 METAR VIDP 231330Z 00000KT 3500 HZ NSC 27/09 Q1007 NOSIG=
202010231300 METAR VIDP 231300Z 00000KT 3500 HZ NSC 28/08 Q1007 NOSIG=
202010231230 METAR VIDP 231230Z 00000KT 3000 FU NSC 29/07 Q1007 NOSIG=
202010231200 METAR VIDP 231200Z 00000KT 3000 FU NSC 30/05 Q1007 NOSIG=
202010231130 METAR VIDP 231130Z 00000KT 3200 HZ NSC 31/05 Q1006 BECMG 3000 FU=
202010231100 METAR VIDP 231100Z 31004KT 3500 HZ NSC 32/04 Q1006 NOSIG=
202010231030 METAR VIDP 231030Z 34004KT 3500 HZ NSC 32/05 Q1006 NOSIG=
202010231000 METAR VIDP 231000Z 33004KT 3500 HZ NSC 32/05 Q1006 NOSIG=
202010230930 METAR VIDP 230930Z 32004KT 3200 FU NSC 33/06 Q1007 NOSIG=
202010230900 METAR VIDP 230900Z 32004KT 3200 FU NSC 32/06 Q1007 NOSIG=
202010230830 METAR VIDP 230830Z 33004KT 3000 FU NSC 32/06 Q1007 NOSIG=
202010230800 METAR VIDP 230800Z 30003KT 2500 FU NSC 32/07 Q1008 BECMG 3000 FU=
202010230730 METAR COR VIDP 230730Z 32004KT 2200 FU FEW100 32/08 Q1008 BECMG 3000 FU=
202010230700 METAR VIDP 230700Z 31004KT 1500 R28/2000 R29/2000 FU FEW100 32/10 Q1008 NOSIG=
202010230630 METAR VIDP 230630Z 32004KT 1300 R28/2000 R29/2000 FU FEW100 31/10 Q1009 BECMG 1500 FU=
202010230600 METAR VIDP 230600Z 32004KT 1200 R28/2000 R29/2000 FU FEW100 29/11 Q1009 BECMG 1500 FU=
202010230530 METAR VIDP 230530Z 33004KT 0800 R28/1300 R29/2000 FU FEW100 28/12 Q1010 NOSIG=
202010230500 METAR VIDP 230500Z 00000KT 0700 R28/1100 R29/1900 FU FEW100 27/13 Q1010 BECMG 0800 FU=
202010230430 METAR VIDP 230430Z 00000KT 0700 R28/1200 R29/1800 FU FEW100 26/14 Q1010 NOSIG=
202010230400 METAR VIDP 230400Z 00000KT 0700 R28/1100 R29/1900 FU FEW040 SCT100 25/14 Q1010 NOSIG=
202010230330 METAR VIDP 230330Z 00000KT 0700 R28/1200 R29/2000 FU FEW040 SCT100 23/15 Q1010 NOSIG=
202010230300 METAR VIDP 230300Z 00000KT 0900 R28/1200 R29/2000 MIFG FEW040 SCT100 21/13 Q1009 BECMG 0800 MIFG=
202010230230 METAR VIDP 230230Z 00000KT 1000 R28/1300 R29/2000 FU FEW040 SCT100 20/13 Q1009 NOSIG=
202010230200 METAR VIDP 230200Z 22003KT 1200 R28/1500 R29/2000 FU FEW040 SCT100 19/13 Q1009 NOSIG=
202010230130 METAR VIDP 230130Z 00000KT 1200 R28/1700 R29/2000 BR FEW040 SCT100 18/14 Q1008 NOSIG=
202010230100 METAR VIDP 230100Z 00000KT 1500 R28/P2000 R29/P2000 BR FEW040 SCT100 18/14 Q1008 NOSIG=
202010230030 METAR VIDP 230030Z 00000KT 1800 R28/P2000 R29/P2000 BR FEW040 SCT100 19/15 Q1008 BECMG 1500 BR=
202010230000 METAR VIDP 230000Z 00000KT 2200 HZ FEW040 SCT100 19/14 Q1008 NOSIG=
202010222330 METAR VIDP 222330Z 00000KT 2200 HZ FEW040 SCT100 20/14 Q1007 NOSIG=
202010222300 METAR VIDP 222300Z 00000KT 2200 HZ FEW040 SCT100 20/14 Q1007 NOSIG=
202010222230 METAR VIDP 222230Z 00000KT 2200 HZ FEW040 SCT100 20/14 Q1007 NOSIG=
202010222200 METAR VIDP 222200Z 00000KT 2200 HZ FEW040 SCT100 20/14 Q1007 NOSIG=
202010222130 METAR VIDP 222130Z 00000KT 2200 HZ FEW040 SCT100 20/14 Q1007 NOSIG=
202010222100 METAR VIDP 222100Z 00000KT 2200 HZ FEW040 SCT100 20/14 Q1007 NOSIG=
202010222030 METAR VIDP 222030Z 00000KT 2200 HZ FEW040 SCT100 20/14 Q1008 NOSIG=
202010222000 METAR VIDP 222000Z 00000KT 2200 HZ FEW040 SCT100 20/14 Q1008 NOSIG=
202010221930 METAR VIDP 221930Z 00000KT 2200 HZ FEW040 SCT100 20/14 Q1008 NOSIG=
202010221900 METAR VIDP 221900Z 04003KT 2200 HZ FEW040 SCT100 20/14 Q1008 NOSIG=
202010221830 METAR VIDP 221830Z 07004KT 2200 HZ SCT040 BKN100 20/14 Q1008 NOSIG=
202010221800 METAR VIDP 221800Z 00000KT 2200 HZ SCT040 BKN100 20/14 Q1008 NOSIG=
202010221730 METAR VIDP 221730Z 00000KT 2200 HZ SCT040 BKN100 21/14 Q1008 NOSIG=
202010221700 METAR VIDP 221700Z 00000KT 2200 HZ SCT040 BKN100 22/14 Q1008 NOSIG=
202010221630 METAR VIDP 221630Z 00000KT 2200 HZ SCT040 BKN100 23/14 Q1009 NOSIG=
202010221600 METAR VIDP 221600Z 00000KT 2200 HZ SCT040 BKN100 24/14 Q1009 NOSIG=
202010221530 METAR VIDP 221530Z 00000KT 2200 HZ SCT040 BKN100 24/13 Q1008 NOSIG=
202010221500 METAR VIDP 221500Z 00000KT 2200 HZ SCT040 BKN100 25/13 Q1008 NOSIG=
202010221430 METAR VIDP 221430Z 00000KT 2200 HZ SCT040 BKN100 26/13 Q1008 NOSIG=
202010221400 METAR VIDP 221400Z 00000KT 2200 HZ SCT040 BKN100 26/14 Q1008 NOSIG=
202010221330 METAR VIDP 221330Z 00000KT 2200 HZ SCT040 BKN100 27/14 Q1008 NOSIG=
202010221300 METAR VIDP 221300Z 00000KT 2200 HZ SCT040 BKN100 28/14 Q1007 NOSIG=
202010221230 METAR VIDP 221230Z 00000KT 2200 HZ SCT040 BKN100 30/13 Q1007 NOSIG=
202010221200 METAR VIDP 221200Z 00000KT 2200 HZ SCT040 BKN100 30/13 Q1007 NOSIG=
202010221130 METAR VIDP 221130Z 00000KT 2200 HZ SCT040 BKN100 31/12 Q1006 NOSIG=
202010221100 METAR VIDP 221100Z 34003KT 2200 HZ SCT040 BKN100 32/12 Q1006 NOSIG=
202010221030 METAR VIDP 221030Z 34003KT 2200 HZ SCT040 BKN100 32/12 Q1006 NOSIG=
202010221000 METAR VIDP 221000Z 33003KT 2500 FU SCT040 BKN100 32/12 Q1007 NOSIG=
202010220930 METAR VIDP 220930Z 00000KT 2500 FU SCT040 BKN100 32/12 Q1007 NOSIG=
202010220900 METAR VIDP 220900Z 00000KT 2500 FU SCT040 BKN100 32/12 Q1007 NOSIG=
202010220830 METAR VIDP 220830Z 33003KT 2500 FU SCT040 BKN100 32/12 Q1007 NOSIG=
202010220800 METAR VIDP 220800Z 35003KT 2500 FU SCT040 BKN100 32/12 Q1008 NOSIG=
202010220730 METAR VIDP 220730Z 04003KT 2200 FU SCT040 BKN100 31/13 Q1008 NOSIG=
202010220700 METAR VIDP 220700Z 03003KT 2100 FU FEW040 SCT100 30/14 Q1009 NOSIG=
202010220630 METAR VIDP 220630Z 06003KT 1800 R28/1900 R29/P2000 FU FEW040 SCT100 29/13 Q1009 NOSIG=
202010220600 METAR VIDP 220600Z 01004KT 1500 R28/1500 R29/P2000 FU SCT040 BKN100 28/12 Q1009 NOSIG=
202010220530 METAR VIDP 220530Z 10006KT 1500 R28/1600 R29/P2000 FU SCT040 BKN100 27/12 Q1009 NOSIG=
202010220500 METAR VIDP 220500Z 11004KT 1500 R28/1500 R29/P2000 FU SCT040 BKN100 26/13 Q1010 NOSIG=
202010220430 METAR VIDP 220430Z 26005KT 1500 R28/1600 R29/P2000 FU SCT040 FEW040CB BKN100 26/13 Q1010 NOSIG=
202010220400 METAR VIDP 220400Z 03003KT 1500 R28/1500 R29/P2000 FU FEW040 FEW040CB BKN100 26/13 Q1010 NOSIG=
202010220330 METAR VIDP 220330Z 00000KT 1500 R28/1600 R29/P2000 FU FEW040 FEW040CB SCT100 24/13 Q1010 NOSIG=
202010220300 METAR VIDP 220300Z 00000KT 1500 R28/1600 R29/P2000 FU SCT100 24/13 Q1010 NOSIG=
202010220230 METAR VIDP 220230Z 00000KT 1600 R28/1700 R29/P2000 HZ SCT100 23/12 Q1010 BECMG 1500 FU=
202010220200 METAR VIDP 220200Z 00000KT 1800 R28/P2000 R29/P2000 HZ SCT100 21/12 Q1009 NOSIG=
202010220130 METAR VIDP 220130Z 00000KT 1800 R28/P2000 R29/P2000 HZ SCT100 20/12 Q1009 NOSIG=
202010220100 METAR VIDP 220100Z 00000KT 2500 HZ SCT100 20/12 Q1009 NOSIG=
202010220030 METAR VIDP 220030Z 00000KT 2500 HZ SCT100 20/12 Q1008 NOSIG=
202010220000 METAR VIDP 220000Z 00000KT 2500 HZ SCT100 20/12 Q1008 NOSIG=
202010212330 METAR VIDP 212330Z 00000KT 2500 HZ SCT100 20/12 Q1008 NOSIG=
202010212300 METAR VIDP 212300Z 00000KT 2500 HZ FEW100 21/13 Q1008 NOSIG=
202010212230 METAR VIDP 212230Z 00000KT 2500 HZ FEW100 21/13 Q1008 NOSIG=
202010212200 METAR VIDP 212200Z 00000KT 3000 HZ NSC 21/13 Q1008 NOSIG=
202010212130 METAR VIDP 212130Z 00000KT 3000 HZ NSC 22/13 Q1008 NOSIG=
202010212100 METAR VIDP 212100Z 00000KT 3000 HZ NSC 22/13 Q1008 NOSIG=
202010212030 METAR VIDP 212030Z 00000KT 3000 HZ NSC 22/13 Q1008 NOSIG=
202010212000 METAR VIDP 212000Z 00000KT 3000 HZ NSC 22/13 Q1009 NOSIG=
202010211930 METAR VIDP 211930Z 00000KT 3000 HZ NSC 22/13 Q1009 NOSIG=
202010211900 METAR VIDP 211900Z 00000KT 3000 HZ NSC 23/12 Q1009 NOSIG=
202010211830 METAR VIDP 211830Z 00000KT 3000 HZ NSC 23/12 Q1008 NOSIG=
202010211800 METAR VIDP 211800Z 00000KT 3000 HZ NSC 23/12 Q1008 NOSIG=
202010211730 METAR VIDP 211730Z 00000KT 3000 HZ NSC 24/12 Q1008 NOSIG=
202010211700 METAR VIDP 211700Z 00000KT 3000 HZ NSC 24/13 Q1008 NOSIG=
202010211630 METAR VIDP 211630Z 00000KT 3000 HZ NSC 25/14 Q1008 NOSIG=
202010211600 METAR VIDP 211600Z 00000KT 3000 HZ NSC 26/14 Q1008 NOSIG=
202010211530 METAR VIDP 211530Z 00000KT 3000 HZ NSC 26/14 Q1008 NOSIG=
202010211500 METAR VIDP 211500Z 00000KT 3000 HZ NSC 26/14 Q1008 NOSIG=
202010211430 METAR VIDP 211430Z 00000KT 3000 HZ NSC 27/14 Q1008 NOSIG=
202010211400 METAR VIDP 211400Z 00000KT 3000 HZ NSC 28/13 Q1008 NOSIG=
202010211330 METAR VIDP 211330Z 00000KT 3000 HZ NSC 29/12 Q1008 NOSIG=
202010211300 METAR VIDP 211300Z 05003KT 3000 HZ NSC 31/10 Q1008 NOSIG=
202010211230 METAR VIDP 211230Z 04004KT 3500 HZ NSC 31/10 Q1008 BECMG 3000 HZ=
202010211200 METAR VIDP 211200Z 05003KT 3500 HZ NSC 32/09 Q1007 NOSIG=
202010211130 METAR VIDP 211130Z 29003KT 4000 HZ NSC 32/08 Q1007 NOSIG=
202010211100 METAR VIDP 211100Z 36004KT 4000 HZ NSC 32/08 Q1007 NOSIG=
202010211030 METAR VIDP 211030Z 34004KT 4000 HZ NSC 33/08 Q1007 NOSIG=
202010211000 METAR VIDP 211000Z 32003KT 4000 HZ NSC 33/08 Q1008 NOSIG=
202010210930 METAR VIDP 210930Z 32004KT 4000 HZ NSC 33/08 Q1008 NOSIG=
202010210900 METAR VIDP 210900Z 34004KT 4000 HZ NSC 33/08 Q1008 NOSIG=
202010210830 METAR VIDP 210830Z 34006KT 4000 HZ NSC 34/11 Q1008 NOSIG=
202010210800 METAR VIDP 210800Z 35004KT 3500 HZ NSC 33/11 Q1009 NOSIG=
202010210730 METAR VIDP 210730Z 03004KT 2800 HZ NSC 33/11 Q1010 BECMG 3000 HZ=
202010210700 METAR VIDP 210700Z 32003KT 2500 HZ NSC 32/11 Q1010 NOSIG=
202010210630 METAR VIDP 210630Z 24003KT 2000 HZ NSC 31/11 Q1011 NOSIG=
202010210600 METAR VIDP 210600Z 25004KT 2000 FU NSC 30/11 Q1011 NOSIG=
202010210530 METAR VIDP 210530Z 19003KT 2000 FU NSC 30/10 Q1012 NOSIG=
202010210500 METAR VIDP 210500Z 00000KT 1800 R28/1800 R29/2000 FU NSC 28/11 Q1012 NOSIG=
202010210430 METAR VIDP 210430Z 14003KT 1800 R28/1700 R29/2000 FU NSC 26/10 Q1012 NOSIG=
202010210400 METAR VIDP 210400Z 22003KT 1800 R28/1800 R29/2000 FU NSC 24/12 Q1012 NOSIG=
202010210330 METAR VIDP 210330Z 00000KT 1800 R28/1800 R29/2000 FU NSC 22/13 Q1012 NOSIG=
202010210300 METAR VIDP 210300Z 00000KT 1800 R28/1800 R29/2000 FU NSC 21/13 Q1012 NOSIG=
202010210230 METAR VIDP 210230Z 00000KT 1800 R28/1800 R29/2000 FU NSC 19/13 Q1012 NOSIG=
202010210200 METAR VIDP 210200Z 00000KT 2200 BR NSC 17/13 Q1011 NOSIG=
202010210130 METAR VIDP 210130Z 00000KT 2200 BR NSC 17/13 Q1011 NOSIG=
202010210100 METAR VIDP 210100Z 16003KT 2500 BR NSC 17/13 Q1011 NOSIG=
202010210030 METAR VIDP 210030Z 00000KT 2500 BR NSC 17/13 Q1011 NOSIG=
202010210000 METAR VIDP 210000Z 00000KT 2500 BR NSC 17/13 Q1010 NOSIG=
202010202330 METAR COR VIDP 202330Z 00000KT 2500 BR NSC 17/13 Q1010 NOSIG=
202010202300 METAR VIDP 202300Z 00000KT 2500 HZ NSC 17/12 Q1010 NOSIG=
202010202230 METAR VIDP 202230Z 00000KT 2500 HZ NSC 18/13 Q1010 NOSIG=
202010202200 METAR VIDP 202200Z 00000KT 2500 HZ NSC 18/13 Q1010 NOSIG=
202010202130 METAR COR VIDP 202130Z 00000KT 2500 HZ NSC 18/13 Q1010 NOSIG=
202010202100 METAR VIDP 202100Z 00000KT 2500 HZ NSC 18/13 Q1010 NOSIG=
202010202030 METAR VIDP 202030Z 00000KT 2800 HZ NSC 18/13 Q1010 NOSIG=
202010202000 METAR VIDP 202000Z 00000KT 2800 HZ NSC 18/13 Q1010 NOSIG=
202010201930 METAR VIDP 201930Z 00000KT 2800 HZ NSC 19/13 Q1010 NOSIG=
202010201900 METAR VIDP 201900Z 00000KT 3000 HZ NSC 20/13 Q1010 NOSIG=
202010201830 METAR VIDP 201830Z 00000KT 3000 HZ NSC 20/13 Q1009 NOSIG=
202010201800 METAR VIDP 201800Z 00000KT 3000 HZ NSC 21/12 Q1010 NOSIG=
202010201730 METAR VIDP 201730Z 00000KT 3000 HZ NSC 22/12 Q1010 NOSIG=
202010201700 METAR VIDP 201700Z 00000KT 3000 HZ NSC 23/11 Q1010 NOSIG=
202010201630 METAR VIDP 201630Z 00000KT 3000 HZ NSC 23/11 Q1009 NOSIG=
202010201600 METAR VIDP 201600Z 00000KT 3000 HZ NSC 24/10 Q1009 NOSIG=
202010201530 METAR VIDP 201530Z 00000KT 3000 HZ NSC 25/10 Q1009 NOSIG=
202010201500 METAR VIDP 201500Z 00000KT 3000 HZ NSC 26/09 Q1009 NOSIG=
202010201430 METAR VIDP 201430Z 00000KT 3000 HZ NSC 26/09 Q1009 NOSIG=
202010201400 METAR COR VIDP 201400Z 00000KT 3000 HZ NSC 27/07 Q1008 NOSIG=
202010201330 METAR VIDP 201330Z 00000KT 3000 HZ NSC 28/07 Q1008 NOSIG=
202010201300 METAR VIDP 201300Z 33004KT 3000 HZ NSC 29/07 Q1008 NOSIG=
202010201230 METAR VIDP 201230Z 24003KT 3200 HZ NSC 30/06 Q1008 BECMG 3000 HZ=
202010201200 METAR VIDP 201200Z 31004KT 3500 HZ NSC 31/06 Q1007 NOSIG=
202010201130 METAR VIDP 201130Z 31005KT 3500 HZ NSC 32/06 Q1007 NOSIG=
202010201100 METAR VIDP 201100Z 30006KT 3500 HZ NSC 32/06 Q1007 NOSIG=
202010201030 METAR VIDP 201030Z 30005KT 3500 HZ NSC 33/06 Q1007 NOSIG=
202010201000 METAR VIDP 201000Z 29007KT 3500 HZ NSC 33/06 Q1007 NOSIG=
202010200930 METAR VIDP 200930Z 30009KT 3500 HZ NSC 33/05 Q1008 NOSIG=
202010200900 METAR VIDP 200900Z 32006KT 3500 HZ NSC 33/05 Q1008 NOSIG=
202010200830 METAR VIDP 200830Z 32006KT 3200 HZ NSC 33/06 Q1008 NOSIG=
202010200800 METAR VIDP 200800Z 33005KT 3200 HZ NSC 33/08 Q1008 NOSIG=
202010200730 METAR VIDP 200730Z 32005KT 2800 HZ NSC 32/08 Q1009 BECMG 3000 HZ=
202010200700 METAR VIDP 200700Z 30005KT 2500 HZ NSC 32/09 Q1009 NOSIG=
202010200630 METAR VIDP 200630Z 28004KT 2200 FU NSC 31/09 Q1009 NOSIG=
202010200600 METAR VIDP 200600Z 27004KT 2200 FU NSC 30/10 Q1010 NOSIG=
202010200530 METAR VIDP 200530Z 26004KT 2200 FU NSC 29/10 Q1010 NOSIG=
202010200500 METAR VIDP 200500Z 31004KT 2200 FU NSC 28/10 Q1010 NOSIG=
202010200430 METAR VIDP 200430Z 00000KT 1800 R28/1800 R29/P2000 FU NSC 27/11 Q1010 NOSIG=
202010200400 METAR VIDP 200400Z 25003KT 1800 R28/P2000 R29/P2000 FU NSC 25/12 Q1010 NOSIG=
202010200330 METAR VIDP 200330Z 00000KT 1600 R28/1900 R29/P2000 FU NSC 23/13 Q1010 NOSIG=
202010200300 METAR VIDP 200300Z 00000KT 1500 R28/2000 R29/P2000 FU NSC 21/13 Q1010 NOSIG=
202010200230 METAR VIDP 200230Z 00000KT 1500 R28/1900 R29/P2000 FU NSC 20/13 Q1009 NOSIG=
202010200200 METAR VIDP 200200Z 00000KT 1500 R28/P2000 R29/P2000 FU NSC 18/13 Q1009 NOSIG=
202010200130 METAR VIDP 200130Z 00000KT 1500 R28/P2000 R29/P2000 FU NSC 18/13 Q1009 NOSIG=
202010200100 METAR VIDP 200100Z 00000KT 1600 R28/P2000 R29/P2000 BR NSC 17/13 Q1008 BECMG 1500 BR=
202010200030 METAR VIDP 200030Z 00000KT 1800 R28/P2000 R29/P2000 HZ NSC 18/13 Q1008 NOSIG=
202010200000 METAR VIDP 200000Z 00000KT 2100 HZ NSC 18/13 Q1008 NOSIG=
202010192330 METAR VIDP 192330Z 00000KT 2100 HZ NSC 18/13 Q1008 NOSIG=
202010192300 METAR VIDP 192300Z 00000KT 2100 HZ NSC 18/13 Q1007 NOSIG=
202010192230 METAR VIDP 192230Z 00000KT 2100 HZ NSC 19/13 Q1007 NOSIG=
202010192200 METAR VIDP 192200Z 00000KT 2100 HZ NSC 19/13 Q1007 NOSIG=
202010192130 METAR VIDP 192130Z 00000KT 2100 HZ NSC 20/13 Q1007 NOSIG=
202010192100 METAR VIDP 192100Z 00000KT 2100 HZ NSC 20/12 Q1007 NOSIG=
202010192030 METAR VIDP 192030Z 23003KT 2500 HZ NSC 21/11 Q1007 NOSIG=
202010192000 METAR VIDP 192000Z 20004KT 2500 HZ NSC 21/11 Q1007 NOSIG=
202010191930 METAR VIDP 191930Z 21003KT 2500 HZ NSC 21/11 Q1007 NOSIG=
202010191900 METAR VIDP 191900Z 24004KT 2500 HZ NSC 22/12 Q1007 NOSIG=
202010191830 METAR VIDP 191830Z 36004KT 2500 HZ NSC 22/13 Q1007 NOSIG=
202010191800 METAR VIDP 191800Z 32004KT 2800 HZ NSC 23/14 Q1008 NOSIG=
202010191730 METAR VIDP 191730Z 33005KT 3000 HZ NSC 23/14 Q1008 NOSIG=
202010191700 METAR VIDP 191700Z 32004KT 3000 HZ NSC 23/14 Q1008 NOSIG=
202010191630 METAR VIDP 191630Z 30003KT 3000 HZ NSC 24/14 Q1008 NOSIG=
202010191600 METAR VIDP 191600Z 30003KT 3200 HZ NSC 25/14 Q1008 BECMG 3000 HZ=
202010191530 METAR VIDP 191530Z 32004KT 3200 HZ NSC 26/14 Q1008 NOSIG=
202010191500 METAR VIDP 191500Z 33004KT 3200 HZ NSC 27/13 Q1008 NOSIG=
202010191430 METAR VIDP 191430Z 30004KT 3200 HZ NSC 27/13 Q1008 NOSIG=
202010191400 METAR VIDP 191400Z 30005KT 3500 HZ NSC 29/13 Q1008 NOSIG=
202010191330 METAR VIDP 191330Z 31004KT 3500 HZ NSC 30/13 Q1007 NOSIG=
202010191300 METAR VIDP 191300Z 31005KT 3500 HZ NSC 30/13 Q1007 NOSIG=
202010191230 METAR VIDP 191230Z 30005KT 3500 HZ NSC 31/12 Q1008 NOSIG=
202010191200 METAR VIDP 191200Z 32007KT 4000 HZ NSC 32/11 Q1008 NOSIG=
202010191130 METAR VIDP 191130Z 31007KT 4000 HZ NSC 32/11 Q1007 NOSIG=
202010191100 METAR VIDP 191100Z 30008KT 3500 HZ NSC 32/10 Q1007 NOSIG=
202010191030 METAR VIDP 191030Z 31008KT 3500 HZ NSC 32/10 Q1007 NOSIG=
202010191000 METAR VIDP 191000Z 31009KT 3500 HZ NSC 33/10 Q1008 NOSIG=
202010190930 METAR VIDP 190930Z 32008KT 3500 HZ NSC 33/09 Q1008 NOSIG=
202010190900 METAR VIDP 190900Z 31008KT 3500 HZ NSC 33/09 Q1008 NOSIG=
202010190830 METAR VIDP 190830Z 32009KT 3500 HZ NSC 33/09 Q1008 NOSIG=
202010190800 METAR VIDP 190800Z 32007KT 3500 HZ NSC 33/09 Q1009 NOSIG=
202010190730 METAR VIDP 190730Z 32007KT 3200 HZ NSC 32/10 Q1009 NOSIG=
202010190700 METAR VIDP 190700Z 29006KT 3000 HZ NSC 32/11 Q1010 NOSIG=
202010190630 METAR VIDP 190630Z 31005KT 2800 HZ NSC 31/12 Q1010 BECMG 3000 HZ=
202010190600 METAR VIDP 190600Z 30006KT 2500 HZ NSC 30/12 Q1011 NOSIG=
202010190530 METAR VIDP 190530Z 31005KT 2500 HZ NSC 29/13 Q1011 NOSIG=
202010190500 METAR VIDP 190500Z 29004KT 2200 HZ FEW100 27/13 Q1012 NOSIG=
202010190430 METAR VIDP 190430Z 28004KT 2200 HZ FEW100 26/12 Q1012 NOSIG=
202010190400 METAR VIDP 190400Z 27004KT 2200 HZ FEW100 26/13 Q1011 NOSIG=
202010190330 METAR VIDP 190330Z 27003KT 1800 R28/2000 R29/2000 FU FEW100 24/13 Q1011 NOSIG=
202010190300 METAR VIDP 190300Z 26003KT 1600 R28/2000 R29/2000 FU FEW100 23/13 Q1011 NOSIG=
202010190230 METAR VIDP 190230Z 00000KT 1600 R28/2000 R29/2000 FU FEW100 21/14 Q1010 NOSIG=
202010190200 METAR VIDP 190200Z 00000KT 1200 R28/2000 R29/2000 FU FEW100 20/13 Q1010 NOSIG=
202010190130 METAR VIDP 190130Z 00000KT 1200 R28/2000 R29/2000 FU FEW100 20/12 Q1010 NOSIG=
202010190100 METAR VIDP 190100Z 00000KT 1600 R28/P2000 R29/P2000 FU FEW100 20/12 Q1009 BECMG 1500 FU=
202010190030 METAR VIDP 190030Z 00000KT 2200 HZ FEW100 20/12 Q1009 NOSIG=
202010190000 METAR VIDP 190000Z 25003KT 2200 HZ FEW100 21/13 Q1009 NOSIG=
202010182330 METAR VIDP 182330Z 00000KT 2500 HZ FEW100 21/12 Q1009 NOSIG=
202010182300 METAR VIDP 182300Z 00000KT 2500 HZ FEW100 21/13 Q1009 NOSIG=
202010182230 METAR VIDP 182230Z 00000KT 2500 HZ NSC 21/13 Q1008 NOSIG=
202010182200 METAR VIDP 182200Z 00000KT 2500 HZ NSC 21/13 Q1008 NOSIG=
202010182130 METAR VIDP 182130Z 00000KT 2500 HZ NSC 21/13 Q1008 NOSIG=
202010182100 METAR VIDP 182100Z 00000KT 2500 HZ NSC 21/13 Q1008 NOSIG=
202010182030 METAR VIDP 182030Z 00000KT 2500 HZ NSC 21/13 Q1008 NOSIG=
202010182000 METAR VIDP 182000Z 00000KT 2500 HZ NSC 22/13 Q1008 NOSIG=
202010181930 METAR VIDP 181930Z 00000KT 2800 HZ NSC 22/13 Q1008 NOSIG=
202010181900 METAR VIDP 181900Z 20002KT 2800 HZ NSC 22/13 Q1009 NOSIG=
202010181830 METAR VIDP 181830Z 20002KT 3000 HZ NSC 23/13 Q1009 NOSIG=
202010181800 METAR VIDP 181800Z 00000KT 3000 HZ NSC 23/13 Q1008 NOSIG=
202010181730 METAR VIDP 181730Z 28003KT 3000 HZ NSC 24/12 Q1009 NOSIG=
202010181700 METAR VIDP 181700Z 23003KT 3000 HZ NSC 24/12 Q1009 NOSIG=
202010181630 METAR VIDP 181630Z 00000KT 3000 HZ NSC 25/10 Q1009 NOSIG=
202010181600 METAR VIDP 181600Z 27003KT 3000 HZ NSC 25/10 Q1009 NOSIG=
202010181530 METAR VIDP 181530Z 24003KT 3000 HZ NSC 25/10 Q1009 NOSIG=
202010181500 METAR VIDP 181500Z 29003KT 3000 HZ NSC 26/11 Q1009 NOSIG=
202010181430 METAR VIDP 181430Z 30004KT 3000 HZ NSC 27/12 Q1008 NOSIG=
202010181400 METAR COR VIDP 181400Z 00000KT 3000 HZ NSC 27/13 Q1008 NOSIG=
202010181330 METAR VIDP 181330Z 00000KT 3000 HZ NSC 28/13 Q1008 NOSIG=
202010181300 METAR VIDP 181300Z 29003KT 3000 HZ NSC 29/13 Q1008 NOSIG=
202010181230 METAR VIDP 181230Z 30004KT 3000 HZ NSC 30/13 Q1008 NOSIG=
202010181200 METAR VIDP 181200Z 31005KT 3000 HZ NSC 31/12 Q1008 NOSIG=
202010181130 METAR VIDP 181130Z 31005KT 3000 HZ NSC 32/12 Q1008 NOSIG=
202010181100 METAR VIDP 181100Z 30006KT 3000 HZ NSC 33/12 Q1008 NOSIG=
202010181030 METAR VIDP 181030Z 30007KT 3000 HZ NSC 33/12 Q1008 NOSIG=
202010181000 METAR VIDP 181000Z 29008KT 3000 HZ NSC 33/12 Q1008 NOSIG=
202010180930 METAR VIDP 180930Z 29006KT 3000 HZ NSC 33/12 Q1009 NOSIG=
202010180900 METAR VIDP 180900Z 29007KT 3000 HZ NSC 33/12 Q1009 NOSIG=
202010180830 METAR VIDP 180830Z 30007KT 3000 HZ NSC 33/12 Q1009 NOSIG=
202010180800 METAR VIDP 180800Z 31007KT 2800 HZ NSC 33/12 Q1009 BECMG 3000 HZ=
202010180730 METAR VIDP 180730Z 31006KT 2500 HZ NSC 33/12 Q1010 NOSIG=
202010180700 METAR VIDP 180700Z 29007KT 2200 HZ NSC 32/13 Q1010 NOSIG=
202010180630 METAR VIDP 180630Z 29005KT 1800 R28/P2000 R29/P2000 FU NSC 31/13 Q1011 NOSIG=
202010180600 METAR VIDP 180600Z 30004KT 1500 R28/P2000 R29/P2000 FU NSC 30/13 Q1011 NOSIG=
202010180530 METAR VIDP 180530Z 30004KT 1500 R28/2000 R29/2000 FU NSC 29/13 Q1011 NOSIG=
202010180500 METAR VIDP 180500Z 31003KT 1400 R28/2000 R29/2000 FU NSC 28/14 Q1012 BECMG 1500 FU=
202010180430 METAR VIDP 180430Z 28004KT 1200 R28/2000 R29/2000 FU NSC 26/14 Q1012 NOSIG=
202010180400 METAR VIDP 180400Z 26004KT 1200 R28/2000 R29/2000 FU NSC 25/14 Q1011 NOSIG=
202010180330 METAR VIDP 180330Z 24003KT 1200 R28/2000 R29/2000 FU NSC 24/14 Q1011 NOSIG=
202010180300 METAR VIDP 180300Z 26004KT 1200 R28/2000 R29/2000 FU NSC 23/14 Q1011 NOSIG=
202010180230 METAR VIDP 180230Z 00000KT 1200 R28/2000 R29/2000 FU NSC 21/15 Q1011 NOSIG=
202010180200 METAR VIDP 180200Z 00000KT 1500 R28/P2000 R29/P2000 FU NSC 20/14 Q1010 NOSIG=
202010180130 METAR VIDP 180130Z 00000KT 1600 R28/P2000 R29/P2000 FU NSC 20/14 Q1010 BECMG 1500 FU=
202010180100 METAR VIDP 180100Z 27004KT 1800 R28/P2000 R29/P2000 HZ NSC 20/14 Q1010 NOSIG=
202010180030 METAR VIDP 180030Z 00000KT 2200 HZ NSC 20/14 Q1009 NOSIG=
202010180000 METAR VIDP 180000Z 00000KT 2200 HZ NSC 21/14 Q1009 NOSIG=
202010172330 METAR VIDP 172330Z 00000KT 2200 HZ NSC 21/14 Q1009 NOSIG=
202010172300 METAR VIDP 172300Z 00000KT 2200 HZ NSC 21/14 Q1008 NOSIG=
202010172230 METAR VIDP 172230Z 00000KT 2200 HZ NSC 21/13 Q1008 NOSIG=
202010172200 METAR VIDP 172200Z 00000KT 2500 HZ NSC 21/12 Q1008 NOSIG=
202010172130 METAR VIDP 172130Z 00000KT 2500 HZ NSC 21/12 Q1008 NOSIG=
202010172100 METAR VIDP 172100Z 00000KT 2500 HZ NSC 21/12 Q1008 NOSIG=
202010172030 METAR VIDP 172030Z 00000KT 2500 HZ NSC 22/12 Q1008 NOSIG=
202010172000 METAR VIDP 172000Z 00000KT 2500 HZ NSC 22/12 Q1009 NOSIG=
202010171930 METAR VIDP 171930Z 00000KT 2500 HZ NSC 23/13 Q1009 NOSIG=
202010171900 METAR VIDP 171900Z 00000KT 2500 HZ NSC 23/13 Q1009 NOSIG=
202010171830 METAR VIDP 171830Z 00000KT 2500 HZ NSC 23/13 Q1009 NOSIG=
202010171800 METAR VIDP 171800Z 00000KT 2500 HZ NSC 23/13 Q1009 NOSIG=
202010171730 METAR VIDP 171730Z 00000KT 2500 HZ NSC 24/13 Q1009 NOSIG=
202010171700 METAR VIDP 171700Z 00000KT 2500 HZ NSC 24/13 Q1009 NOSIG=
202010171630 METAR VIDP 171630Z 00000KT 2500 HZ NSC 25/13 Q1009 NOSIG=
202010171600 METAR VIDP 171600Z 00000KT 2500 HZ NSC 25/13 Q1009 NOSIG=
202010171530 METAR VIDP 171530Z 00000KT 2500 HZ NSC 25/13 Q1009 NOSIG=
202010171500 METAR VIDP 171500Z 00000KT 2500 HZ NSC 26/12 Q1009 NOSIG=
202010171430 METAR VIDP 171430Z 00000KT 2500 HZ NSC 27/12 Q1009 NOSIG=
202010171400 METAR VIDP 171400Z 00000KT 2500 FU NSC 28/12 Q1008 NOSIG=
202010171330 METAR VIDP 171330Z 00000KT 2500 FU NSC 28/12 Q1008 NOSIG=
202010171300 METAR VIDP 171300Z 00000KT 2500 FU NSC 29/12 Q1008 NOSIG=
202010171230 METAR VIDP 171230Z 30003KT 2500 FU NSC 30/12 Q1008 NOSIG=
202010171200 METAR VIDP 171200Z 29004KT 2500 FU NSC 31/10 Q1008 NOSIG=
202010171130 METAR VIDP 171130Z 29005KT 2500 FU NSC 32/10 Q1008 NOSIG=
202010171100 METAR VIDP 171100Z 29004KT 2500 FU NSC 32/10 Q1008 NOSIG=
202010171030 METAR VIDP 171030Z 30004KT 2500 FU NSC 33/10 Q1008 NOSIG=
202010171000 METAR VIDP 171000Z 29004KT 2500 FU NSC 33/10 Q1008 NOSIG=
202010170930 METAR VIDP 170930Z 30005KT 2500 FU NSC 32/09 Q1008 NOSIG=
202010170900 METAR VIDP 170900Z 30003KT 2500 FU NSC 32/09 Q1009 NOSIG=
202010170830 METAR VIDP 170830Z 29003KT 2500 FU NSC 32/09 Q1009 NOSIG=
202010170800 METAR VIDP 170800Z 25004KT 2500 HZ NSC 32/08 Q1009 NOSIG=
202010170730 METAR VIDP 170730Z 25003KT 2500 HZ NSC 32/09 Q1010 NOSIG=
202010170700 METAR VIDP 170700Z 29005KT 2500 HZ NSC 31/10 Q1010 NOSIG=
202010170630 METAR VIDP 170630Z 33004KT 2500 HZ NSC 30/11 Q1011 NOSIG=
202010170600 METAR VIDP 170600Z 32004KT 2500 HZ NSC 29/11 Q1011 NOSIG=
202010170530 METAR VIDP 170530Z 28004KT 2500 HZ NSC 28/11 Q1012 NOSIG=
202010170500 METAR VIDP 170500Z 33003KT 2200 HZ NSC 27/11 Q1012 NOSIG=
202010170430 METAR VIDP 170430Z 30004KT 2200 HZ NSC 26/11 Q1012 NOSIG=
202010170400 METAR VIDP 170400Z 28005KT 1800 R28/P2000 R29/P2000 HZ NSC 25/11 Q1012 NOSIG=
202010170330 METAR VIDP 170330Z 27003KT 1800 R28/P2000 R29/P2000 HZ NSC 24/12 Q1012 NOSIG=
202010170300 METAR VIDP 170300Z 27003KT 1500 R28/P2000 R29/P2000 FU NSC 23/13 Q1011 NOSIG=
202010170230 METAR VIDP 170230Z 29003KT 1500 R28/P2000 R29/P2000 FU NSC 21/13 Q1011 NOSIG=
202010170200 METAR VIDP 170200Z 00000KT 1600 R28/P2000 R29/P2000 FU FEW100 20/14 Q1010 BECMG 1500 FU=
202010170130 METAR VIDP 170130Z 00000KT 1800 R28/P2000 R29/P2000 FU FEW100 20/14 Q1010 NOSIG=
202010170100 METAR VIDP 170100Z 00000KT 2200 BR NSC 19/15 Q1009 NOSIG=
202010170030 METAR VIDP 170030Z 00000KT 2200 BR NSC 19/15 Q1009 NOSIG=
202010170000 METAR VIDP 170000Z 00000KT 2200 BR NSC 19/15 Q1009 NOSIG=
202010162330 METAR VIDP 162330Z 00000KT 2200 BR NSC 19/15 Q1008 NOSIG=
202010162300 METAR VIDP 162300Z 00000KT 2500 HZ NSC 19/14 Q1008 NOSIG=
202010162230 METAR VIDP 162230Z 00000KT 2500 HZ NSC 20/14 Q1008 NOSIG=
202010162200 METAR VIDP 162200Z 00000KT 2500 HZ NSC 20/14 Q1008 NOSIG=
202010162130 METAR VIDP 162130Z 00000KT 2500 HZ NSC 20/14 Q1008 NOSIG=
202010162100 METAR VIDP 162100Z 00000KT 2500 HZ NSC 21/14 Q1008 NOSIG=
202010162030 METAR VIDP 162030Z 00000KT 2500 HZ NSC 21/14 Q1008 NOSIG=
202010162000 METAR VIDP 162000Z 00000KT 2500 HZ NSC 21/14 Q1008 NOSIG=
202010161930 METAR VIDP 161930Z 00000KT 2500 HZ NSC 22/15 Q1008 NOSIG=
202010161900 METAR VIDP 161900Z 00000KT 2500 HZ NSC 22/15 Q1008 NOSIG=
202010161830 METAR VIDP 161830Z 00000KT 2500 HZ NSC 22/15 Q1008 NOSIG=
202010161800 METAR VIDP 161800Z 00000KT 2500 HZ NSC 23/12 Q1009 NOSIG=
202010161730 METAR VIDP 161730Z 00000KT 2500 HZ NSC 24/12 Q1009 NOSIG=
202010161700 METAR VIDP 161700Z 00000KT 2500 HZ NSC 25/12 Q1009 NOSIG=
202010161630 METAR VIDP 161630Z 00000KT 2500 HZ NSC 25/12 Q1009 NOSIG=
202010161600 METAR VIDP 161600Z 00000KT 2500 HZ NSC 26/11 Q1009 NOSIG=
202010161530 METAR VIDP 161530Z 00000KT 2500 HZ NSC 26/11 Q1009 NOSIG=
202010161500 METAR VIDP 161500Z 00000KT 2500 HZ NSC 27/11 Q1008 NOSIG=
202010161430 METAR VIDP 161430Z 00000KT 2500 HZ NSC 28/10 Q1008 NOSIG=
202010161400 METAR VIDP 161400Z 30003KT 2500 HZ NSC 29/09 Q1008 NOSIG=
202010161330 METAR VIDP 161330Z 30004KT 2500 HZ NSC 30/08 Q1007 NOSIG=
202010161300 METAR VIDP 161300Z 32004KT 2800 HZ NSC 30/08 Q1007 NOSIG=
202010161230 METAR VIDP 161230Z 31005KT 3000 HZ NSC 31/09 Q1007 NOSIG=
202010161200 METAR VIDP 161200Z 31004KT 3000 HZ NSC 32/10 Q1007 NOSIG=
202010161130 METAR VIDP 161130Z 32004KT 3000 HZ NSC 33/09 Q1007 NOSIG=
202010161100 METAR VIDP 161100Z 29004KT 3200 HZ NSC 33/08 Q1007 BECMG 3000 HZ=
202010161030 METAR VIDP 161030Z 30004KT 3500 HZ NSC 33/08 Q1007 NOSIG=
202010161000 METAR VIDP 161000Z 30004KT 3500 HZ NSC 33/08 Q1007 NOSIG=
202010160930 METAR VIDP 160930Z 30005KT 3500 HZ NSC 33/07 Q1007 NOSIG=
202010160900 METAR VIDP 160900Z 28003KT 3500 HZ NSC 33/07 Q1008 NOSIG=
202010160830 METAR VIDP 160830Z 27003KT 3500 HZ NSC 33/07 Q1008 NOSIG=
202010160800 METAR VIDP 160800Z 27005KT 4000 HZ NSC 33/08 Q1009 NOSIG=
202010160730 METAR VIDP 160730Z 34004KT 4000 HZ NSC 33/08 Q1009 NOSIG=
202010160700 METAR VIDP 160700Z 29004KT 4000 HZ NSC 32/09 Q1009 NOSIG=
202010160630 METAR VIDP 160630Z 33003KT 4000 HZ NSC 32/10 Q1010 NOSIG=
202010160600 METAR VIDP 160600Z 32003KT 3500 HZ NSC 31/11 Q1010 NOSIG=
202010160530 METAR VIDP 160530Z 31004KT 3500 HZ NSC 30/11 Q1011 NOSIG=
202010160500 METAR VIDP 160500Z 00000KT 3000 HZ NSC 29/11 Q1011 NOSIG=
202010160430 METAR VIDP 160430Z 00000KT 2500 FU NSC 29/11 Q1011 BECMG 3000 HZ=
202010160400 METAR VIDP 160400Z 29003KT 2200 FU NSC 27/12 Q1011 NOSIG=
202010160330 METAR VIDP 160330Z 00000KT 1600 R28/P2000 R29/P2000 FU NSC 25/12 Q1011 NOSIG=
202010160300 METAR VIDP 160300Z 00000KT 1500 R28/P2000 R29/P2000 FU NSC 23/13 Q1010 NOSIG=
202010160230 METAR VIDP 160230Z 00000KT 1400 R28/P2000 R29/P2000 FU NSC 22/13 Q1010 BECMG 1500 FU=
202010160200 METAR VIDP 160200Z 00000KT 1300 R28/P2000 R29/P2000 FU NSC 21/14 Q1009 NOSIG=
202010160130 METAR VIDP 160130Z 25003KT 1300 R28/P2000 R29/P2000 FU NSC 21/14 Q1009 NOSIG=
202010160100 METAR VIDP 160100Z 24003KT 1600 R28/P2000 R29/P2000 FU NSC 21/14 Q1008 BECMG 1500 FU=
202010160030 METAR VIDP 160030Z 27003KT 1800 R28/P2000 R29/P2000 FU NSC 21/14 Q1008 NOSIG=
202010160000 METAR VIDP 160000Z 00000KT 2100 FU NSC 21/14 Q1008 NOSIG=
202010152330 METAR VIDP 152330Z 00000KT 2100 FU NSC 22/15 Q1007 NOSIG=
202010152300 METAR VIDP 152300Z 00000KT 2300 FU NSC 22/15 Q1007 NOSIG=
202010152230 METAR VIDP 152230Z 00000KT 2300 FU NSC 22/15 Q1007 NOSIG=
202010152200 METAR VIDP 152200Z 00000KT 2300 FU NSC 22/15 Q1007 NOSIG=
202010152130 METAR VIDP 152130Z 00000KT 2500 FU NSC 22/15 Q1007 NOSIG=
202010152100 METAR COR VIDP 152100Z 00000KT 2500 FU NSC 23/15 Q1007 NOSIG=
202010152030 METAR VIDP 152030Z 00000KT 2500 FU NSC 23/14 Q1007 NOSIG=
202010152000 METAR VIDP 152000Z 00000KT 2500 FU NSC 23/14 Q1008 NOSIG=
202010151930 METAR VIDP 151930Z 00000KT 2500 FU NSC 24/14 Q1008 NOSIG=
202010151900 METAR VIDP 151900Z 00000KT 2800 HZ NSC 24/14 Q1008 NOSIG=
202010151830 METAR VIDP 151830Z 00000KT 2800 HZ NSC 25/14 Q1008 NOSIG=
202010151800 METAR VIDP 151800Z 00000KT 2800 HZ NSC 25/14 Q1008 NOSIG=
202010151730 METAR VIDP 151730Z 00000KT 2800 HZ NSC 25/14 Q1008 NOSIG=
202010151700 METAR VIDP 151700Z 00000KT 2800 HZ NSC 25/14 Q1008 NOSIG=
202010151630 METAR VIDP 151630Z 00000KT 3000 HZ NSC 25/14 Q1008 NOSIG=
202010151600 METAR VIDP 151600Z 00000KT 3000 HZ NSC 26/14 Q1008 NOSIG=
202010151530 METAR VIDP 151530Z 00000KT 3200 HZ NSC 27/13 Q1008 BECMG 3000 HZ=
202010151500 METAR VIDP 151500Z 00000KT 3200 HZ NSC 28/12 Q1008 NOSIG=
202010151430 METAR VIDP 151430Z 00000KT 3200 HZ NSC 29/12 Q1008 NOSIG=
202010151400 METAR VIDP 151400Z 32003KT 3200 HZ NSC 30/12 Q1008 NOSIG=
202010151330 METAR VIDP 151330Z 34003KT 3200 HZ NSC 31/12 Q1007 NOSIG=
202010151300 METAR VIDP 151300Z 33003KT 3200 HZ NSC 31/12 Q1007 NOSIG=
202010151230 METAR VIDP 151230Z 30004KT 3200 HZ NSC 32/11 Q1007 NOSIG=
202010151200 METAR VIDP 151200Z 31005KT 3500 HZ NSC 33/10 Q1007 NOSIG=
202010151130 METAR VIDP 151130Z 32005KT 3500 HZ NSC 33/09 Q1007 NOSIG=
202010151100 METAR VIDP 151100Z 34006KT 3500 HZ NSC 34/09 Q1007 NOSIG=
202010151030 METAR VIDP 151030Z 33006KT 3500 HZ NSC 34/10 Q1007 NOSIG=
202010151000 METAR VIDP 151000Z 34007KT 3000 HZ FEW100 34/10 Q1007 NOSIG=
202010150930 METAR VIDP 150930Z 32006KT 3000 HZ FEW100 34/10 Q1007 NOSIG=
202010150900 METAR VIDP 150900Z 33006KT 3000 HZ FEW100 34/10 Q1008 NOSIG=
202010150830 METAR VIDP 150830Z 34005KT 3000 HZ FEW100 34/09 Q1008 NOSIG=
202010150800 METAR VIDP 150800Z 31005KT 3000 HZ FEW100 34/09 Q1008 NOSIG=
202010150730 METAR VIDP 150730Z 30005KT 2800 HZ FEW100 34/10 Q1009 BECMG 3000 HZ=
202010150700 METAR VIDP 150700Z 28005KT 2500 HZ FEW100 34/12 Q1010 NOSIG=
202010150630 METAR VIDP 150630Z 28003KT 2200 FU FEW100 33/14 Q1010 NOSIG=
202010150600 METAR VIDP 150600Z 26003KT 2200 FU FEW100 33/14 Q1010 NOSIG=
202010150530 METAR VIDP 150530Z 30003KT 2200 FU FEW100 32/15 Q1011 NOSIG=
202010150500 METAR VIDP 150500Z 00000KT 2200 FU FEW100 31/16 Q1011 NOSIG=
202010150430 METAR VIDP 150430Z 00000KT 1800 R28/P2000 R29/P2000 FU FEW100 30/17 Q1011 NOSIG=
202010150400 METAR VIDP 150400Z 00000KT 1500 R28/P2000 R29/P2000 FU FEW100 28/17 Q1011 NOSIG=
202010150330 METAR VIDP 150330Z 00000KT 1400 R28/P2000 R29/P2000 FU FEW100 27/17 Q1011 BECMG 1500 FU=
202010150300 METAR COR VIDP 150300Z 00000KT 1200 R28/1800 R29/P2000 FU SCT100 25/18 Q1011 NOSIG=
202010150230 METAR VIDP 150230Z 00000KT 1200 R28/P2000 R29/P2000 HZ SCT100 24/18 Q1010 NOSIG=
202010150200 METAR VIDP 150200Z 00000KT 1200 R28/P2000 R29/P2000 BR SCT100 23/19 Q1010 NOSIG=
202010150130 METAR VIDP 150130Z 00000KT 1200 R28/P2000 R29/P2000 BR SCT100 23/19 Q1010 NOSIG=
202010150100 METAR VIDP 150100Z 00000KT 1800 R28/P2000 R29/P2000 BR SCT100 23/19 Q1009 BECMG 1500 BR=
202010150030 METAR VIDP 150030Z 00000KT 2200 HZ SCT100 24/19 Q1009 NOSIG=
202010150000 METAR VIDP 150000Z 00000KT 2200 HZ SCT100 25/19 Q1009 NOSIG=
202010142330 METAR VIDP 142330Z 00000KT 2200 HZ SCT100 26/18 Q1008 NOSIG=
202010142300 METAR VIDP 142300Z 00000KT 2200 HZ SCT100 26/18 Q1008 NOSIG=
202010142230 METAR VIDP 142230Z 00000KT 2200 HZ SCT100 26/18 Q1008 NOSIG=
202010142200 METAR VIDP 142200Z 00000KT 2200 HZ SCT100 26/18 Q1008 NOSIG=
202010142130 METAR VIDP 142130Z 00000KT 2200 HZ SCT100 26/18 Q1008 NOSIG=
202010142100 METAR VIDP 142100Z 00000KT 2200 HZ SCT100 26/18 Q1008 NOSIG=
202010142030 METAR VIDP 142030Z 00000KT 2200 HZ SCT100 26/18 Q1008 NOSIG=
202010142000 METAR VIDP 142000Z 00000KT 2200 HZ SCT100 27/18 Q1008 NOSIG=
202010141930 METAR VIDP 141930Z 00000KT 2200 HZ SCT100 27/18 Q1008 NOSIG=
202010141900 METAR VIDP 141900Z 00000KT 2200 HZ SCT100 27/18 Q1008 NOSIG=
202010141830 METAR VIDP 141830Z 00000KT 2200 HZ SCT100 27/18 Q1009 NOSIG=
202010141800 METAR VIDP 141800Z 00000KT 2200 HZ SCT100 27/18 Q1009 NOSIG=
202010141730 METAR VIDP 141730Z 00000KT 2200 FU SCT100 27/18 Q1008 NOSIG=
202010141700 METAR VIDP 141700Z 00000KT 2200 FU SCT100 27/18 Q1008 NOSIG=
202010141630 METAR VIDP 141630Z 34003KT 2200 FU SCT100 27/18 Q1008 NOSIG=
202010141600 METAR VIDP 141600Z 03003KT 2200 FU SCT100 27/18 Q1008 NOSIG=
202010141530 METAR VIDP 141530Z 00000KT 2200 FU SCT100 27/17 Q1008 NOSIG=
202010141500 METAR VIDP 141500Z 00000KT 2500 FU SCT100 29/17 Q1008 NOSIG=
202010141430 METAR VIDP 141430Z 05003KT 2500 FU SCT100 29/17 Q1007 NOSIG=
202010141400 METAR VIDP 141400Z 00000KT 2500 FU SCT100 29/18 Q1007 NOSIG=
202010141330 METAR VIDP 141330Z 00000KT 2500 FU SCT100 30/17 Q1007 NOSIG=
202010141300 METAR VIDP 141300Z 05003KT 2500 FU SCT100 31/17 Q1007 NOSIG=
202010141230 METAR VIDP 141230Z 05004KT 2500 FU SCT100 32/17 Q1007 NOSIG=
202010141200 METAR VIDP 141200Z 05004KT 2500 FU FEW040 SCT100 32/17 Q1007 NOSIG=
202010141130 METAR VIDP 141130Z 03004KT 2500 FU SCT040 SCT100 33/18 Q1006 NOSIG=
202010141100 METAR VIDP 141100Z 01005KT 2500 FU SCT040 SCT100 33/18 Q1006 NOSIG=
202010141030 METAR VIDP 141030Z 35004KT 2500 FU FEW040 SCT100 33/17 Q1006 NOSIG=
202010141000 METAR VIDP 141000Z 35004KT 2500 FU FEW040 SCT100 33/18 Q1007 NOSIG=
202010140930 METAR COR VIDP 140930Z 35004KT 2500 FU SCT100 34/18 Q1007 NOSIG=
202010140900 METAR VIDP 140900Z 35004KT 2500 FU SCT100 34/19 Q1007 NOSIG=
202010140830 METAR VIDP 140830Z 35004KT 2300 FU FEW100 34/18 Q1007 NOSIG=
202010140800 METAR VIDP 140800Z 00000KT 2300 FU SCT100 33/18 Q1008 NOSIG=
202010140730 METAR VIDP 140730Z 27004KT 2100 FU FEW100 33/18 Q1008 NOSIG=
202010140700 METAR VIDP 140700Z 00000KT 2000 R28/P2000 R29/P2000 FU FEW100 33/19 Q1009 NOSIG=
202010140630 METAR VIDP 140630Z 08004KT 2000 R28/P2000 R29/P2000 FU FEW100 33/19 Q1009 NOSIG=
202010140600 METAR VIDP 140600Z 05003KT 1800 R28/P2000 R29/P2000 FU FEW040 SCT100 32/19 Q1010 NOSIG=
202010140530 METAR VIDP 140530Z 00000KT 1800 R28/P2000 R29/P2000 FU FEW040 SCT100 32/19 Q1010 NOSIG=
202010140500 METAR VIDP 140500Z 00000KT 1800 R28/P2000 R29/P2000 FU FEW040 SCT100 31/19 Q1010 NOSIG=
202010140430 METAR VIDP 140430Z 00000KT 1800 R28/P2000 R29/P2000 FU FEW040 SCT100 30/20 Q1010 NOSIG=
202010140400 METAR VIDP 140400Z 00000KT 1500 R28/P2000 R29/P2000 FU FEW040 SCT100 30/19 Q1010 NOSIG=
202010140330 METAR VIDP 140330Z 00000KT 1300 R28/P2000 R29/P2000 FU FEW040 SCT100 29/20 Q1010 BECMG 1500 FU=
202010140300 METAR VIDP 140300Z 00000KT 1200 R28/P2000 R29/P2000 FU FEW040 SCT100 28/21 Q1010 NOSIG=
202010140230 METAR VIDP 140230Z 00000KT 1200 R28/P2000 R29/P2000 FU FEW040 SCT100 27/21 Q1010 NOSIG=
202010140200 METAR VIDP 140200Z 00000KT 1600 R28/P2000 R29/P2000 BR FEW040 SCT100 25/21 Q1009 BECMG 1500 BR=
202010140130 METAR VIDP 140130Z 00000KT 1800 R28/P2000 R29/P2000 BR FEW040 SCT100 25/22 Q1009 NOSIG=
202010140100 METAR VIDP 140100Z 00000KT 2100 BR FEW040 SCT100 25/21 Q1009 NOSIG=
202010140030 METAR VIDP 140030Z 21003KT 2200 BR FEW040 SCT100 26/22 Q1008 NOSIG=
202010140000 METAR VIDP 140000Z 00000KT 2200 BR FEW040 SCT100 26/22 Q1008 NOSIG=
202010132330 METAR VIDP 132330Z 00000KT 2200 BR FEW040 SCT100 26/22 Q1008 NOSIG=
202010132300 METAR VIDP 132300Z 00000KT 2200 BR FEW040 SCT100 26/22 Q1007 NOSIG=
202010132230 METAR VIDP 132230Z 00000KT 2200 BR FEW040 SCT100 26/22 Q1007 NOSIG=
202010132200 METAR VIDP 132200Z 14004KT 2200 BR FEW040 SCT100 26/23 Q1007 NOSIG=
202010132130 METAR VIDP 132130Z 00000KT 2200 BR FEW100 26/23 Q1007 NOSIG=
202010132100 METAR VIDP 132100Z 00000KT 2200 BR FEW100 26/23 Q1007 NOSIG=
202010132030 METAR VIDP 132030Z 00000KT 2200 BR FEW100 27/23 Q1007 NOSIG=
202010132000 METAR VIDP 132000Z 00000KT 2200 BR FEW100 27/23 Q1007 NOSIG=
202010131930 METAR VIDP 131930Z 00000KT 2200 BR FEW100 27/23 Q1007 NOSIG=
202010131900 METAR VIDP 131900Z 11003KT 2200 BR FEW100 27/23 Q1007 NOSIG=
202010131830 METAR VIDP 131830Z 12003KT 2200 HZ FEW100 27/22 Q1007 NOSIG=
202010131800 METAR VIDP 131800Z 00000KT 2200 HZ FEW100 27/21 Q1007 NOSIG=
202010131730 METAR VIDP 131730Z 00000KT 2200 HZ FEW100 28/21 Q1007 NOSIG=
202010131700 METAR VIDP 131700Z 00000KT 2200 HZ FEW100 28/21 Q1007 NOSIG=
202010131630 METAR VIDP 131630Z 07003KT 2200 HZ FEW100 28/21 Q1007 NOSIG=
202010131600 METAR VIDP 131600Z 08004KT 2200 HZ FEW100 28/21 Q1007 NOSIG=
202010131530 METAR VIDP 131530Z 08004KT 2200 HZ FEW100 28/21 Q1007 NOSIG=
202010131500 METAR VIDP 131500Z 09003KT 2200 HZ FEW100 28/21 Q1007 NOSIG=
202010131430 METAR VIDP 131430Z 10003KT 2200 HZ FEW100 29/21 Q1007 NOSIG=
202010131400 METAR VIDP 131400Z 10004KT 2100 FU FEW100 30/21 Q1006 NOSIG=
202010131330 METAR VIDP 131330Z 00000KT 2100 FU FEW100 30/20 Q1006 NOSIG=
202010131300 METAR VIDP 131300Z 00000KT 2200 FU FEW100 30/20 Q1006 NOSIG=
202010131230 METAR VIDP 131230Z 06004KT 2200 FU FEW100 31/20 Q1005 NOSIG=
202010131200 METAR VIDP 131200Z 06005KT 2500 HZ FEW100 32/20 Q1005 NOSIG=
202010131130 METAR VIDP 131130Z 07004KT 2500 HZ FEW100 32/19 Q1005 NOSIG=
202010131100 METAR VIDP 131100Z 09004KT 2500 HZ FEW100 33/19 Q1005 NOSIG=
202010131030 METAR VIDP 131030Z 07005KT 2500 HZ FEW100 33/18 Q1005 NOSIG=
202010131000 METAR VIDP 131000Z 09006KT 2500 HZ FEW100 33/16 Q1005 NOSIG=
202010130930 METAR VIDP 130930Z 13004KT 2500 HZ FEW100 34/14 Q1005 NOSIG=
202010130900 METAR VIDP 130900Z 14004KT 2500 HZ FEW100 35/14 Q1006 NOSIG=
202010130830 METAR VIDP 130830Z 15004KT 2500 HZ FEW100 35/15 Q1006 NOSIG=
202010130800 METAR VIDP 130800Z 10004KT 2500 HZ FEW100 34/14 Q1006 NOSIG=
202010130730 METAR VIDP 130730Z 13004KT 2500 HZ FEW100 34/15 Q1007 NOSIG=
202010130700 METAR VIDP 130700Z 16004KT 2000 HZ FEW100 33/16 Q1007 NOSIG=
202010130630 METAR VIDP 130630Z 10004KT 2000 HZ NSC 32/18 Q1007 NOSIG=
202010130600 METAR VIDP 130600Z 14004KT 2000 HZ NSC 31/18 Q1008 NOSIG=
202010130530 METAR VIDP 130530Z 15005KT 1800 R28/P2000 R29/P2000 FU NSC 30/19 Q1008 NOSIG=
202010130500 METAR VIDP 130500Z 15004KT 1800 R28/P2000 R29/P2000 FU NSC 29/19 Q1008 NOSIG=
202010130430 METAR VIDP 130430Z 12004KT 1500 R28/P2000 R29/P2000 FU NSC 28/19 Q1008 NOSIG=
202010130400 METAR VIDP 130400Z 12003KT 1500 R28/P2000 R29/P2000 FU NSC 27/19 Q1008 NOSIG=
202010130330 METAR VIDP 130330Z 11004KT 1500 R28/P2000 R29/P2000 FU NSC 26/18 Q1008 NOSIG=
202010130300 METAR VIDP 130300Z 00000KT 1500 R28/P2000 R29/P2000 FU NSC 25/18 Q1008 NOSIG=
202010130230 METAR VIDP 130230Z 00000KT 1600 R28/1900 R29/P2000 FU NSC 23/18 Q1007 BECMG 1500 FU=
202010130200 METAR VIDP 130200Z 00000KT 1800 R28/P2000 R29/P2000 BR NSC 22/18 Q1007 NOSIG=
202010130130 METAR VIDP 130130Z 00000KT 1800 R28/P2000 R29/P2000 BR NSC 22/18 Q1007 NOSIG=
202010130100 METAR VIDP 130100Z 00000KT 2200 BR NSC 22/18 Q1006 NOSIG=
202010130030 METAR VIDP 130030Z 00000KT 2500 BR NSC 22/18 Q1006 NOSIG=
202010130000 METAR VIDP 130000Z 00000KT 2500 BR NSC 22/18 Q1005 NOSIG=
202010122330 METAR VIDP 122330Z 00000KT 2500 BR NSC 22/18 Q1005 NOSIG=
202010122300 METAR VIDP 122300Z 00000KT 2500 BR NSC 22/18 Q1005 NOSIG=
202010122230 METAR VIDP 122230Z 00000KT 2500 BR NSC 22/18 Q1005 NOSIG=
202010122200 METAR VIDP 122200Z 00000KT 2500 BR NSC 22/18 Q1005 NOSIG=
202010122130 METAR VIDP 122130Z 00000KT 2500 BR NSC 22/18 Q1005 NOSIG=
202010122100 METAR VIDP 122100Z 00000KT 2500 HZ NSC 23/17 Q1005 NOSIG=
202010122030 METAR VIDP 122030Z 00000KT 2500 HZ NSC 23/17 Q1006 NOSIG=
202010122000 METAR VIDP 122000Z 00000KT 2500 HZ NSC 23/17 Q1006 NOSIG=
202010121930 METAR VIDP 121930Z 00000KT 2500 HZ NSC 23/17 Q1006 NOSIG=
202010121900 METAR VIDP 121900Z 00000KT 2500 HZ NSC 23/17 Q1006 NOSIG=
202010121830 METAR VIDP 121830Z 00000KT 2500 HZ NSC 24/17 Q1006 NOSIG=
202010121800 METAR VIDP 121800Z 00000KT 2500 HZ NSC 24/16 Q1006 NOSIG=
202010121730 METAR VIDP 121730Z 00000KT 2500 HZ NSC 24/16 Q1006 NOSIG=
202010121700 METAR VIDP 121700Z 00000KT 2500 HZ NSC 25/16 Q1006 NOSIG=
202010121630 METAR VIDP 121630Z 00000KT 2500 HZ NSC 25/16 Q1006 NOSIG=
202010121600 METAR VIDP 121600Z 00000KT 2500 HZ NSC 25/15 Q1006 NOSIG=
202010121530 METAR VIDP 121530Z 00000KT 2500 HZ NSC 26/15 Q1005 NOSIG=
202010121500 METAR VIDP 121500Z 00000KT 2500 HZ NSC 27/14 Q1005 NOSIG=
202010121430 METAR VIDP 121430Z 00000KT 2500 HZ NSC 28/13 Q1004 NOSIG=
202010121400 METAR VIDP 121400Z 00000KT 2500 HZ NSC 29/12 Q1004 NOSIG=
202010121330 METAR VIDP 121330Z 00000KT 2500 HZ NSC 30/12 Q1004 NOSIG=
202010121300 METAR VIDP 121300Z 30003KT 2500 HZ NSC 31/12 Q1004 NOSIG=
202010121230 METAR VIDP 121230Z 28004KT 2500 HZ NSC 32/11 Q1003 NOSIG=
202010121200 METAR VIDP 121200Z 31005KT 3000 HZ NSC 33/12 Q1003 NOSIG=
202010121130 METAR VIDP 121130Z 30004KT 3000 HZ NSC 34/13 Q1003 NOSIG=
202010121100 METAR VIDP 121100Z 31005KT 3000 HZ NSC 34/13 Q1003 NOSIG=
202010121030 METAR VIDP 121030Z 31005KT 3000 HZ NSC 34/13 Q1003 NOSIG=
202010121000 METAR VIDP 121000Z 30005KT 3000 HZ NSC 34/13 Q1003 NOSIG=
202010120930 METAR VIDP 120930Z 32004KT 3000 HZ NSC 34/13 Q1004 NOSIG=
202010120900 METAR VIDP 120900Z 32005KT 3500 HZ NSC 34/13 Q1004 BECMG 3000 HZ=
202010120830 METAR VIDP 120830Z 32005KT 3500 HZ NSC 34/14 Q1005 NOSIG=
202010120800 METAR VIDP 120800Z 27004KT 3500 HZ NSC 34/14 Q1005 NOSIG=
202010120730 METAR VIDP 120730Z 27004KT 3500 HZ NSC 33/14 Q1006 NOSIG=
202010120700 METAR VIDP 120700Z 31003KT 3500 HZ NSC 33/14 Q1006 NOSIG=
202010120630 METAR VIDP 120630Z 32003KT 3200 HZ NSC 32/15 Q1007 NOSIG=
202010120600 METAR VIDP 120600Z 31003KT 3200 HZ NSC 31/15 Q1007 NOSIG=
202010120530 METAR VIDP 120530Z 28003KT 3000 HZ NSC 30/16 Q1007 NOSIG=
202010120500 METAR VIDP 120500Z 28003KT 2800 HZ NSC 29/16 Q1008 BECMG 3000 HZ=
202010120430 METAR VIDP 120430Z 27003KT 2800 HZ NSC 28/16 Q1008 NOSIG=
202010120400 METAR VIDP 120400Z 27003KT 2500 HZ NSC 27/16 Q1008 NOSIG=
202010120330 METAR VIDP 120330Z 27003KT 2500 HZ NSC 25/16 Q1008 NOSIG=
202010120300 METAR VIDP 120300Z 25003KT 2200 FU NSC 24/17 Q1007 NOSIG=
202010120230 METAR VIDP 120230Z 26003KT 1800 R28/P2000 R29/P2000 FU NSC 23/17 Q1007 NOSIG=
202010120200 METAR VIDP 120200Z 28004KT 1500 R28/P2000 R28/P2000 BR NSC 22/18 Q1007 NOSIG=
202010120130 METAR VIDP 120130Z 00000KT 1800 R28/P2000 R29/P2000 BR NSC 22/18 Q1007 BECMG 1500 BR=
202010120100 METAR VIDP 120100Z 00000KT 2100 BR NSC 22/18 Q1006 NOSIG=
202010120030 METAR VIDP 120030Z 00000KT 2200 BR NSC 22/18 Q1006 NOSIG=
202010120000 METAR VIDP 120000Z 00000KT 2200 BR NSC 22/18 Q1006 NOSIG=
202010112330 METAR VIDP 112330Z 00000KT 2200 BR NSC 22/18 Q1006 NOSIG=
202010112300 METAR VIDP 112300Z 00000KT 2200 BR NSC 22/18 Q1006 NOSIG=
202010112230 METAR VIDP 112230Z 00000KT 2200 BR NSC 22/18 Q1006 NOSIG=
202010112200 METAR VIDP 112200Z 00000KT 2200 BR NSC 22/18 Q1006 NOSIG=
202010112130 METAR VIDP 112130Z 00000KT 2200 BR NSC 22/18 Q1006 NOSIG=
202010112100 METAR VIDP 112100Z 00000KT 2500 BR NSC 22/18 Q1006 NOSIG=
202010112030 METAR VIDP 112030Z 00000KT 2500 BR NSC 22/18 Q1006 NOSIG=
202010112000 METAR VIDP 112000Z 00000KT 2500 HZ NSC 23/18 Q1006 NOSIG=
202010111930 METAR VIDP 111930Z 00000KT 2500 HZ NSC 23/18 Q1006 NOSIG=
202010111900 METAR VIDP 111900Z 00000KT 2800 HZ NSC 24/18 Q1006 NOSIG=
202010111830 METAR VIDP 111830Z 00000KT 2800 HZ NSC 24/17 Q1006 NOSIG=
202010111800 METAR VIDP 111800Z 00000KT 2800 HZ NSC 25/17 Q1007 NOSIG=
202010111730 METAR VIDP 111730Z 00000KT 2800 HZ NSC 25/17 Q1007 NOSIG=
202010111700 METAR VIDP 111700Z 00000KT 2800 HZ NSC 25/16 Q1007 NOSIG=
202010111630 METAR VIDP 111630Z 00000KT 2800 HZ NSC 26/16 Q1006 NOSIG=
202010111600 METAR VIDP 111600Z 00000KT 2800 HZ NSC 27/16 Q1006 NOSIG=
202010111530 METAR VIDP 111530Z 00000KT 3000 HZ NSC 28/15 Q1006 NOSIG=
202010111500 METAR VIDP 111500Z 00000KT 3000 HZ NSC 29/15 Q1006 NOSIG=
202010111430 METAR VIDP 111430Z 00000KT 3200 HZ NSC 29/15 Q1006 BECMG 3000 HZ=
202010111400 METAR VIDP 111400Z 26003KT 3500 HZ NSC 29/15 Q1005 NOSIG=
202010111330 METAR VIDP 111330Z 00000KT 3500 HZ NSC 29/15 Q1005 NOSIG=
202010111300 METAR VIDP 111300Z 28004KT 4000 HZ NSC 30/14 Q1005 NOSIG=
202010111230 METAR VIDP 111230Z 30004KT 4000 HZ NSC 32/14 Q1005 NOSIG=
202010111200 METAR VIDP 111200Z 29007KT 4000 HZ NSC 33/14 Q1005 NOSIG=
202010111130 METAR VIDP 111130Z 30008KT 4000 HZ NSC 33/14 Q1005 NOSIG=
202010111101 METAR VIDP 111101Z 31009KT 4000 HZ NSC 34/13 Q1005 NOSIG=
202010111100 METAR VIDP 111100Z 31009KT 4000 HZ NSC 34/13 Q1005 NOSIG=
202010111030 METAR VIDP 111030Z 30009KT 4000 HZ NSC 34/13 Q1005 NOSIG=
202010111000 METAR VIDP 111000Z 30008KT 4000 HZ NSC 34/14 Q1005 NOSIG=
202010110930 METAR VIDP 110930Z 31009KT 4000 HZ NSC 34/14 Q1005 NOSIG=
202010110900 METAR VIDP 110900Z 29008KT 4000 HZ NSC 34/13 Q1006 NOSIG=
202010110830 METAR VIDP 110830Z 30008KT 4000 HZ NSC 34/14 Q1006 NOSIG=
202010110800 METAR VIDP 110800Z 30008KT 4000 HZ NSC 34/15 Q1006 NOSIG=
202010110730 METAR VIDP 110730Z 28006KT 3500 HZ NSC 33/16 Q1007 NOSIG=
202010110700 METAR VIDP 110700Z 30007KT 3000 HZ NSC 33/17 Q1008 NOSIG=
202010110630 METAR VIDP 110630Z 30004KT 3000 HZ NSC 32/17 Q1008 NOSIG=
202010110600 METAR VIDP 110600Z 30003KT 3000 HZ NSC 31/18 Q1009 NOSIG=
202010110530 METAR VIDP 110530Z 28004KT 3000 HZ NSC 30/18 Q1009 NOSIG=
202010110500 METAR VIDP 110500Z 27004KT 3000 HZ NSC 28/18 Q1009 NOSIG=
202010110430 METAR VIDP 110430Z 27005KT 3000 HZ NSC 27/18 Q1010 NOSIG=
202010110400 METAR VIDP 110400Z 27004KT 3000 HZ NSC 26/17 Q1010 NOSIG=
202010110330 METAR VIDP 110330Z 27003KT 2800 HZ NSC 25/17 Q1010 BECMG 3000 HZ=
202010110300 METAR VIDP 110300Z 27003KT 2500 HZ NSC 24/17 Q1009 BECMG 3000 HZ=
202010110230 METAR VIDP 110230Z 27003KT 2500 HZ NSC 23/18 Q1009 BECMG 3000 HZ=
202010110200 METAR VIDP 110200Z 29004KT 2100 BR NSC 22/18 Q1009 NOSIG=
202010110130 METAR VIDP 110130Z 00000KT 2500 BR NSC 22/18 Q1008 NOSIG=
202010110100 METAR VIDP 110100Z 00000KT 2500 BR NSC 22/18 Q1008 NOSIG=
202010110030 METAR VIDP 110030Z 00000KT 2500 BR NSC 22/18 Q1008 NOSIG=
202010110000 METAR VIDP 110000Z 00000KT 2500 BR NSC 22/18 Q1008 NOSIG=
202010102330 METAR VIDP 102330Z 00000KT 2500 BR NSC 22/18 Q1008 NOSIG=
202010102300 METAR VIDP 102300Z 00000KT 2500 BR NSC 22/18 Q1008 NOSIG=
202010102230 METAR VIDP 102230Z 00000KT 3000 HZ NSC 23/17 Q1008 NOSIG=
202010102200 METAR VIDP 102200Z 00000KT 3000 HZ NSC 23/17 Q1008 NOSIG=
202010102130 METAR VIDP 102130Z 23003KT 3000 HZ NSC 23/18 Q1008 NOSIG=
202010102100 METAR VIDP 102100Z 25003KT 3000 HZ NSC 24/19 Q1008 NOSIG=
202010102030 METAR VIDP 102030Z 26003KT 3000 HZ NSC 25/18 Q1008 NOSIG=
202010102000 METAR VIDP 102000Z 00000KT 3000 HZ NSC 25/18 Q1008 NOSIG=
202010101930 METAR VIDP 101930Z 23002KT 3000 HZ NSC 25/18 Q1008 NOSIG=
202010101900 METAR VIDP 101900Z 23002KT 3000 HZ NSC 26/18 Q1008 NOSIG=
202010101830 METAR VIDP 101830Z 24003KT 3000 HZ NSC 26/17 Q1008 NOSIG=
202010101800 METAR VIDP 101800Z 24003KT 3000 HZ NSC 27/17 Q1008 NOSIG=
202010101730 METAR VIDP 101730Z 24003KT 3000 HZ NSC 27/17 Q1008 NOSIG=
202010101700 METAR VIDP 101700Z 00000KT 3000 HZ NSC 29/18 Q1008 NOSIG=
202010101630 METAR VIDP 101630Z 00000KT 3000 HZ NSC 29/18 Q1008 NOSIG=
202010101600 METAR VIDP 101600Z 29005KT 3000 HZ NSC 29/16 Q1008 NOSIG=
202010101530 METAR VIDP 101530Z 28004KT 3000 HZ NSC 29/16 Q1008 NOSIG=
202010101500 METAR VIDP 101500Z 30005KT 3000 HZ NSC 29/16 Q1007 NOSIG=
202010101430 METAR VIDP 101430Z 29004KT 3000 HZ NSC 29/16 Q1007 NOSIG=
202010101400 METAR VIDP 101400Z 28003KT 3000 HZ NSC 29/16 Q1007 NOSIG=
202010101330 METAR VIDP 101330Z 28003KT 3500 HZ NSC 29/16 Q1007 BECMG 3000 HZ=
202010101300 METAR VIDP 101300Z 29003KT 3500 HZ NSC 30/15 Q1007 NOSIG=
202010101230 METAR VIDP 101230Z 31006KT 3500 HZ NSC 31/15 Q1007 NOSIG=
202010101200 METAR VIDP 101200Z 30007KT 3500 HZ NSC 32/15 Q1007 NOSIG=
202010101130 METAR VIDP 101130Z 32007KT 3500 HZ NSC 33/15 Q1007 NOSIG=
202010101100 METAR VIDP 101100Z 31008KT 3000 HZ NSC 33/15 Q1007 NOSIG=
202010101030 METAR VIDP 101030Z 30009KT 3000 HZ NSC 33/16 Q1007 NOSIG=
202010101000 METAR VIDP 101000Z 30007KT 3000 HZ NSC 33/16 Q1007 NOSIG=
202010100930 METAR VIDP 100930Z 30007KT 3000 HZ NSC 34/16 Q1008 NOSIG=
202010100900 METAR VIDP 100900Z 32006KT 3000 HZ NSC 34/15 Q1008 NOSIG=
202010100830 METAR VIDP 100830Z 30007KT 2800 HZ NSC 34/15 Q1009 BECMG 3000 HZ=
202010100800 METAR VIDP 100800Z 29007KT 2700 HZ NSC 34/15 Q1010 NOSIG=
202010100730 METAR VIDP 100730Z 28006KT 2700 HZ NSC 33/15 Q1010 NOSIG=
202010100700 METAR VIDP 100700Z 29005KT 2500 HZ NSC 33/16 Q1010 NOSIG=
202010100630 METAR VIDP 100630Z 29005KT 2500 HZ NSC 32/16 Q1011 NOSIG=
202010100600 METAR VIDP 100600Z 27004KT 2100 HZ NSC 31/16 Q1011 NOSIG=
202010100530 METAR VIDP 100530Z 28004KT 2100 HZ NSC 31/16 Q1012 NOSIG=
202010100500 METAR VIDP 100500Z 28004KT 2100 HZ NSC 30/16 Q1012 NOSIG=
202010100430 METAR VIDP 100430Z 28003KT 2100 HZ NSC 29/16 Q1012 NOSIG=
202010100400 METAR VIDP 100400Z 24004KT 2100 HZ NSC 28/16 Q1012 NOSIG=
202010100330 METAR VIDP 100330Z 26004KT 2100 HZ NSC 26/17 Q1012 NOSIG=
202010100300 METAR VIDP 100300Z 25004KT 2100 HZ NSC 24/17 Q1011 NOSIG=
202010100230 METAR VIDP 100230Z 00000KT 2100 BR NSC 22/18 Q1011 NOSIG=
202010100200 METAR VIDP 100200Z 00000KT 2100 BR NSC 22/18 Q1011 NOSIG=
202010100130 METAR VIDP 100130Z 00000KT 2100 BR NSC 22/18 Q1010 NOSIG=
202010100100 METAR VIDP 100100Z 00000KT 2500 BR NSC 21/17 Q1010 NOSIG=
202010100030 METAR VIDP 100030Z 00000KT 2500 BR NSC 21/17 Q1010 NOSIG=
202010100000 METAR VIDP 100000Z 00000KT 2800 BR NSC 22/18 Q1010 NOSIG=
202010092330 METAR VIDP 092330Z 00000KT 2800 BR NSC 22/18 Q1010 NOSIG=
202010092300 METAR VIDP 092300Z 25004KT 2800 BR NSC 22/18 Q1009 NOSIG=
202010092230 METAR VIDP 092230Z 00000KT 2800 BR NSC 23/19 Q1009 NOSIG=
202010092200 METAR VIDP 092200Z 00000KT 3000 HZ NSC 23/18 Q1009 NOSIG=
202010092130 METAR VIDP 092130Z 00000KT 3000 HZ NSC 24/19 Q1009 NOSIG=
202010092100 METAR VIDP 092100Z 00000KT 3000 HZ NSC 25/19 Q1009 NOSIG=
202010092030 METAR VIDP 092030Z 00000KT 3000 HZ NSC 25/18 Q1009 NOSIG=
202010092000 METAR VIDP 092000Z 00000KT 3000 HZ NSC 25/18 Q1009 NOSIG=
202010091930 METAR VIDP 091930Z 00000KT 3000 HZ NSC 26/17 Q1009 NOSIG=
202010091900 METAR VIDP 091900Z 00000KT 3000 HZ NSC 27/16 Q1010 NOSIG=
202010091830 METAR VIDP 091830Z 00000KT 3000 HZ NSC 27/16 Q1010 NOSIG=
202010091800 METAR VIDP 091800Z 00000KT 3000 HZ NSC 27/16 Q1010 NOSIG=
202010091730 METAR VIDP 091730Z 00000KT 3000 HZ NSC 27/15 Q1010 NOSIG=
202010091700 METAR VIDP 091700Z 00000KT 3200 HZ NSC 28/15 Q1010 BECMG 3000 HZ=
202010091630 METAR VIDP 091630Z 31004KT 3200 HZ NSC 28/15 Q1010 NOSIG=
202010091600 METAR VIDP 091600Z 32004KT 3200 HZ NSC 28/15 Q1010 NOSIG=
202010091530 METAR VIDP 091530Z 33004KT 3200 HZ NSC 29/15 Q1009 NOSIG=
202010091500 METAR VIDP 091500Z 32005KT 3500 HZ NSC 29/15 Q1009 NOSIG=
202010091430 METAR VIDP 091430Z 30004KT 3500 HZ NSC 29/15 Q1009 NOSIG=
202010091400 METAR VIDP 091400Z 29003KT 3500 HZ NSC 30/14 Q1009 NOSIG=
202010091330 METAR VIDP 091330Z 28004KT 3500 HZ NSC 31/13 Q1009 NOSIG=
202010091300 METAR VIDP 091300Z 29005KT 3500 HZ NSC 32/13 Q1008 NOSIG=
202010091230 METAR VIDP 091230Z 32005KT 3500 HZ NSC 32/12 Q1008 NOSIG=
202010091200 METAR VIDP 091200Z 31005KT 4000 HZ NSC 33/13 Q1008 NOSIG=
202010091130 METAR VIDP 091130Z 30005KT 4000 HZ NSC 33/12 Q1008 NOSIG=
202010091100 METAR VIDP 091100Z 34007KT 4000 HZ NSC 34/12 Q1008 NOSIG=
202010091030 METAR VIDP 091030Z 32005KT 4000 HZ NSC 34/12 Q1009 NOSIG=
202010091000 METAR VIDP 091000Z 31006KT 4000 HZ NSC 34/13 Q1009 NOSIG=
202010090930 METAR VIDP 090930Z 34006KT 3500 HZ NSC 34/13 Q1009 NOSIG=
202010090900 METAR VIDP 090900Z 33004KT 3000 HZ NSC 34/14 Q1010 NOSIG=
202010090830 METAR VIDP 090830Z 33005KT 3000 HZ NSC 34/15 Q1010 NOSIG=
202010090800 METAR VIDP 090800Z 33005KT 3000 HZ NSC 33/16 Q1010 NOSIG=
202010090730 METAR VIDP 090730Z 29005KT 3000 HZ NSC 33/17 Q1011 NOSIG=
202010090700 METAR VIDP 090700Z 26003KT 3000 HZ NSC 32/17 Q1012 NOSIG=
202010090630 METAR VIDP 090630Z 19003KT 3000 HZ NSC 31/17 Q1012 NOSIG=
202010090600 METAR VIDP 090600Z 15003KT 3000 HZ NSC 30/18 Q1012 NOSIG=
202010090530 METAR VIDP 090530Z 32003KT 3000 HZ NSC 29/17 Q1013 NOSIG=
202010090500 METAR VIDP 090500Z 32002KT 3000 HZ NSC 28/17 Q1013 NOSIG=
202010090430 METAR VIDP 090430Z 23002KT 3000 HZ NSC 26/17 Q1013 NOSIG=
202010090400 METAR VIDP 090400Z 25003KT 3000 HZ NSC 25/17 Q1013 NOSIG=
202010090330 METAR VIDP 090330Z 26003KT 3000 HZ NSC 25/16 Q1013 NOSIG=
202010090300 METAR VIDP 090300Z 26003KT 3000 HZ NSC 24/16 Q1013 NOSIG=
202010090230 METAR VIDP 090230Z 26003KT 3000 HZ NSC 23/17 Q1012 NOSIG=
202010090200 METAR VIDP 090200Z 00000KT 3000 HZ NSC 23/17 Q1012 NOSIG=
202010090130 METAR VIDP 090130Z 00000KT 2800 BR NSC 21/18 Q1011 BECMG 3000 BR=
202010090100 METAR VIDP 090100Z 00000KT 2500 BR NSC 21/18 Q1011 NOSIG=
202010090030 METAR VIDP 090030Z 00000KT 2500 BR NSC 21/18 Q1011 NOSIG=
202010090000 METAR VIDP 090000Z 00000KT 2500 BR NSC 21/18 Q1011 NOSIG=
202010082330 METAR VIDP 082330Z 00000KT 3000 HZ NSC 22/17 Q1010 NOSIG=
202010082300 METAR VIDP 082300Z 00000KT 3000 HZ NSC 23/18 Q1010 NOSIG=
202010082230 METAR VIDP 082230Z 00000KT 3000 HZ NSC 23/18 Q1010 NOSIG=
202010082200 METAR VIDP 082200Z 00000KT 3000 HZ NSC 23/18 Q1010 NOSIG=
202010082130 METAR VIDP 082130Z 00000KT 3000 HZ NSC 23/18 Q1010 NOSIG=
202010082100 METAR VIDP 082100Z 00000KT 3000 HZ NSC 23/18 Q1010 NOSIG=
202010082030 METAR VIDP 082030Z 00000KT 3000 HZ NSC 23/17 Q1010 NOSIG=
202010082000 METAR VIDP 082000Z 00000KT 3000 HZ NSC 24/17 Q1010 NOSIG=
202010081930 METAR VIDP 081930Z 00000KT 3000 HZ NSC 24/17 Q1010 NOSIG=
202010081900 METAR VIDP 081900Z 00000KT 3000 HZ NSC 24/17 Q1010 NOSIG=
202010081830 METAR VIDP 081830Z 00000KT 3000 HZ NSC 24/17 Q1010 NOSIG=
202010081800 METAR VIDP 081800Z 00000KT 3000 HZ NSC 25/17 Q1010 NOSIG=
202010081730 METAR VIDP 081730Z 00000KT 3000 HZ NSC 26/17 Q1010 NOSIG=
202010081700 METAR VIDP 081700Z 00000KT 3000 HZ NSC 26/17 Q1010 NOSIG=
202010081630 METAR VIDP 081630Z 00000KT 3000 HZ NSC 26/17 Q1010 NOSIG=
202010081600 METAR VIDP 081600Z 31003KT 3000 HZ NSC 27/17 Q1010 NOSIG=
202010081530 METAR VIDP 081530Z 31003KT 3000 HZ NSC 28/16 Q1010 NOSIG=
202010081500 METAR VIDP 081500Z 31004KT 3000 HZ NSC 29/16 Q1010 NOSIG=
202010081430 METAR VIDP 081430Z 30004KT 3000 HZ NSC 30/15 Q1009 NOSIG=
202010081400 METAR VIDP 081400Z 30003KT 3000 HZ NSC 31/14 Q1009 NOSIG=
202010081330 METAR VIDP 081330Z 30003KT 3500 HZ NSC 32/14 Q1009 BECMG 3000 HZ=
202010081300 METAR VIDP 081300Z 30004KT 3500 HZ NSC 33/14 Q1009 NOSIG=
202010081230 METAR VIDP 081230Z 30005KT 3500 HZ NSC 33/13 Q1009 NOSIG=
202010081200 METAR VIDP 081200Z 30006KT 3500 HZ NSC 33/14 Q1008 NOSIG=
202010081130 METAR VIDP 081130Z 31007KT 3500 HZ NSC 34/14 Q1008 NOSIG=
202010081100 METAR VIDP 081100Z 31007KT 3500 HZ NSC 34/14 Q1009 NOSIG=
202010081030 METAR VIDP 081030Z 30008KT 3500 HZ NSC 34/13 Q1009 NOSIG=
202010081000 METAR VIDP 081000Z 30008KT 3500 HZ NSC 35/13 Q1009 NOSIG=
202010080930 METAR VIDP 080930Z 31008KT 3500 HZ NSC 35/13 Q1009 NOSIG=
202010080900 METAR VIDP 080900Z 31009KT 3500 HZ NSC 35/13 Q1009 NOSIG=
202010080830 METAR VIDP 080830Z 31007KT 3500 HZ NSC 35/14 Q1010 NOSIG=
202010080800 METAR VIDP 080800Z 30006KT 3500 HZ NSC 34/14 Q1010 NOSIG=
202010080730 METAR VIDP 080730Z 30007KT 3200 HZ NSC 34/15 Q1011 NOSIG=
202010080700 METAR VIDP 080700Z 29006KT 2800 HZ NSC 33/16 Q1011 BECMG 3000 HZ=
202010080630 METAR VIDP 080630Z 29006KT 2500 HZ NSC 33/16 Q1012 NOSIG=
202010080600 METAR VIDP 080600Z 27004KT 2500 HZ NSC 31/17 Q1012 NOSIG=
202010080530 METAR VIDP 080530Z 26005KT 2500 HZ NSC 31/18 Q1012 NOSIG=
202010080500 METAR VIDP 080500Z 25005KT 2200 HZ NSC 30/18 Q1012 NOSIG=
202010080430 METAR VIDP 080430Z 26005KT 2200 HZ NSC 29/18 Q1013 NOSIG=
202010080400 METAR VIDP 080400Z 26005KT 1800 R28/P2000 R29/P2000 HZ NSC 28/17 Q1012 NOSIG=
202010080330 METAR VIDP 080330Z 24004KT 1800 R28/P2000 R29/P2000 HZ NSC 27/18 Q1012 NOSIG=
202010080300 METAR VIDP 080300Z 27004KT 1600 R28/1900 R29/P2000 HZ NSC 25/18 Q1012 NOSIG=
202010080230 METAR VIDP 080230Z 28003KT 1500 R28/1900 R29/P2000 HZ NSC 24/18 Q1011 NOSIG=
202010080200 METAR VIDP 080200Z 00000KT 1500 R28/P2000 R29/P2000 BR NSC 23/19 Q1011 NOSIG=
202010080130 METAR VIDP 080130Z 00000KT 1600 R28/P2000 R29/P2000 BR NSC 23/19 Q1011 BECMG 1500 BR=
202010080100 METAR VIDP 080100Z 00000KT 1700 R28/P2000 R29/P2000 BR NSC 23/19 Q1011 BECMG 1500 BR=
202010080030 METAR VIDP 080030Z 00000KT 1800 R28/P2000 R29/P2000 BR NSC 23/19 Q1010 BECMG 1500 BR=
202010080000 METAR VIDP 080000Z 00000KT 2000 BR NSC 23/19 Q1010 NOSIG=
202010072330 METAR VIDP 072330Z 00000KT 2200 BR NSC 23/19 Q1010 NOSIG=
202010072300 METAR VIDP 072300Z 00000KT 2200 BR NSC 23/19 Q1009 NOSIG=
202010072230 METAR VIDP 072230Z 00000KT 2200 BR NSC 23/19 Q1009 NOSIG=
202010072200 METAR VIDP 072200Z 00000KT 2200 BR NSC 23/19 Q1010 NOSIG=
202010072130 METAR VIDP 072130Z 00000KT 2200 BR NSC 23/19 Q1010 NOSIG=
202010072100 METAR VIDP 072100Z 00000KT 2500 HZ NSC 23/18 Q1010 NOSIG=
202010072030 METAR VIDP 072030Z 00000KT 2500 HZ NSC 24/17 Q1010 NOSIG=
202010072000 METAR VIDP 072000Z 00000KT 2500 HZ NSC 24/17 Q1010 NOSIG=
202010071930 METAR VIDP 071930Z 00000KT 2500 HZ NSC 25/17 Q1010 NOSIG=
202010071900 METAR VIDP 071900Z 00000KT 2500 HZ NSC 25/17 Q1011 NOSIG=
202010071830 METAR VIDP 071830Z 00000KT 2800 HZ NSC 26/16 Q1011 NOSIG=
202010071800 METAR VIDP 071800Z 00000KT 3200 HZ NSC 26/16 Q1011 BECMG 3000 HZ=
202010071730 METAR VIDP 071730Z 34003KT 3500 HZ NSC 28/16 Q1011 NOSIG=
202010071700 METAR VIDP 071700Z 35004KT 3500 HZ NSC 29/16 Q1011 NOSIG=
202010071630 METAR COR VIDP 071630Z 36003KT 3500 HZ NSC 29/15 Q1010 NOSIG=
202010071600 METAR VIDP 071600Z 35005KT 3500 HZ NSC 30/14 Q1010 NOSIG=
202010071530 METAR VIDP 071530Z 34005KT 3500 HZ NSC 30/14 Q1010 NOSIG=
202010071500 METAR VIDP 071500Z 34005KT 3500 HZ NSC 30/13 Q1010 NOSIG=
202010071430 METAR VIDP 071430Z 32006KT 3500 HZ NSC 30/14 Q1009 NOSIG=
202010071400 METAR VIDP 071400Z 31003KT 3500 HZ NSC 30/15 Q1009 NOSIG=
202010071330 METAR VIDP 071330Z 32004KT 3500 HZ NSC 31/15 Q1009 NOSIG=
202010071300 METAR VIDP 071300Z 32004KT 3500 HZ NSC 31/14 Q1008 NOSIG=
202010071230 METAR VIDP 071230Z 30004KT 3500 HZ NSC 32/13 Q1008 NOSIG=
202010071200 METAR VIDP 071200Z 32006KT 4000 HZ NSC 33/12 Q1008 NOSIG=
202010071130 METAR VIDP 071130Z 31009KT 4500 HZ NSC 35/11 Q1008 NOSIG=
202010071100 METAR VIDP 071100Z 32009KT 4500 HZ NSC 35/11 Q1008 NOSIG=
202010071030 METAR VIDP 071030Z 32009KT 4500 HZ NSC 35/11 Q1008 NOSIG=
202010071000 METAR VIDP 071000Z 31009KT 4500 HZ NSC 35/11 Q1008 NOSIG=
202010070930 METAR VIDP 070930Z 30008G18KT 4500 HZ NSC 35/12 Q1009 NOSIG=
202010070900 METAR VIDP 070900Z 32008KT 4500 HZ NSC 35/13 Q1009 NOSIG=
202010070800 METAR VIDP 070800Z 29007KT 5000 HZ NSC 35/16 Q1010 NOSIG=
202010070730 METAR VIDP 070730Z 30006KT 5000 HZ NSC 34/16 Q1010 NOSIG=
202010070700 METAR COR VIDP 070700Z 29004KT 5000 HZ NSC 34/16 Q1010 NOSIG=
202010070630 METAR VIDP 070630Z 30004KT 5000 HZ NSC 33/17 Q1011 NOSIG=
202010070600 METAR VIDP 070600Z 30003KT 5000 HZ NSC 32/17 Q1012 NOSIG=
202010070530 METAR VIDP 070530Z 27004KT 4500 HZ NSC 31/17 Q1012 BECMG 5000 HZ=
202010070500 METAR VIDP 070500Z 26004KT 4000 HZ NSC 30/17 Q1012 NOSIG=
202010070430 METAR VIDP 070430Z 28004KT 3500 HZ NSC 28/17 Q1012 NOSIG=
202010070400 METAR VIDP 070400Z 27004KT 3500 HZ NSC 27/17 Q1012 NOSIG=
202010070330 METAR VIDP 070330Z 28004KT 3000 HZ NSC 26/18 Q1012 NOSIG=
202010070300 METAR VIDP 070300Z 27003KT 2800 HZ NSC 25/18 Q1011 BECMG 3000 HZ=
202010070230 METAR VIDP 070230Z 26004KT 2200 BR NSC 23/18 Q1011 NOSIG=
202010070200 METAR VIDP 070200Z 27004KT 1800 R28/P2000 R29/P2000 BR NSC 22/18 Q1011 NOSIG=
202010070130 METAR VIDP 070130Z 26004KT 1800 R28/P2000 R29/P2000 BR NSC 22/18 Q1011 NOSIG=
202010070100 METAR VIDP 070100Z 00000KT 2200 BR NSC 22/18 Q1010 NOSIG=
202010070030 METAR VIDP 070030Z 00000KT 2500 BR NSC 21/18 Q1010 NOSIG=
202010070000 METAR VIDP 070000Z 00000KT 2500 BR NSC 21/18 Q1009 NOSIG=
202010062330 METAR VIDP 062330Z 00000KT 3000 BR NSC 21/18 Q1009 NOSIG=
202010062300 METAR VIDP 062300Z 00000KT 3000 BR NSC 21/18 Q1009 NOSIG=
202010062230 METAR VIDP 062230Z 27004KT 3000 BR NSC 21/18 Q1009 NOSIG=
202010062200 METAR VIDP 062200Z 28003KT 3000 BR NSC 21/18 Q1009 NOSIG=
202010062130 METAR COR VIDP 062130Z 00000KT 3000 BR NSC 21/18 Q1009 NOSIG=
202010062100 METAR VIDP 062100Z 00000KT 3000 BR NSC 21/18 Q1009 NOSIG=
202010062030 METAR VIDP 062030Z 00000KT 3000 BR NSC 22/18 Q1009 NOSIG=
202010062000 METAR VIDP 062000Z 00000KT 3000 HZ NSC 23/18 Q1009 NOSIG=
202010061930 METAR VIDP 061930Z 00000KT 3000 HZ NSC 24/17 Q1009 NOSIG=
202010061900 METAR VIDP 061900Z 10002KT 3000 HZ NSC 25/17 Q1009 NOSIG=
202010061830 METAR VIDP 061830Z 00000KT 3000 HZ NSC 25/17 Q1009 NOSIG=
202010061800 METAR VIDP 061800Z 11002KT 3000 HZ NSC 26/16 Q1009 NOSIG=
202010061730 METAR VIDP 061730Z 07003KT 3500 HZ NSC 27/15 Q1009 BECMG 3000 HZ=
202010061700 METAR VIDP 061700Z 00000KT 3500 HZ NSC 27/15 Q1008 NOSIG=
202010061630 METAR VIDP 061630Z 00000KT 3500 HZ NSC 27/15 Q1008 NOSIG=
202010061600 METAR VIDP 061600Z 00000KT 3500 HZ NSC 27/16 Q1008 NOSIG=
202010061530 METAR VIDP 061530Z 00000KT 3500 HZ NSC 28/17 Q1008 NOSIG=
202010061500 METAR VIDP 061500Z 00000KT 3500 HZ NSC 29/17 Q1008 NOSIG=
202010061430 METAR VIDP 061430Z 33002KT 3500 HZ NSC 30/17 Q1008 NOSIG=
202010061400 METAR VIDP 061400Z 00000KT 3500 HZ NSC 30/16 Q1007 NOSIG=
202010061330 METAR VIDP 061330Z 00000KT 3500 HZ NSC 31/16 Q1007 NOSIG=
202010061300 METAR VIDP 061300Z 28003KT 3500 HZ NSC 31/16 Q1006 NOSIG=
202010061230 METAR VIDP 061230Z 31006KT 3500 HZ NSC 33/14 Q1006 NOSIG=
202010061200 METAR VIDP 061200Z 30007KT 3500 HZ NSC 34/13 Q1006 NOSIG=
202010061130 METAR VIDP 061130Z 30008KT 3500 HZ NSC 35/13 Q1006 NOSIG=
202010061100 METAR VIDP 061100Z 31011KT 3500 HZ NSC 35/12 Q1007 NOSIG=
202010061030 METAR VIDP 061030Z 30010KT 3500 HZ NSC 35/12 Q1007 NOSIG=
202010061000 METAR VIDP 061000Z 31009KT 3500 HZ NSC 35/12 Q1007 NOSIG=
202010060930 METAR VIDP 060930Z 30010KT 3500 HZ NSC 35/12 Q1007 NOSIG=
202010060900 METAR VIDP 060900Z 29008KT 3500 HZ NSC 35/12 Q1007 NOSIG=
202010060830 METAR VIDP 060830Z 31008KT 3000 HZ NSC 35/12 Q1008 NOSIG=
202010060800 METAR VIDP 060800Z 30010KT 3000 HZ NSC 34/11 Q1008 NOSIG=
202010060730 METAR VIDP 060730Z 30008KT 2800 HZ NSC 34/11 Q1008 BECMG 3000 HZ=
202010060700 METAR VIDP 060700Z 30009KT 2500 HZ NSC 34/10 Q1009 NOSIG=
202010060630 METAR VIDP 060630Z 29009KT 2200 HZ NSC 33/12 Q1009 NOSIG=
202010060600 METAR VIDP 060600Z 30009KT 2100 HZ NSC 32/14 Q1009 NOSIG=
202010060530 METAR VIDP 060530Z 28008KT 2100 HZ NSC 31/16 Q1010 NOSIG=
202010060500 METAR VIDP 060500Z 29004KT 1800 R28/P2000 R29/P2000 HZ NSC 30/16 Q1010 NOSIG=
202010060430 METAR VIDP 060430Z 27004KT 1800 R28/P2000 R29/P2000 HZ NSC 28/15 Q1010 NOSIG=
202010060400 METAR VIDP 060400Z 27005KT 1800 R28/P2000 R29/P2000 HZ NSC 27/15 Q1010 NOSIG=
202010060330 METAR VIDP 060330Z 27006KT 1800 R28/P2000 R29/P2000 HZ NSC 25/15 Q1010 NOSIG=
202010060300 METAR VIDP 060300Z 27006KT 1800 R28/P2000 R29/P2000 HZ NSC 24/15 Q1009 NOSIG=
202010060230 METAR VIDP 060230Z 26004KT 2000 R28/P2000 R29/P2000 HZ NSC 23/16 Q1009 NOSIG=
202010060200 METAR VIDP 060200Z 27004KT 2200 BR NSC 22/18 Q1009 NOSIG=
202010060130 METAR VIDP 060130Z 00000KT 2200 BR NSC 22/18 Q1009 NOSIG=
202010060100 METAR VIDP 060100Z 00000KT 2500 BR NSC 22/18 Q1008 NOSIG=
202010060030 METAR VIDP 060030Z 00000KT 2800 BR NSC 22/18 Q1008 NOSIG=
202010060000 METAR VIDP 060000Z 00000KT 3000 BR NSC 22/18 Q1008 NOSIG=
202010052330 METAR VIDP 052330Z 00000KT 3000 HZ NSC 22/17 Q1008 NOSIG=
202010052300 METAR VIDP 052300Z 00000KT 3000 HZ NSC 22/17 Q1007 NOSIG=
202010052230 METAR VIDP 052230Z 00000KT 3000 HZ NSC 23/17 Q1007 NOSIG=
202010052200 METAR VIDP 052200Z 00000KT 3000 HZ NSC 23/17 Q1007 NOSIG=
202010052130 METAR VIDP 052130Z 00000KT 3000 HZ NSC 23/18 Q1007 NOSIG=
202010052100 METAR VIDP 052100Z 00000KT 3200 HZ NSC 23/17 Q1007 BECMG 3000 HZ=
202010052030 METAR VIDP 052030Z 00000KT 3200 HZ NSC 24/17 Q1007 NOSIG=
202010052000 METAR VIDP 052000Z 00000KT 3200 HZ NSC 24/17 Q1008 NOSIG=
202010051930 METAR VIDP 051930Z 00000KT 3500 HZ NSC 24/16 Q1008 NOSIG=
202010051900 METAR VIDP 051900Z 00000KT 3500 HZ NSC 25/16 Q1008 NOSIG=
202010051830 METAR VIDP 051830Z 00000KT 3500 HZ NSC 26/15 Q1008 NOSIG=
202010051800 METAR VIDP 051800Z 00000KT 3500 HZ NSC 26/15 Q1008 NOSIG=
202010051730 METAR VIDP 051730Z 00000KT 3500 HZ NSC 26/15 Q1008 NOSIG=
202010051700 METAR VIDP 051700Z 00000KT 3500 HZ NSC 26/15 Q1008 NOSIG=
202010051630 METAR VIDP 051630Z 00000KT 3500 HZ NSC 27/14 Q1008 NOSIG=
202010051600 METAR VIDP 051600Z 00000KT 3500 HZ NSC 27/14 Q1008 NOSIG=
202010051530 METAR VIDP 051530Z 00000KT 3500 HZ NSC 28/13 Q1007 NOSIG=
202010051500 METAR VIDP 051500Z 00000KT 3500 HZ NSC 29/13 Q1007 NOSIG=
202010051430 METAR VIDP 051430Z 28003KT 3500 HZ NSC 29/12 Q1007 NOSIG=
202010051400 METAR VIDP 051400Z 30004KT 3500 HZ NSC 30/11 Q1006 NOSIG=
202010051330 METAR VIDP 051330Z 30005KT 4000 HZ NSC 31/11 Q1006 NOSIG=
202010051300 METAR VIDP 051300Z 31005KT 4000 HZ NSC 32/11 Q1006 NOSIG=
202010051230 METAR VIDP 051230Z 30006KT 5000 HZ NSC 33/11 Q1006 NOSIG=
202010051200 METAR VIDP 051200Z 32008G18KT 5000 HZ NSC 33/11 Q1006 NOSIG=
202010051130 METAR VIDP 051130Z 30008G18KT 5500 HZ NSC 34/11 Q1006 BECMG 5000 HZ=
202010051100 METAR VIDP 051100Z 31007G17KT 6000 NSC 34/12 Q1006 NOSIG=
202010051030 METAR VIDP 051030Z 32010G20KT 6000 NSC 35/12 Q1006 NOSIG=
202010051000 METAR VIDP 051000Z 30012G22KT 6000 NSC 35/12 Q1006 NOSIG=
202010050930 METAR VIDP 050930Z 30008G18KT 5000 HZ NSC 35/12 Q1006 NOSIG=
202010050900 METAR VIDP 050900Z 31008G18KT 4500 HZ NSC 35/12 Q1006 BECMG 5000 HZ=
202010050830 METAR VIDP 050830Z 30008G18KT 4000 HZ NSC 35/12 Q1006 NOSIG=
202010050800 METAR VIDP 050800Z 29007G17KT 3500 HZ NSC 34/12 Q1007 NOSIG=
202010050730 METAR VIDP 050730Z 30008KT 3500 HZ NSC 34/12 Q1007 NOSIG=
202010050700 METAR VIDP 050700Z 31009KT 3000 HZ NSC 33/13 Q1008 NOSIG=
202010050630 METAR VIDP 050630Z 30010KT 2500 HZ NSC 32/14 Q1008 BECMG 3000 HZ=
202010050600 METAR VIDP 050600Z 30010KT 2500 HZ NSC 31/15 Q1009 NOSIG=
202010050530 METAR VIDP 050530Z 29007KT 2000 HZ NSC 30/15 Q1009 NOSIG=
202010050500 METAR VIDP 050500Z 29006KT 2000 HZ NSC 29/16 Q1009 NOSIG=
202010050430 METAR VIDP 050430Z 28004KT 1800 R28/P2000 R29/P2000 HZ NSC 28/17 Q1010 NOSIG=
202010050400 METAR VIDP 050400Z 28004KT 1800 R28/P2000 R29/P2000 HZ NSC 27/17 Q1010 NOSIG=
202010050330 METAR VIDP 050330Z 27003KT 1800 R28/P2000 R29/P2000 HZ NSC 25/17 Q1009 NOSIG=
202010050300 METAR VIDP 050300Z 25004KT 2000 HZ NSC 24/17 Q1009 NOSIG=
202010050230 METAR VIDP 050230Z 23003KT 2000 HZ NSC 23/17 Q1009 NOSIG=
202010050200 METAR VIDP 050200Z 26003KT 2500 HZ NSC 23/17 Q1009 NOSIG=
202010050130 METAR VIDP 050130Z 00000KT 2500 HZ NSC 22/17 Q1008 NOSIG=
202010050100 METAR VIDP 050100Z 00000KT 3000 BR NSC 21/18 Q1008 NOSIG=
202010050030 METAR VIDP 050030Z 00000KT 3000 BR NSC 22/18 Q1008 NOSIG=
202010050000 METAR COR VIDP 050000Z 00000KT 3000 BR NSC 22/18 Q1008 NOSIG=
202010042330 METAR VIDP 042330Z 00000KT 3000 BR NSC 22/18 Q1008 NOSIG=
202010042300 METAR VIDP 042300Z 00000KT 3000 HZ NSC 23/18 Q1007 NOSIG=
202010042230 METAR VIDP 042230Z 00000KT 3000 BR NSC 22/18 Q1007 NOSIG=
202010042200 METAR VIDP 042200Z 00000KT 3000 BR NSC 22/18 Q1007 NOSIG=
202010042130 METAR VIDP 042130Z 00000KT 3000 BR NSC 22/18 Q1008 NOSIG=
202010042100 METAR VIDP 042100Z 00000KT 3000 HZ NSC 23/18 Q1008 NOSIG=
202010042030 METAR VIDP 042030Z 00000KT 3000 HZ NSC 23/18 Q1008 NOSIG=
202010042000 METAR VIDP 042000Z 00000KT 3000 HZ NSC 24/17 Q1008 NOSIG=
202010041930 METAR VIDP 041930Z 00000KT 3000 HZ NSC 24/16 Q1008 NOSIG=
202010041900 METAR VIDP 041900Z 00000KT 3000 HZ NSC 24/16 Q1008 NOSIG=
202010041830 METAR VIDP 041830Z 00000KT 3000 HZ NSC 25/16 Q1008 NOSIG=
202010041800 METAR VIDP 041800Z 00000KT 3000 HZ NSC 26/16 Q1008 NOSIG=
202010041730 METAR VIDP 041730Z 00000KT 3000 HZ NSC 27/16 Q1008 NOSIG=
202010041700 METAR VIDP 041700Z 00000KT 3000 HZ NSC 27/16 Q1008 NOSIG=
202010041630 METAR VIDP 041630Z 00000KT 3000 HZ NSC 27/16 Q1008 NOSIG=
202010041600 METAR VIDP 041600Z 00000KT 3000 HZ NSC 28/16 Q1008 NOSIG=
202010041530 METAR VIDP 041530Z 30004KT 3000 HZ NSC 28/15 Q1007 NOSIG=
202010041500 METAR VIDP 041500Z 31004KT 3000 HZ NSC 29/15 Q1007 NOSIG=
202010041430 METAR VIDP 041430Z 32004KT 3000 HZ NSC 29/14 Q1007 NOSIG=
202010041400 METAR VIDP 041400Z 30003KT 3000 HZ NSC 29/14 Q1006 NOSIG=
202010041330 METAR VIDP 041330Z 28003KT 3000 HZ NSC 30/13 Q1006 NOSIG=
202010041300 METAR VIDP 041300Z 30003KT 3500 HZ NSC 31/12 Q1006 BECMG 3000 HZ=
202010041230 METAR VIDP 041230Z 32004KT 4000 HZ NSC 31/12 Q1006 NOSIG=
202010041200 METAR VIDP 041200Z 32007KT 4000 HZ NSC 32/12 Q1006 NOSIG=
202010041130 METAR VIDP 041130Z 29007KT 4000 HZ NSC 33/12 Q1006 NOSIG=
202010041100 METAR VIDP 041100Z 29007KT 4000 HZ NSC 34/12 Q1006 NOSIG=
202010041030 METAR VIDP 041030Z 30006KT 4000 HZ NSC 34/12 Q1006 NOSIG=
202010041000 METAR VIDP 041000Z 29007KT 4000 HZ NSC 34/13 Q1006 NOSIG=
202010040930 METAR VIDP 040930Z 30006KT 4000 HZ NSC 34/13 Q1006 NOSIG=
202010040900 METAR VIDP 040900Z 29008KT 3500 HZ NSC 34/13 Q1007 NOSIG=
202010040830 METAR VIDP 040830Z 30006KT 3500 HZ NSC 34/14 Q1007 NOSIG=
202010040800 METAR VIDP 040800Z 31005KT 3500 HZ NSC 34/15 Q1008 NOSIG=
202010040730 METAR VIDP 040730Z 31004KT 3500 HZ NSC 34/15 Q1008 NOSIG=
202010040700 METAR VIDP 040700Z 32005KT 3000 HZ NSC 33/16 Q1009 NOSIG=
202010040630 METAR VIDP 040630Z 31006KT 2800 HZ NSC 33/17 Q1010 BECMG 3000 HZ=
202010040600 METAR VIDP 040600Z 32004KT 2800 HZ NSC 32/17 Q1010 NOSIG=
202010040530 METAR VIDP 040530Z 31004KT 2500 HZ NSC 31/17 Q1010 NOSIG=
202010040500 METAR VIDP 040500Z 33004KT 2500 HZ NSC 31/18 Q1010 NOSIG=
202010040430 METAR VIDP 040430Z 30003KT 2200 HZ NSC 29/18 Q1010 NOSIG=
202010040400 METAR VIDP 040400Z 26004KT 1800 R28/1800 R29/P2000 HZ NSC 28/18 Q1010 NOSIG=
202010040330 METAR VIDP 040330Z 26004KT 1800 R28/1800 R29/P2000 HZ NSC 26/17 Q1010 NOSIG=
202010040300 METAR VIDP 040300Z 27004KT 1800 R28/1800 R29/P2000 HZ NSC 25/17 Q1010 NOSIG=
202010040230 METAR VIDP 040230Z 00000KT 1500 R28/1700 R29/P2000 HZ NSC 23/17 Q1010 NOSIG=
202010040200 METAR VIDP 040200Z 00000KT 1500 R28/1700 R29/P2000 BR NSC 21/17 Q1009 NOSIG=
202010040130 METAR VIDP 040130Z 00000KT 1600 R28/1800 R29/P2000 BR NSC 21/17 Q1009 BECMG 1500 BR=
202010040100 METAR VIDP 040100Z 00000KT 1800 R28/P2000 R29/P2000 BR NSC 21/18 Q1009 NOSIG=
202010040030 METAR VIDP 040030Z 00000KT 1800 R28/P2000 R29/P2000 BR NSC 21/18 Q1009 NOSIG=
202010040000 METAR VIDP 040000Z 00000KT 2200 BR NSC 21/18 Q1008 NOSIG=
202010032330 METAR VIDP 032330Z 00000KT 2200 BR NSC 21/18 Q1008 NOSIG=
202010032300 METAR VIDP 032300Z 00000KT 2200 BR NSC 21/18 Q1008 NOSIG=
202010032230 METAR VIDP 032230Z 00000KT 2200 BR NSC 22/18 Q1008 NOSIG=
202010032200 METAR VIDP 032200Z 00000KT 2200 BR NSC 22/18 Q1008 NOSIG=
202010032130 METAR VIDP 032130Z 26004KT 2200 HZ NSC 23/18 Q1008 NOSIG=
202010032100 METAR VIDP 032100Z 00000KT 2200 HZ NSC 23/18 Q1008 NOSIG=
202010032030 METAR VIDP 032030Z 00000KT 2500 HZ NSC 23/18 Q1008 NOSIG=
202010032000 METAR VIDP 032000Z 09004KT 2500 HZ NSC 23/17 Q1008 NOSIG=
202010031930 METAR VIDP 031930Z 09002KT 2500 HZ NSC 24/16 Q1008 NOSIG=
202010031900 METAR VIDP 031900Z 09003KT 2700 HZ NSC 24/16 Q1008 NOSIG=
202010031830 METAR VIDP 031830Z 00000KT 2700 HZ NSC 26/17 Q1008 NOSIG=
202010031800 METAR VIDP 031800Z 00000KT 2700 HZ NSC 26/16 Q1008 NOSIG=
202010031730 METAR VIDP 031730Z 00000KT 2700 HZ NSC 26/16 Q1008 NOSIG=
202010031700 METAR VIDP 031700Z 32003KT 2700 HZ NSC 28/16 Q1008 NOSIG=
202010031630 METAR VIDP 031630Z 32003KT 2700 HZ NSC 29/16 Q1008 NOSIG=
202010031600 METAR VIDP 031600Z 33004KT 2700 HZ NSC 29/16 Q1008 NOSIG=
202010031530 METAR VIDP 031530Z 34004KT 2700 HZ NSC 29/15 Q1008 NOSIG=
202010031500 METAR VIDP 031500Z 33005KT 2700 HZ NSC 29/15 Q1007 NOSIG=
202010031430 METAR VIDP 031430Z 34003KT 3200 HZ NSC 29/13 Q1007 BECMG 3000 HZ=
202010031400 METAR VIDP 031400Z 00000KT 3500 HZ NSC 30/12 Q1007 NOSIG=
202010031330 METAR VIDP 031330Z 31003KT 3500 HZ NSC 31/11 Q1006 NOSIG=
202010031300 METAR VIDP 031300Z 32006KT 3500 HZ NSC 32/11 Q1006 NOSIG=
202010031230 METAR VIDP 031230Z 30006KT 4000 HZ NSC 32/12 Q1006 NOSIG=
202010031200 METAR VIDP 031200Z 29006KT 4000 HZ NSC 33/12 Q1006 NOSIG=
202010031130 METAR VIDP 031130Z 29006KT 4000 HZ NSC 34/10 Q1006 NOSIG=
202010031100 METAR VIDP 031100Z 29007KT 4000 HZ NSC 34/10 Q1006 NOSIG=
202010031030 METAR VIDP 031030Z 31007KT 4000 HZ NSC 35/10 Q1006 NOSIG=
202010031000 METAR VIDP 031000Z 32007KT 4000 HZ NSC 35/10 Q1006 NOSIG=
202010030930 METAR VIDP 030930Z 31007KT 4000 HZ NSC 35/11 Q1006 NOSIG=
202010030900 METAR VIDP 030900Z 29007KT 4000 HZ NSC 35/12 Q1007 NOSIG=
202010030830 METAR VIDP 030830Z 31006KT 4000 HZ NSC 34/13 Q1007 NOSIG=
202010030800 METAR VIDP 030800Z 29006KT 4000 HZ NSC 34/14 Q1006 NOSIG=
202010030730 METAR VIDP 030730Z 30005KT 4000 HZ NSC 34/15 Q1007 NOSIG=
202010030700 METAR VIDP 030700Z 29005KT 4000 HZ NSC 34/16 Q1007 NOSIG=
202010030630 METAR VIDP 030630Z 28003KT 4000 HZ NSC 33/16 Q1008 NOSIG=
202010030600 METAR VIDP 030600Z 27004KT 4000 HZ NSC 32/17 Q1008 NOSIG=
202010030530 METAR VIDP 030530Z 28003KT 3500 HZ NSC 31/18 Q1008 NOSIG=
202010030500 METAR VIDP 030500Z 26004KT 3000 HZ NSC 30/19 Q1008 NOSIG=
202010030430 METAR VIDP 030430Z 27003KT 2500 HZ NSC 29/20 Q1008 BECMG 3000 HZ=
202010030400 METAR VIDP 030400Z 26003KT 2500 HZ NSC 28/20 Q1008 NOSIG=
202010030330 METAR VIDP 030330Z 27003KT 2200 HZ NSC 26/20 Q1008 NOSIG=
202010030300 METAR VIDP 030300Z 25003KT 2200 HZ NSC 25/20 Q1008 NOSIG=
202010030230 METAR VIDP 030230Z 26003KT 2000 BR NSC 24/20 Q1008 NOSIG=
202010030200 METAR VIDP 030200Z 26003KT 1500 R28/1700 R29/P2000 BR NSC 23/20 Q1008 NOSIG=
202010030130 METAR VIDP 030130Z 26003KT 1600 R28/1700 R29/P2000 BR NSC 23/20 Q1007 BECMG 1500 BR=
202010030100 METAR VIDP 030100Z 26004KT 1800 R28/P2000 R29/P2000 BR NSC 23/21 Q1007 NOSIG=
202010030030 METAR VIDP 030030Z 27004KT 2200 BR NSC 23/20 Q1007 NOSIG=
202010030000 METAR VIDP 030000Z 25004KT 2500 BR NSC 24/20 Q1007 NOSIG=
202010022330 METAR VIDP 022330Z 00000KT 2500 BR NSC 24/20 Q1006 NOSIG=
202010022300 METAR VIDP 022300Z 00000KT 2500 BR NSC 25/21 Q1006 NOSIG=
202010022230 METAR VIDP 022230Z 00000KT 2800 HZ NSC 25/20 Q1006 NOSIG=
202010022200 METAR VIDP 022200Z 00000KT 3200 HZ NSC 25/20 Q1006 BECMG 3000 HZ=
202010022130 METAR VIDP 022130Z 00000KT 3500 HZ NSC 25/20 Q1006 NOSIG=
202010022100 METAR VIDP 022100Z 00000KT 3500 HZ NSC 26/20 Q1006 NOSIG=
202010022030 METAR VIDP 022030Z 00000KT 3500 HZ NSC 26/20 Q1006 NOSIG=
202010022000 METAR VIDP 022000Z 00000KT 3500 HZ NSC 26/20 Q1006 NOSIG=
202010021930 METAR VIDP 021930Z 00000KT 3500 HZ NSC 27/20 Q1006 NOSIG=
202010021900 METAR VIDP 021900Z 00000KT 3500 HZ NSC 27/20 Q1007 NOSIG=
202010021830 METAR VIDP 021830Z 00000KT 3500 HZ NSC 28/20 Q1007 NOSIG=
202010021800 METAR VIDP 021800Z 34003KT 3500 HZ NSC 28/20 Q1007 NOSIG=
202010021730 METAR VIDP 021730Z 35003KT 3500 HZ NSC 28/20 Q1007 NOSIG=
202010021700 METAR VIDP 021700Z 32004KT 3500 HZ NSC 29/21 Q1007 NOSIG=
202010021630 METAR VIDP 021630Z 31004KT 3500 HZ NSC 30/20 Q1007 NOSIG=
202010021600 METAR VIDP 021600Z 32004KT 3500 HZ NSC 30/19 Q1007 NOSIG=
202010021530 METAR VIDP 021530Z 32004KT 3500 HZ NSC 31/19 Q1006 NOSIG=
202010021500 METAR VIDP 021500Z 33006KT 3500 HZ NSC 31/19 Q1006 NOSIG=
202010021430 METAR VIDP 021430Z 34003KT 4000 HZ NSC 31/18 Q1006 NOSIG=
202010021400 METAR VIDP 021400Z 34003KT 4000 HZ NSC 31/17 Q1006 NOSIG=
202010021330 METAR VIDP 021330Z 34004KT 4000 HZ NSC 32/17 Q1006 NOSIG=
202010021300 METAR VIDP 021300Z 33004KT 4000 HZ NSC 33/17 Q1005 NOSIG=
202010021230 METAR VIDP 021230Z 32006KT 5000 HZ NSC 33/17 Q1005 NOSIG=
202010021200 METAR VIDP 021200Z 31005KT 5000 HZ NSC 33/17 Q1005 NOSIG=
202010021130 METAR VIDP 021130Z 32007KT 6000 NSC 34/17 Q1005 BECMG 5000 HZ=
202010021100 METAR VIDP 021100Z 31007KT 6000 NSC 34/17 Q1005 NOSIG=
202010021030 METAR VIDP 021030Z 31007KT 6000 NSC 35/17 Q1005 NOSIG=
202010021000 METAR VIDP 021000Z 31007KT 6000 NSC 35/17 Q1005 NOSIG=
202010020930 METAR VIDP 020930Z 30006KT 6000 NSC 35/16 Q1005 NOSIG=
202010020900 METAR VIDP 020900Z 29005KT 6000 NSC 35/15 Q1005 NOSIG=
202010020830 METAR VIDP 020830Z 29005KT 6000 NSC 35/15 Q1005 NOSIG=
202010020800 METAR VIDP 020800Z 29005KT 6000 NSC 34/15 Q1006 NOSIG=
202010020730 METAR VIDP 020730Z 28006KT 5000 HZ NSC 34/16 Q1006 NOSIG=
202010020700 METAR VIDP 020700Z 28006KT 4500 HZ NSC 34/17 Q1007 BECMG 5000 HZ=
202010020630 METAR VIDP 020630Z 27007KT 4000 HZ NSC 33/18 Q1007 NOSIG=
202010020600 METAR VIDP 020600Z 27007KT 4000 HZ NSC 32/19 Q1008 NOSIG=
202010020530 METAR VIDP 020530Z 27005KT 3500 HZ NSC 31/20 Q1008 NOSIG=
202010020500 METAR VIDP 020500Z 27004KT 3000 HZ NSC 29/20 Q1008 NOSIG=
202010020430 METAR VIDP 020430Z 26004KT 3000 HZ NSC 28/19 Q1008 NOSIG=
202010020400 METAR VIDP 020400Z 27004KT 3000 HZ NSC 27/18 Q1008 NOSIG=
202010020330 METAR VIDP 020330Z 26004KT 2800 HZ NSC 26/18 Q1008 BECMG 3000 HZ=
202010020300 METAR VIDP 020300Z 24004KT 2800 HZ NSC 25/18 Q1007 NOSIG=
202010020230 METAR VIDP 020230Z 25005KT 2800 HZ NSC 24/18 Q1007 NOSIG=
202010020200 METAR VIDP 020200Z 24004KT 2800 BR NSC 24/20 Q1007 NOSIG=
202010020130 METAR VIDP 020130Z 00000KT 2500 BR NSC 23/20 Q1006 NOSIG=
202010020100 METAR VIDP 020100Z 00000KT 2500 BR NSC 23/20 Q1006 NOSIG=
202010020030 METAR VIDP 020030Z 27003KT 2500 BR NSC 24/20 Q1005 NOSIG=
202010020000 METAR VIDP 020000Z 00000KT 2500 BR NSC 24/20 Q1005 NOSIG=
202010012330 METAR VIDP 012330Z 00000KT 2500 BR NSC 24/20 Q1005 NOSIG=
202010012300 METAR VIDP 012300Z 00000KT 2500 BR NSC 25/21 Q1005 NOSIG=
202010012230 METAR VIDP 012230Z 27003KT 2500 BR NSC 25/21 Q1005 NOSIG=
202010012200 METAR VIDP 012200Z 00000KT 2500 HZ NSC 26/20 Q1004 NOSIG=
202010012130 METAR VIDP 012130Z 26003KT 2800 HZ NSC 26/20 Q1004 NOSIG=
202010012100 METAR VIDP 012100Z 26003KT 2800 HZ NSC 26/20 Q1005 NOSIG=
202010012030 METAR VIDP 012030Z 27004KT 2800 HZ NSC 26/19 Q1005 NOSIG=
202010012000 METAR VIDP 012000Z 25003KT 2800 HZ NSC 26/19 Q1005 NOSIG=
202010011930 METAR VIDP 011930Z 00000KT 2800 HZ NSC 26/19 Q1005 NOSIG=
202010011900 METAR VIDP 011900Z 00000KT 2800 HZ NSC 26/19 Q1005 NOSIG=
202010011830 METAR VIDP 011830Z 00000KT 2800 HZ FEW100 27/18 Q1005 NOSIG=
202010011800 METAR VIDP 011800Z 00000KT 2800 HZ FEW100 27/18 Q1005 NOSIG=
202010011730 METAR VIDP 011730Z 00000KT 2800 HZ FEW100 27/18 Q1005 NOSIG=
202010011700 METAR VIDP 011700Z 00000KT 2800 HZ FEW100 27/18 Q1005 NOSIG=
202010011630 METAR VIDP 011630Z 00000KT 2800 HZ FEW100 28/18 Q1005 NOSIG=
202010011600 METAR VIDP 011600Z 00000KT 2800 HZ FEW100 28/18 Q1005 NOSIG=
202010011530 METAR VIDP 011530Z 00000KT 2800 HZ FEW100 29/18 Q1005 NOSIG=
202010011500 METAR VIDP 011500Z 00000KT 2800 HZ NSC 30/17 Q1005 NOSIG=
202010011430 METAR VIDP 011430Z 00000KT 2800 HZ NSC 31/17 Q1005 NOSIG=
202010011400 METAR VIDP 011400Z 35004KT 2800 HZ NSC 32/17 Q1004 NOSIG=
202010011330 METAR VIDP 011330Z 35004KT 2800 HZ NSC 32/17 Q1004 NOSIG=
202010011300 METAR VIDP 011300Z 33005KT 3000 HZ NSC 33/17 Q1004 NOSIG=
202010011230 METAR VIDP 011230Z 31006KT 3000 HZ NSC 33/15 Q1004 NOSIG=
202010011200 METAR VIDP 011200Z 31007KT 3000 HZ NSC 34/14 Q1004 NOSIG=
202010011130 METAR VIDP 011130Z 31007KT 3000 HZ NSC 35/14 Q1004 NOSIG=
202010011100 METAR VIDP 011100Z 31008KT 3000 HZ NSC 35/13 Q1004 NOSIG=
202010011030 METAR VIDP 011030Z 30008KT 3000 HZ NSC 35/13 Q1004 NOSIG=
202010011000 METAR VIDP 011000Z 30009KT 3000 HZ NSC 36/14 Q1004 NOSIG=
202010010930 METAR VIDP 010930Z 32008G18KT 3000 HZ NSC 36/15 Q1004 NOSIG=
202010010900 METAR VIDP 010900Z 30010KT 3000 HZ NSC 35/17 Q1005 NOSIG=
202010010830 METAR VIDP 010830Z 29009KT 3000 HZ NSC 35/17 Q1005 NOSIG=
202010010800 METAR VIDP 010800Z 29007KT 3000 HZ NSC 35/18 Q1005 NOSIG=
202010010730 METAR VIDP 010730Z 27009KT 3000 HZ NSC 35/18 Q1006 NOSIG=
202010010700 METAR VIDP 010700Z 29010KT 3000 HZ NSC 35/18 Q1005 NOSIG=
202010010630 METAR VIDP 010630Z 29008KT 3000 HZ NSC 34/19 Q1006 NOSIG=
202010010600 METAR VIDP 010600Z 28007KT 3000 HZ NSC 34/18 Q1006 NOSIG=
202010010530 METAR VIDP 010530Z 28008KT 3000 HZ NSC 33/18 Q1006 NOSIG=
202010010500 METAR VIDP 010500Z 27008KT 3000 HZ NSC 32/19 Q1007 NOSIG=
202010010430 METAR VIDP 010430Z 26006KT 3000 HZ NSC 31/20 Q1007 NOSIG=
202010010400 METAR VIDP 010400Z 27006KT 3000 HZ NSC 30/20 Q1006 NOSIG=
202010010330 METAR VIDP 010330Z 27005KT 3000 HZ NSC 29/20 Q1006 NOSIG=
202010010300 METAR VIDP 010300Z 26005KT 3000 HZ NSC 27/20 Q1006 NOSIG=
202010010230 METAR VIDP 010230Z 25004KT 3000 HZ NSC 26/20 Q1006 NOSIG=
202010010200 METAR VIDP 010200Z 27004KT 3000 BR NSC 25/20 Q1006 NOSIG=
202010010130 METAR VIDP 010130Z 00000KT 3000 BR NSC 24/20 Q1006 NOSIG=
202010010100 METAR VIDP 010100Z 00000KT 3000 BR NSC 23/20 Q1005 NOSIG=
202010010030 METAR VIDP 010030Z 00000KT 3000 BR NSC 23/20 Q1005 NOSIG=
202010010000 METAR VIDP 010000Z 27003KT 3000 BR NSC 23/20 Q1005 NOSIG=

###################################
#  short TAF from VIDP
###################################
202010312300 TAF VIDP 312300Z 0100/0109 25004KT 0600 MIFG NSC
                      BECMG 0106/0108 31008KT 1500 FU=
202010312000 TAF VIDP 312000Z 3121/0106 VRB02KT 1200 FU BR NSC
                      BECMG 0101/0103 25004KT 0800 MIFG
                      BECMG 0104/0105 1200 FU=
202010311700 TAF VIDP 311700Z 3118/0103 VRB02KT 2100 HZ FU NSC
                      BECMG 3121/3123 1500 FU BR
                      BECMG 0101/0102 25004KT 0800 MIFG=
202010310800 TAF VIDP 310800Z 3109/3118 32008KT 2500 FU HZ NSC
                      BECMG 3115/3117 2000 FU BR=
202010310200 TAF VIDP 310200Z 3103/3112 26004KT 0600 MIFG NSC
                      BECMG 3105/3107 29008KT 0900 MIFG BR
                      BECMG 3109/3111 32010KT 1500 BR=
202010302300 TAF VIDP 302300Z 3100/3109 00000KT 1000 BR NSC
                      BECMG 3102/3104 29004KT 0600 MIFG BR
                      BECMG 3106/3108 32007G17KT 1800 BR FU=
202010302000 TAF VIDP 302000Z 3021/3106 VRB02KT 1200 BR FU NSC
                      BECMG 3102/3104 29006KT 0800 FU=
202010280800 TAF VIDP 280800Z 2809/2818 29005KT 3000 HZ NSC
                      BECMG 2815/2817 00000KT 2200 HZ=
202010280500 TAF VIDP 280500Z 2806/2815 29006KT 2200 HZ NSC
                      BECMG 2809/2811 3000 HZ=
202010270200 TAF VIDP 270200Z 2703/2712 26004KT 1200 FU NSC
                      BECMG 2706/2708 31008KT 2500 FU HZ FEW100=
202010262300 TAF VIDP 262300Z 2700/2709 VRB02KT 1800 BR NSC
                      BECMG 2702/2704 1000 BR FU
                      BECMG 2706/2708 31008KT 2500 FU HZ FEW100=
202010261400 TAF VIDP 261400Z 2615/2624 34004KT 2500 FU NSC
                      BECMG 2621/2623 00000KT 2000 FU BR=
202010261100 TAF VIDP 261100Z 2612/2621 34005KT 2500 FU FEW100
                      BECMG 2618/2620 VRB02KT 2000 FU NSC=
202010260800 TAF VIDP 260800Z 2609/2618 29005KT 1500 FU SCT100
                      BECMG 2615/2617 VRB02KT 1800 FU FEW100=
202010260500 TAF VIDP 260500Z 2606/2615 29005KT 1200 FU SCT040 BKN100
                      BECMG 2608/2610 32007KT 1500 HZ FU=
202010260200 TAF VIDP 260200Z 2603/2612 25005KT 1200 HZ FEW100
                      BECMG 2608/2610 2500 HZ NSC=
202010252300 TAF VIDP 252300Z 2600/2609 00000KT 1200 BR SCT100
                      BECMG 2604/2606 VRB02KT 1500 FU FEW100
                      BECMG 2608/2609 32005KT 2500 HZ=
202010252000 TAF VIDP 252000Z 2521/2606 00000KT 2200 HZ BR
                      BECMG 2601/2603 1200 BR SCT100
                      BECMG 2604/2606 VRB02KT 1500 FU FEW100=
202010251700 TAF VIDP 251700Z 2518/2603 00000KT 2200 HZ NSC
                      BECMG 2601/2603 1200 BR SCT100=
202010251400 TAF VIDP 251400Z 2515/2524 VRB02KT 1500 FU NSC
                      BECMG 2521/2523 00000KT 1200 FU BR=
202010250800 TAF VIDP 250800Z 2509/2518 31008KT 2500 FU HZ NSC
                      BECMG 2514/2516 00000KT 1800 HZ BR FEW100=
202010250500 TAF VIDP 250500Z 2506/2515 26004KT 1800 FU NSC
                      BECMG 2509/2511 31008KT 2500 FU HZ
                      BECMG 2513/2515 00000KT 1800 HZ BR FEW100=
202010250200 TAF VIDP 250200Z 2503/2512 00000KT 1500 BR NSC
                      BECMG 2504/2506 29006KT 2000 FU HZ
                      BECMG 2507/2509 3000 HZ=
202010242300 TAF VIDP 242300Z 2500/2509 00000KT 1200 FU BR NSC
                      BECMG 2504/2506 29004KT 2000 FU
                      BECMG 2507/2509 32008KT 3000 HZ=
202010242000 TAF VIDP 242000Z 2421/2506 00000KT 2200 HZ NSC
                      BECMG 2400/2502 1000 FU BR
                      BECMG 2404/2406 2000 FU=
202010241700 TAF VIDP 241700Z 2418/2503 00000KT 2500 HZ NSC
                      BECMG 2500/2502 1000 FU BR=
202010240800 TAF VIDP 240800Z 2409/2418 27006KT 3500 HZ NSC
                      BECMG 2415/2417 32003KT 2500 HZ=
202010240500 TAF VIDP 240500Z 2406/2415 25006KT 2000 HZ NSC
                      BECMG 2407/2409 3500 HZ=
202010240200 TAF VIDP 240200Z 2403/2412 26006KT 1200 BR FU NSC
                      BECMG 2404/2406 32008KT 1800 FU HZ
                      BECMG 2407/2409 3500 HZ=
202010232300 TAF VIDP 232300Z 2400/2409 00000KT 1000 FU BR NSC
                      BECMG 2404/2406 28003KT 1800 FU
                      BECMG 2407/2408 33008KT 3500 HZ=
202010232000 TAF VIDP 232000Z 2321/2406 00000KT 2000 HZ NSC
                      BECMG 2400/2402 1000 FU BR
                      BECMG 2404/2405 1800 FU=
202010231400 TAF VIDP 231400Z 2315/2324 01004KT 2500 HZ BR NSC
                      BECMG 2321/2323 00000KT 2000 BR=
202010231100 TAF VIDP 231100Z 2312/2321 32005KT 3500 HZ NSC
                      BECMG 2315/2317 VRB02KT 2500 HZ=
202010230800 TAF VIDP 230800Z 2309/2318 32006KT 2500 FU FEW100
                      BECMG 2315/2317 00000KT 2000 FU FEW100=
202010230500 TAF VIDP 230500Z 2306/2315 00000KT 1200 FU FEW100
                      BECMG 2310/2312 32008KT 2500 FU HZ SCT100=
202010230200 TAF VIDP 230200Z 2303/2312 VRB02KT 1500 BR FU FEW040 SCT100
                      BECMG 2306/2308 32006KT 2500 FU HZ SCT100=
202010222300 TAF VIDP 222300Z 2300/2309 00000KT 1800 HZ BR FEW040 SCT100
                      BECMG 2302/2304 VRB02KT 1200 BR FU
                      BECMG 2306/2308 32008KT 2500 FU HZ SCT100=
202010221700 TAF VIDP 221700Z 2218/2303 00000KT 2200 HZ FEW040 SCT100
                      BECMG 2220/2222 1800 BR
                      BECMG 2301/2303 VRB02KT 1200 BR FU=
202010221400 TAF VIDP 221400Z 2215/2224 VRB02KT 2200 HZ FU FEW040 SCT100
                      BECMG 2221/2223 00000KT 1800 FU BR=
202010221100 TAF VIDP 221100Z 2212/2221 04005KT 2500 FU SCT040 BKN100
                      BECMG 2218/2220 VRB02KT 2000 FU FEW040 SCT100=
202010210800 TAF VIDP 210800Z 2109/2118 32006KT 3500 HZ NSC
                      BECMG 2116/2118 00000KT 2500 HZ FEW100=
202010210500 TAF VIDP 210500Z 2106/2115 26004KT 2500 FU HZ NSC
                      BECMG 2109/2111 32006KT 3500 HZ=
202010210200 TAF VIDP 210200Z 2103/2112 VRB02KT 2000 BR FU NSC
                      BECMG 2106/2108 32006KT 3500 HZ=
202010202300 TAF VIDP 202300Z 2100/2109 00000KT 1200 FU BR NSC
                      BECMG 2104/2106 36005KT 2500 HZ FEW100
                      BECMG 2107/2109 3500 HZ=
202010202000 TAF VIDP 202000Z 2021/2106 00000KT 2500 HZ NSC
                      BECMG 2100/2102 1200 FU BR
                      BECMG 2104/2105 36005KT 2500 HZ=
202010201700 TAF VIDP 201700Z 2018/2103 00000KT 2500 HZ NSC
                      BECMG 2100/2102 1200 FU BR=
202010201100 TAF VIDP 201100Z 2012/2021 29006KT 3500 HZ NSC
                      BECMG 2018/2020 27003KT 2500 HZ=
202010200800 TAF VIDP 200800Z 2009/2018 30006KT 3500 HZ NSC
                      BECMG 2015/2017 VRB02KT 3000 HZ=
202010200500 TAF VIDP 200500Z 2006/2015 30005KT 2000 HZ NSC
                      BECMG 2007/2009 3500 HZ=
202010192000 TAF VIDP 192000Z 1921/2006 VRB02KT 2100 HZ NSC
                      BECMG 2000/2002 1200 FU
                      BECMG 2004/2005 33006KT 2200 HZ=
202010191700 TAF VIDP 191700Z 1918/2003 VRB02KT 2800 HZ NSC
                      BECMG 2000/2002 1200 FU=
202010191400 TAF VIDP 191400Z 1915/1924 29005KT 3000 HZ NSC
                      BECMG 1921/1923 00000KT 2000 BR=
202010191100 TAF VIDP 191100Z 1912/1921 29008KT 3500 HZ NSC
                      BECMG 1918/1920 27003KT 2500 HZ=
202010190800 TAF VIDP 190800Z 1909/1918 29006KT 3000 HZ NSC
                      BECMG 1915/1917 32004KT 2500 FU BR=
202010190500 TAF VIDP 190500Z 1906/1915 28006KT 2500 FU HZ FEW100
                      BECMG 1910/1912 32008KT 3000 HZ FEW100=
202010190200 TAF VIDP 190200Z 1903/1912 VRB02KT 1500 FU NSC
                      BECMG 1904/1906 29004KT 2000 FU HZ
                      BECMG 1909/1911 32008KT 3000 HZ=
202010182300 TAF VIDP 182300Z 1900/1909 00000KT 2200 BR FEW100
                      BECMG 1901/1903 VRB02KT 1200 BR FU
                      BECMG 1905/1907 32008KT 2500 FU HZ NSC=
202010182000 TAF VIDP 182000Z 1821/1906 00000KT 2500 HZ BR FEW100
                      BECMG 1901/1903 VRB02KT 1200 BR
                      BECMG 1904/1906 29004KT 2000 BR FU NSC=
202010180800 TAF VIDP 180800Z 1809/1818 29007KT 2800 HZ NSC
                      BECMG 1814/1816 32004KT 2000 FU BR FEW100=
202010180200 TAF VIDP 180200Z 1803/1812 27004KT 1200 BR FU NSC
                      BECMG 1804/1806 29004KT 2500 HZ=
202010172000 TAF VIDP 172000Z 1721/1806 00000KT 2500 HZ BR NSC
                      BECMG 1801/1803 1200 BR FU
                      BECMG 1804/1806 29004KT 2500 HZ=
202010171700 TAF VIDP 171700Z 1718/1803 00000KT 2500 HZ BR NSC
                      BECMG 1801/1803 1200 BR FU=
202010171400 TAF VIDP 171400Z 1715/1724 29005KT 2500 FU NSC
                      BECMG 1718/1720 00000KT 1800 BR FU=
202010171100 TAF VIDP 171100Z 1712/1721 29005KT 2500 FU NSC
                      BECMG 1714/1716 32005KT 2000 FU BR=
202010170800 TAF VIDP 170800Z 1709/1718 32006KT 2500 HZ NSC
                      BECMG 1714/1716 00000KT 2000 HZ BR=
202010170500 TAF VIDP 170500Z 1706/1715 29004KT 2500 FU HZ NSC
                      BECMG 1709/1711 32006KT 3000 HZ
                      BECMG 1713/1715 00000KT 2000 HZ BR=
202010160800 TAF VIDP 160800Z 1609/1618 34008KT 4000 HZ NSC
                      BECMG 1615/1617 30003KT 2500 HZ FU FEW100=
202010152300 TAF VIDP 152300Z 1600/1609 00000KT 1200 BR FEW100
                      BECMG 1604/1606 26004KT 2000 FU HZ
                      BECMG 1607/1609 33006KT 3000 HZ NSC=
202010152000 TAF VIDP 152000Z 1521/1606 00000KT 2100 HZ BR NSC
                      BECMG 1600/1602 1200 BR FEW100
                      BECMG 1604/1605 26004KT 2100 FU HZ=
202010151700 TAF VIDP 151700Z 1518/1603 00000KT 2500 HZ NSC
                      BECMG 1600/1602 1200 BR FEW100=
202010151400 TAF VIDP 151400Z 1515/1524 29004KT 3000 HZ FEW100
                      BECMG 1522/1524 00000KT 2000 BR=
202010151100 TAF VIDP 151100Z 1512/1521 32005KT 3500 HZ FEW100
                      BECMG 1515/1517 2500 FU BR SCT100=
202010150800 TAF VIDP 150800Z 1509/1518 28005KT 3000 HZ FEW100
                      BECMG 1515/1517 VRB02KT 2500 HZ FU=
202010140500 TAF VIDP 140500Z 1406/1415 07005KT 1500 FU FEW040 SCT100
                      BECMG 1408/1410 03005KT 2200 FU=
202010132300 TAF VIDP 132300Z 1400/1409 00000KT 1500 BR
                      BECMG 1405/1407 08004KT 3000 HZ FEW100=
202010132000 TAF VIDP 132000Z 1321/1406 00000KT 2000 BR FEW100
                      BECMG 1401/1403 1500 BR FU
                      BECMG 1404/1406 08003KT 2500 HZ SCT100=
202010131700 TAF VIDP 131700Z 1318/1403 09004KT 2000 HZ FEW100
                      BECMG 1401/1403 00000KT 1500 BR FU=
202010131400 TAF VIDP 131400Z 1315/1324 07005KT 2000 FU FEW100
                      BECMG 1318/1320 00000KT 1500 BR FU=
202010131100 TAF VIDP 131100Z 1312/1321 09005KT 2500 HZ FEW100
                      BECMG 1314/1316 VRB02KT 2000 HZ FU FEW040=
202010130800 TAF VIDP 130800Z 1309/1318 12008KT 2500 HZ FEW100
                      BECMG 1315/1317 VRB02KT 2000 HZ FU=
202010130500 TAF VIDP 130500Z 1306/1315 12004KT 1800 FU NSC
                      BECMG 1309/1311 12006KT 2500 FU=
202010121700 TAF VIDP 121700Z 1218/1303 00000KT 2200 HZ BR NSC
                      BECMG 1300/1302 11005KT 1500 BR=
202010120500 TAF VIDP 120500Z 1206/1215 VRB02KT 3000 HZ NSC
                      BECMG 1208/1210 07008KT 4000 HZ
                      BECMG 1214/1215 VRB02KT 3000 HZ=
202010120200 TAF VIDP 120200Z 1203/1212 VRB02KT 2000 HZ FEW100
                      BECMG 1205/1207 33005KT 3500 HZ=
202010112300 TAF VIDP 112300Z 1200/1209 00000KT 1800 BR SCT100
                      BECMG 1205/1207 VRB02KT 3500 HZ FEW100=
202010112000 TAF VIDP 112000Z 1121/1206 00000KT 2500 HZ BR FEW100
                      BECMG 1200/1202 1800 BR SCT100
                      BECMG 1204/1205 VRB02KT 2500 HZ=
202010111700 TAF VIDP 111700Z 1118/1203 00000KT 2800 HZ NSC
                      BECMG 1200/1202 1800 BR SCT100=
202010111400 TAF VIDP 111400Z 1115/1124 VRB02KT 3000 HZ NSC
                      BECMG 1121/1123 00000KT 2000 BR=
202010110800 TAF VIDP 110800Z 1109/1118 32008KT 3500 HZ NSC
                      BECMG 1115/1117 27004KT 3000 HZ=
202010110200 TAF VIDP 110200Z 1103/1112 26004KT 2500 BR HZ NSC
                      BECMG 1105/1107 29006KT 3000 HZ
                      BECMG 1110/1112 02010KT 3500 HZ FEW100=
202010102300 TAF VIDP 102300Z 1100/1109 VRB02KT 2000 BR NSC
                      BECMG 1105/1107 29005KT 2500 HZ=
202010102000 TAF VIDP 102000Z 1021/1106 00000KT 2500 BR NSC
                      BECMG 1100/1102 VRB02KT 2000 BR HZ
                      BECMG 1104/1106 29005KT 2500 HZ=
202010101700 TAF VIDP 101700Z 1018/1103 29005KT 2800 BR NSC
                      BECMG 1100/1102 VRB02KT 2000 BR HZ=
202010101400 TAF VIDP 101400Z 1015/1024 29005KT 3000 HZ NSC
                      BECMG 1021/1023 00000KT 2000 BR=
202010100800 TAF VIDP 100800Z 1009/1018 29008KT 2500 HZ NSC
                      BECMG 1010/1012 27010KT 3000 HZ
                      BECMG 1015/1017 VRB02KT 2500 HZ=
202010100500 TAF VIDP 100500Z 1006/1015 29007KT 2500 HZ NSC
                      BECMG 1008/1010 30010KT 3500 HZ
                      BECMG 1012/1014 29008KT 3000 HZ=
202010100200 TAF VIDP 100200Z 1003/1012 25004KT 2000 BR HZ NSC
                      BECMG 1007/1009 29008KT 4000 HZ=
202010092300 TAF VIDP 092300Z 1000/1009 00000KT 1500 BR NSC
                      BECMG 1004/1006 VRB02KT 2500 HZ
                      BECMG 1007/1009 29008KT 4000 HZ=
202010092000 TAF VIDP 092000Z 0921/1006 00000KT 2500 BR NSC
                      BECMG 0923/1001 1500 BR
                      BECMG 1003/1005 VRB02KT 2500 HZ=
202010091700 TAF VIDP 091700Z 0918/1003 VRB02KT 2500 HZ NSC
                      BECMG 0923/1001 00000KT 1500 BR=
202010091400 TAF VIDP 091400Z 0915/0924 29005KT 3000 HZ NSC
                      BECMG 0918/0920 VRB02KT 2500 HZ BR=
202010091100 TAF VIDP 091100Z 0912/0921 31006KT 3500 HZ NSC
                      BECMG 0918/0920 29005KT 2500 HZ BR=
202010090800 TAF VIDP 090800Z 0909/0918 32010KT 3500 HZ NSC
                      BECMG 0915/0917 VRB02KT 3000 HZ=
202010090500 TAF VIDP 090500Z 0906/0915 26006KT 3500 HZ NSC
                      BECMG 0909/0911 32010KT 4000 HZ
                      BECMG 0913/0915 VRB02KT 3500 HZ=
202010090200 TAF VIDP 090200Z 0903/0912 32004KT 3000 BR NSC
                      BECMG 0906/0908 29008KT 4000 HZ=
202010082300 TAF VIDP 082300Z 0900/0909 00000KT 1500 BR NSC
                      BECMG 0904/0906 32005KT 2500 HZ
                      BECMG 0908/0909 29008KT 4000 HZ=
202010081700 TAF VIDP 081700Z 0818/0903 00000KT 2500 HZ BR NSC
                      BECMG 0900/0902 1500 BR=
202010081400 TAF VIDP 081400Z 0815/0824 31005KT 3000 HZ NSC
                      BECMG 0818/0820 00000KT 2500 HZ BR=
202010081100 TAF VIDP 081100Z 0812/0821 32008KT 3000 HZ NSC
                      BECMG 0818/0820 00000KT 2500 HZ BR=
202010080800 TAF VIDP 080800Z 0809/0818 29008KT 4000 HZ NSC
                      BECMG 0815/0817 VRB02KT 3000 HZ=
202010080200 TAF VIDP 080200Z 0803/0812 27004KT 1500 BR NSC
                      BECMG 0806/0808 32008KT 3500 HZ=
202010072300 TAF VIDP 072300Z 0800/0809 00000KT 1800 BR
                      BECMG 0802/0804 1500 BR
                      BECMG 0806/0808 29008KT 3500 HZ=
202010072000 TAF VIDP 072000Z 0721/0806 00000KT 2000 BR
                      BECMG 0723/0801 00000KT 1800 BR
                      BECMG 0803/0804 29005KT 2500 BR=
202010071700 TAF VIDP 071700Z 0718/0803 29005KT 3000 HZ NSC
                      BECMG 0718/0720 00000KT 2200 BR
                      BECMG 0723/0801 00000KT 2000 BR=
202010071400 TAF VIDP 071400Z 0715/0724 VRB02KT 3000 HZ NSC
                      BECMG 0721/0723 00000KT 2000 BR=
202010071100 TAF VIDP 071100Z 0712/0721 32008KT 4000 HZ NSC
                      BECMG 0716/0718 VRB02KT 3000 HZ=
202010070800 TAF VIDP 070800Z 0709/0718 32006KT 5000 HZ NSC
                      BECMG 0715/0717 27004KT 3000 HZ=
202010070501 TAF VIDP 070501Z 0706/0715 27004KT 3500 HZ NSC
                      BECMG 0710/0712 32008KT 4000 HZ=
202010070200 TAF VIDP 070200Z 0703/0712 29006KT 1800 BR NSC
                      BECMG 0706/0708 31008KT 3500 HZ=
202010062300 TAF VIDP 062300Z 0700/0709 27004KT 2500 BR NSC
                      BECMG 0702/0704 29006KT 1500 BR
                      BECMG 0706/0708 31008KT 3500 HZ=
202010060500 TAF VIDP 060500Z 0606/0615 27007KT 2000 HZ NSC
                      BECMG 0608/0612 29008G18KT 3500 HZ=
202010060200 TAF VIDP 060200Z 0603/0612 27005KT 1800 HZ NSC
                      BECMG 0604/0606 29008G18KT 3000 HZ
                      BECMG 0607/0609 4500 HZ=
202010052300 TAF VIDP 052300Z 0600/0609 VRB02KT 1800 BR NSC
                      BECMG 0604/0606 29008G18KT 3000 HZ
                      BECMG 0607/0609 5000 HZ=
202010052000 TAF VIDP 052000Z 0521/0606 00000KT 3000 HZ NSC
                      BECMG 0523/0601 1800 BR
                      BECMG 0603/0605 27008KT 2500 HZ=
202010051700 TAF VIDP 051700Z 0518/0603 00000KT 3000 HZ NSC
                      BECMG 0523/0601 1800 BR=
202010051400 TAF VIDP 051400Z 0515/0524 29008KT 4000 HZ NSC
                      BECMG 0515/0517 VRB02KT 3000 HZ BR
                      BECMG 0518/0521 00000KT 2500 BR=
202010051100 TAF VIDP 051100Z 0512/0521 32010G20KT 6000 NSC
                      BECMG 0515/0517 VRB02KT 3000 HZ BR=
202010050800 TAF VIDP 050800Z 0509/0518 32010G20KT 3500 HZ NSC
                      BECMG 0511/0513 29008KT 4000 HZ
                      BECMG 0515/0517 VRB02KT 2500 HZ BR=
202010050500 TAF VIDP 050500Z 0506/0515 32008KT 2500 HZ NSC
                      BECMG 0509/0511 32007G17KT 3500 HZ=
202010050200 TAF VIDP 050200Z 0503/0512 26004KT 3000 HZ NSC
                      BECMG 0506/0508 32008KT 4000 HZ=
202010042300 TAF VIDP 042300Z 0500/0509 00000KT 1500 BR NSC
                      BECMG 0504/0506 2500 BR HZ
                      BECMG 0507/0509 32008KT 4000 HZ=
202010042000 TAF VIDP 042000Z 0421/0506 VRB02KT 2200 BR NSC
                      BECMG 0500/0502 26005KT 1200 BR
                      BECMG 0503/0505 2200 HZ=
202010041700 TAF VIDP 041700Z 0418/0503 29004KT 2500 HZ BR NSC
                      BECMG 0500/0502 1200 BR=
202010041400 TAF VIDP 041400Z 0415/0424 29005KT 2500 HZ BR NSC
                      BECMG 0420/0422 2000 BR=
202010041125 TAF VIDP 041125Z 0412/0421 32008KT 3500 HZ NSC
                      BECMG 0415/0417 29005KT 2500 HZ BR=
202010041100 TAF VIDP 041100Z 0412/0421 32008KT 3500 HZ NSC
                      BECMG 0415/0417 29005KT 2500 HZ BR=
202010040800 TAF VIDP 040800Z 0409/0418 29005KT 4000 HZ NSC
                      BECMG 0414/0416 VRB02KT 3000 HZ=
202010040500 TAF VIDP 040500Z 0406/0415 29005KT 4500 HZ NSC
                      BECMG 0414/0415 VRB02KT 3000 HZ=
202010040200 TAF VIDP 040200Z 0403/0412 26005KT 1800 BR NSC
                      BECMG 0404/0406 2800 BR HZ
                      BECMG 0407/0409 32008KT 3500 HZ=
202010032300 TAF VIDP 032300Z 0400/0409 25004KT 1200 BR NSC
                      BECMG 0404/0406 2800 BR HZ
                      BECMG 0407/0408 31008KT 3500 HZ=
202010031700 TAF VIDP 031700Z 0318/0403 VRB02KT 2500 HZ BR NSC
                      BECMG 0400/0402 25004KT 1200 BR=
202010031400 TAF VIDP 031400Z 0315/0324 32006KT 3500 HZ NSC
                      BECMG 0320/0322 VRB02KT 2000 BR=
202010031100 TAF VIDP 031100Z 0312/0321 32006KT 4000 HZ NSC
                      BECMG 0318/0320 00000KT 3000 HZ=
202010030800 TAF VIDP 030800Z 0309/0318 29005KT 4000 HZ NSC
                      BECMG 0310/0312 32008KT 5000 HZ
                      BECMG 0315/0317 27006KT 3500 HZ=
202010030500 TAF VIDP 030500Z 0306/0315 26004KT 3000 HZ NSC
                      BECMG 0309/0311 32008KT 5000 HZ=
202010030200 TAF VIDP 030200Z 0303/0312 29008KT 3000 HZ FEW100
                      BECMG 0308/0310 32010KT 5000 HZ=
202010022300 TAF VIDP 022300Z 0300/0309 24005KT 1800 BR NSC
                      BECMG 0303/0305 29008KT 3000 HZ FEW100
                      BECMG 0307/0309 32010KT 5000 HZ=
202010022000 TAF VIDP 022000Z 0221/0306 00000KT 2500 HZ NSC
                      BECMG 0300/0302 25004KT 2000 BR
                      BECMG 0304/0306 27010KT 3000 HZ=
202010021700 TAF VIDP 021700Z 0218/0303 32004KT 3000 HZ BR NSC
                      BECMG 0300/0302 25004KT 2000 BR=
202010021400 TAF VIDP 021400Z 0215/0224 32006KT 3500 HZ NSC
                      BECMG 0220/0222 VRB02KT 2000 BR=
202010021100 TAF VIDP 021100Z 0212/0221 29006KT 4000 HZ NSC
                      BECMG 0218/0220 VRB02KT 2200 HZ BR=
202010020800 TAF VIDP 020800Z 0209/0218 29010KT 4000 HZ NSC
                      BECMG 0210/0214 27008KT 3500 HZ
                      BECMG 0215/0217 VRB02KT 3000 HZ=
202010020200 TAF VIDP 020200Z 0203/0212 27005KT 2500 HZ BR NSC
                      BECMG 0205/0207 29010KT 4000 HZ=
202010012300 TAF VIDP 012300Z 0200/0209 VRB02KT 2000 BR NSC
                      BECMG 0202/0209 29008KT 4000 HZ=
202010012000 TAF VIDP 012000Z 0121/0206 00000KT 2200 BR NSC
                      BECMG 0203/0205 29008KT 4000 HZ=
202010011400 TAF VIDP 011400Z 0115/0124 VRB02KT 2500 HZ BR NSC=
202010011100 TAF VIDP 011100Z 0112/0121 29008KT 3500 HZ NSC
                      BECMG 0117/0119 VRB02KT 2500 HZ BR=
202010010500 TAF VIDP 010500Z 0106/0115 29010KT 3500 HZ FEW100
                      BECMG 0107/0111 32010G20KT 4000 HZ
                      BECMG 0113/0115 31008KT 3000 HZ=

###################################
#  large TAF from VIDP
###################################
202010312300 TAF VIDP 312300Z 0100/0206 25004KT 0600 MIFG NSC
                      BECMG 0106/0108 31008KT 1500 FU
                      BECMG 0109/0111 3200 HZ
                      BECMG 0117/0119 VRB02KT 1500 FU BR
                      BECMG 0200/0202 25003KT 0600 MIFG
                      BECMG 0204/0205 1000 BR FU=
202010311700 TAF VIDP 311700Z 3118/0124 VRB02KT 2100 HZ FU NSC
                      BECMG 3121/3123 1500 FU BR
                      BECMG 0101/0103 25004KT 0800 MIFG
                      BECMG 0106/0108 32008KT 1800 FU
                      BECMG 0109/0111 3200 HZ
                      BECMG 0117/0119 VRB02KT 1500 FU BR=
202010310500 TAF VIDP 310500Z 3106/0112 27005KT 1200 FU NSC
                      BECMG 3110/3112 32008KT 2500 FU HZ
                      BECMG 3115/3117 29004KT 2000 FU HZ
                      BECMG 0100/0102 00000KT 0600 MIFG
                      BECMG 0103/0105 27004KT 1000 FU BR
                      BECMG 0108/0110 29006KT 2500 HZ=
202010302300 TAF VIDP 302300Z 3100/0106 00000KT 1000 BR NSC
                      BECMG 3102/3104 29004KT 0600 MIFG BR
                      BECMG 3106/3108 32007G17KT 1800 BR FU
                      BECMG 3110/3112 32008KT 3000 FU HZ
                      BECMG 3115/3117 29004KT 1800 HZ FU
                      BECMG 0100/0103 26004KT 1000 FU=
202010301701 TAF VIDP 301701Z 3018/3124 29004KT 1500 FU BR NSC
                      BECMG 3021/3023 1200 BR
                      BECMG 3102/3104 29006KT 0800 BR FU
                      BECMG 3106/3108 32007G17KT 2000 FU HZ
                      BECMG 3110/3112 32008KT 3000 HZ
                      BECMG 3115/3117 26004KT 2500 HZ FU=
202010301100 TAF VIDP 301100Z 3012/3118 32005KT 2200 HZ NSC
                      BECMG 3100/3102 VRB02KT 1000 BR
                      BECMG 3105/3107 29007KT 1500 FU HZ
                      BECMG 3109/3111 32005KT 2800 FU
                      BECMG 3115/3117 VRB02KT 2000 FU=
202010300500 TAF VIDP 300500Z 3006/3112 25005KT 1000 FU NSC
                      BECMG 3008/3010 29007KT 2000 FU
                      BECMG 3012/3014 32004KT 1800 FU BR
                      BECMG 3000/3102 VRB02KT 0800 MIFG
                      BECMG 3103/3105 00000KT 1000 BR MIFG
                      BECMG 3110/3112 29006KT 2000 FU HZ=
202010292300 TAF VIDP 292300Z 3000/3106 00000KT 1000 BR NSC
                      BECMG 3005/3007 29008KT 2000 HZ
                      BECMG 3009/3011 3000 HZ
                      BECMG 3016/3018 00000KT 1500 HZ
                      BECMG 3101/3103 1000 BR
                      BECMG 3104/3106 29005KT 2000 HZ=
202010291700 TAF VIDP 291700Z 2918/3024 00000KT 1200 FU BR NSC
                      BECMG 3001/3003 27003KT 1000 BR FU
                      BECMG 3007/3009 29008KT 2500 HZ
                      BECMG 3016/3018 00000KT 1500 HZ BR=
202010291100 TAF VIDP 291100Z 2912/3018 00000KT 1800 FU NSC
                      BECMG 2914/2916 00000KT 1500 FU BR
                      BECMG 2923/3001 VRB02KT 0800 MIFG BR
                      BECMG 3003/3005 31005KT 1000 BR FU
                      BECMG 3008/3010 32008KT 1800 FU
                      BECMG 3015/3017 29005KT 2000 FU NSC=
202010290500 TAF VIDP 290500Z 2906/3012 VRB02KT 1000 FU NSC
                      BECMG 2909/2911 02005KT 1800 FU
                      BECMG 2914/2916 00000KT 1500 FU BR
                      BECMG 3001/3003 VRB02KT 0800 MIFG BR
                      BECMG 3004/3006 29006KT 1000 BR FU
                      BECMG 3008/3010 32008KT 1800 FU=
202010282300 TAF VIDP 282300Z 2900/3006 00000KT 1200 BR NSC
                      BECMG 2906/2908 29005KT 2500 FU
                      BECMG 2918/2920 00000KT 2000 FU BR
                      BECMG 3000/3002 1000 BR=
202010281700 TAF VIDP 281700Z 2818/2924 00000KT 1800 FU BR NSC
                      BECMG 2900/2902 1200 BR
                      BECMG 2906/2908 29005KT 2500 FU
                      BECMG 2918/2920 00000KT 2000 FU BR=
202010281100 TAF VIDP 281100Z 2812/2918 32004KT 2200 FU NSC
                      BECMG 2816/2818 00000KT
                      BECMG 2823/2901 1200 BR
                      BECMG 2904/2906 1800 FU
                      BECMG 2908/2910 32005KT 2500 FU
                      BECMG 2915/2917 00000KT 2200 FU=
202010280500 TAF VIDP 280500Z 2806/2912 29006KT 2200 HZ NSC
                      BECMG 2809/2811 3000 HZ
                      BECMG 2815/2817 00000KT 2200 HZ
                      BECMG 2900/2902 1500 BR
                      BECMG 2904/2906 29005KT 2500 HZ
                      BECMG 2909/2911 3500 HZ=
202010272300 TAF VIDP 272300Z 2800/2906 00000KT 1200 FU NSC
                      BECMG 2806/2808 31006KT 2000 FU HZ
                      BECMG 2809/2811 3200 HZ
                      BECMG 2816/2818 VRB02KT 2200 HZ
                      BECMG 2900/2902 1000 FU BR
                      BECMG 2904/2906 31005KT 1800 FU=
202010271700 TAF VIDP 271700Z 2718/2824 00000KT 2800 HZ NSC
                      BECMG 2800/2802 1200 FU
                      BECMG 2806/2808 31006KT 2000 FU HZ
                      BECMG 2809/2811 3200 HZ
                      BECMG 2816/2818 VRB02KT 2200 HZ=
202010271100 TAF VIDP 271100Z 2712/2818 30005KT 3000 HZ NSC
                      BECMG 2800/2802 00000KT 1200 BR
                      BECMG 2804/2806 28005KT 2500 HZ
                      BECMG 2808/2810 3500 HZ
                      BECMG 2814/2816 00000KT 2500 HZ=
202010270500 TAF VIDP 270500Z 2706/2812 25004KT 2500 FU HZ NSC
                      BECMG 2710/2712 32006KT 3000 HZ FEW100
                      BECMG 2715/2717 34004KT 2500 HZ BR NSC
                      BECMG 2801/2803 VRB02KT 1200 FU BR
                      BECMG 2804/2806 26004KT 1500 FU
                      BECMG 2808/2810 29006KT 2500 HZ FEW100=
202010262300 TAF VIDP 262300Z 2700/2806 VRB02KT 1800 BR NSC
                      BECMG 2702/2704 1000 BR FU
                      BECMG 2706/2708 31008KT 2500 FU HZ FEW100
                       BECMG 2715/2717 35004KT 2200 HZ BR NSC
                      BECMG 2801/2803 VRB02KT 1000 BR FU
                      BECMG 2804/2806 29004KT 1800 FU=
202010261700 TAF VIDP 261700Z 2618/2724 35003KT 2500 HZ NSC
                      BECMG 2620/2622 00000KT 2000 HZ FU
                      BECMG 2702/2704 VRB02KT 1200 FU
                      BECMG 2706/2708 29006KT 2000 FU HZ
                      BECMG 2710/2712 32008KT 3000 HZ FEW100
                      BECMG 2715/2717 35004KT 2200 HZ=
202010261100 TAF VIDP 261100Z 2612/2718 34005KT 2500 FU FEW100
                      BECMG 2618/2620 VRB02KT 2000 FU NSC
                      BECMG 2700/2702 1200 FU BR
                      BECMG 2706/2708 29006KT 2500 FU HZ FEW100
                       BECMG 2715/2717 VRB02KT 2200 FU=
202010260500 TAF VIDP 260500Z 2606/2712 29005KT 1200 FU SCT040 BKN100
                      BECMG 2608/2610 32007KT 1500 HZ FU
                      BECMG 2615/2617 VRB02KT 1800 FU SCT100
                      BECMG 2620/2622 00000KT 1500 FU BR
                      BECMG 2700/2702 1000 BR
                      BECMG 2704/2706 32004KT 2000 HZ FU
                      BECMG 2708/2710 29007KT 2500 HZ FEW100=
202010252300 TAF VIDP 252300Z 2600/2706 00000KT 1200 BR SCT100
                      BECMG 2604/2606 VRB02KT 1500 FU FEW100
                      BECMG 2608/2610 32005KT 2500 HZ
                      BECMG 2620/2622 00000KT 2000 HZ BR
                      BECMG 2701/2703 1000 BR
                      BECMG 2704/2706 32004KT 2000 HZ=
202010251700 TAF VIDP 251700Z 2518/2624 00000KT 2200 HZ NSC
                      BECMG 2601/2603 1200 BR SCT100
                      BECMG 2604/2606 VRB02KT 1500 FU FEW100
                      BECMG 2608/2610 32005KT 2500 HZ
                      BECMG 2620/2622 00000KT 2000 HZ BR=
202010251100 TAF VIDP 251100Z 2512/2618 00000KT 1600 FU NSC
                      BECMG 2515/2517 VRB02KT 1500 FU BR
                      BECMG 2523/2601 00000KT 0800 MIFG FEW100
                       BECMG 2603/2606 27005KT 1500 BR FU SCT100
                       BECMG 2608/2610 32008KT 2500 FU HZ
                      BECMG 2615/2617 VRB02KT 2000 FU BR FEW100=
202010250500 TAF VIDP 250500Z 2506/2612 26004KT 1800 FU NSC
                      BECMG 2509/2511 31008KT 2500 FU HZ
                      BECMG 2515/2517 00000KT 1800 HZ BR FEW100
                       BECMG 2601/2603 VRB02KT 0800 MIFG BR
                      BECMG 2604/2606 26004KT 1500 BR FU SCT100
                       BECMG 2608/2610 29006KT 2500 FU HZ=
202010242300 TAF VIDP 242300Z 2500/2606 00000KT 1200 FU BR NSC
                      BECMG 2504/2506 29004KT 2000 FU
                      BECMG 2507/2509 32008KT 3000 HZ
                      BECMG 2517/2519 00000KT 2500 HZ
                      BECMG 2600/2602 1000 FU BR
                      BECMG 2604/2606 27004KT 1800 FU BR=
202010241700 TAF VIDP 241700Z 2418/2524 00000KT 2500 HZ NSC
                      BECMG 2500/2502 1000 FU BR
                      BECMG 2504/2506 2000 FU
                      BECMG 2507/2509 32006KT 3000 HZ
                      BECMG 2517/2519 00000KT 2500 HZ=
202010241100 TAF VIDP 241100Z 2412/2518 30007KT 3000 HZ NSC
                      BECMG 2415/2417 VRB02KT 2500 HZ
                      BECMG 2501/2503 00000KT 1200 BR FU
                      BECMG 2504/2506 29004KT 2500 HZ
                      BECMG 2508/2510 32006KT 3500 HZ
                      BECMG 2515/2517 03003KT 2500 HZ=
202010232300 TAF VIDP 232300Z 2400/2506 00000KT 1000 FU BR NSC
                      BECMG 2404/2406 28003KT 1800 FU
                      BECMG 2407/2409 33008KT 3500 HZ
                      BECMG 2417/2419 00000KT 2200 HZ
                      BECMG 2500/2502 0800 FU MIFG
                      BECMG 2404/2405 VRB02KT 1500 FU BR=
202010231700 TAF VIDP 231700Z 2318/2424 00000KT 2800 HZ NSC
                      BECMG 2400/2402 1000 FU BR
                      BECMG 2404/2406 1800 FU
                      BECMG 2407/2409 33008KT 3500 HZ
                      BECMG 2417/2419 00000KT 2200 HZ=
202010231100 TAF VIDP 231100Z 2312/2418 32005KT 3500 HZ NSC
                      BECMG 2315/2317 VRB02KT 2500 HZ
                      BECMG 2401/2403 00000KT 1200 BR FU
                      BECMG 2404/2406 27004KT 2500 HZ
                      BECMG 2408/2410 30006KT 3500 HZ
                      BECMG 2415/2417 02003KT 2500 HZ=
202010230500 TAF VIDP 230500Z 2306/2412 00000KT 1200 FU FEW100
                      BECMG 2310/2312 32008KT 2500 FU HZ SCT100
                       BECMG 2317/2319 00000KT 2000 HZ FEW100
                      BECMG 2401/2403 VRB002KT 0800 MIFG
                      BECMG 2404/2406 32004KT 1500 FU
                      BECMG 2408/2410 29006KT 2500 FU HZ=
202010222300 TAF VIDP 222300Z 2300/2406 00000KT 1800 HZ BR FEW040 SCT100
                      BECMG 2302/2304 VRB02KT 1200 BR FU
                      BECMG 2306/2308 32008KT 2500 FU HZ SCT100
                       BECMG 2315/2317 00000KT 2000 HZ FEW100
                      BECMG 2401/2403 VRB02KT 1200 BR FU
                      BECMG 2404/2406 29004KT 2000 FU=
202010221700 TAF VIDP 221700Z 2218/2324 00000KT 2200 HZ FEW040 SCT100
                      BECMG 2220/2222 1800 BR
                      BECMG 2302/2304 VRB02KT 1200 BR FU
                      BECMG 2305/2307 29004KT 2000 FU SCT100
                      BECMG 2309/2311 32008KT 2500 FU HZ
                      BECMG 2315/2317 00000KT 2000 HZ FEW100=
202010221100 TAF VIDP 221100Z 2212/2318 04005KT 2500 FU SCT040 BKN100
                      BECMG 2218/2220 VRB02KT 2000 FU FEW040 SCT100
                       BECMG 2301/2303 00000KT 1200 FU BR SCT100
                       BECMG 2305/2307 34005KT 2500 FU HZ
                      BECMG 2308/2310 3000 HZ FEW100
                      BECMG 2215/2217 VRB02KT 2200 HZ NSC=
202010220500 TAF VIDP 220500Z 2206/2312 14005KT 1500 FU FEW040 BKN100
                      BECMG 2210/2212 09005KT 2000 FU
                      BECMG 2218/2220 14005KT 1800 FU BR
                      BECMG 2223/2301 00000KT 1500 BR 2304/2306
                       VRB02KT 2500 HZ FEW100
                      BECMG 2310/2312 09006KT 3000 HZ=
202010212300 TAF VIDP 212300Z 2200/2306 00000KT 2000 BR FU SCT100
                      BECMG 2206/2207 33006KT 3500 HZ -RA FEW040
                       BECMG 2218/2220 00000KT 2500 HZ
                      BECMG 2301/2303 1500 BR FEW100
                      BECMG 2304/2306 VRB02KT 2500 HZ=
202010211700 TAF VIDP 211700Z 2118/2224 00000KT 3000 HZ FEW100
                      BECMG 2201/2203 2000 BR FU SCT100
                      BECMG 2206/2208 34006KT 3500 HZ -RA FEW040
                       BECMG 2218/2220 00000KT 2500 HZ=
202010211100 TAF VIDP 211100Z 2112/2218 32004KT 3500 HZ NSC
                      BECMG 2114/2116 05005KT 3000 HZ FEW100
                      BECMG 2123/2201 00000KT 2500 HZ BR
                      BECMG 2203/2205 29005KT 1800 BR
                      BECMG 2208/2210 32008KT 3000 HZ NSC
                      BECMG 2215/2217 VRB02KT 2500 HZ=
202010210500 TAF VIDP 210500Z 2106/2212 26004KT 2500 FU HZ NSC
                      BECMG 2109/2111 32006KT 3500 HZ
                      BECMG 2116/2118 00000KT 2500 HZ FEW100
                      BECMG 2201/2203 VRB02KT 1500 BR FU
                      BECMG 2204/2206 22004KT 2000 FU HZ NSC
                      BECMG 2208/2210 29008KT 3000 HZ=
202010202300 TAF VIDP 202300Z 2100/2206 00000KT 1200 FU BR NSC
                      BECMG 2104/2106 36005KT 2500 HZ FEW100
                      BECMG 2107/2109 3500 HZ
                      BECMG 2115/2117 VRB02KT 2500 HZ NSC
                      BECMG 2200/2202 1500 FU BR
                      BECMG 2203/2205 VRB02KT 2200 HZ FU=
202010201700 TAF VIDP 201700Z 2018/2124 00000KT 2500 HZ NSC
                      BECMG 2100/2102 1200 FU BR
                      BECMG 2104/2106 36005KT 2500 HZ FEW100
                      BECMG 2107/2109 3500 HZ
                      BECMG 2115/2117 VRB02KT 2500 HZ NSC=
202010201100 TAF VIDP 201100Z 2012/2118 29006KT 3500 HZ NSC
                      BECMG 2018/2020 27003KT 2500 HZ
                      BECMG 2101/2103 00000KT 1200 BR
                      BECMG 2104/2106 32007KT 2500 HZ
                      BECMG 2107/2109 29010KT 4000 HZ FEW100
                      BECMG 2115/2117 07003KT 3000 HZ=
202010200500 TAF VIDP 200500Z 2006/2112 30005KT 2000 HZ NSC
                      BECMG 2007/2009 3500 HZ
                      BECMG 2015/2017 VRB02KT 3000 HZ
                      BECMG 2101/2103 00000KT 1200 BR
                      BECMG 2104/2106 36005KT 2500 HZ FEW100
                      BECMG 2107/2108 3500 HZ SCT100=
202010192300 TAF VIDP 192300Z 2000/2106 00000KT 1200 FU NSC
                      BECMG 2004/2006 33006KT 2200 HZ
                      BECMG 2007/2009 3500 HZ
                      BECMG 2017/2019 VRB02KT 2500 HZ
                      BECMG 2100/2102 1200 FU
                      BECMG 2104/2105 15005KT 2500 FU HZ=
202010191700 TAF VIDP 191700Z 1918/2024 VRB02KT 2800 HZ NSC
                      BECMG 2000/2002 1200 FU
                      BECMG 2004/2006 33006KT 2200 HZ
                      BECMG 2007/2009 3500 HZ
                      BECMG 2017/2019 VRB02KT 2500 HZ=
202010191100 TAF VIDP 191100Z 1912/2018 29008KT 3500 HZ NSC
                      BECMG 1918/1920 27003KT 2500 HZ
                      BECMG 2001/2003 00000KT 1200 BR
                      BECMG 2004/2006 29005KT 2500 HZ
                      BECMG 2007/2008 3200KT 4000 HZ FEW100
                      BECMG 2015/2017 07003KT 3000 HZ=
202010190500 TAF VIDP 190500Z 1906/2012 28006KT 2500 FU HZ FEW100
                      BECMG 1910/1912 32008KT 3000 HZ FEW100
                      BECMG 1917/1919 23004KT 2200 HZ
                      BECMG 2001/2003 VRB02KT 1200 BR FU
                      BECMG 2004/2006 2000 FU
                      BECMG 2008/2010 29008KT 3000 HZ=
202010182300 TAF VIDP 182300Z 1900/2006 00000KT 2200 BR FEW100
                      BECMG 1901/1903 VRB02KT 1200 BR FU
                      BECMG 1905/1907 32008KT 2500 FU HZ NSC
                      BECMG 1915/1917 00000KT 2000 HZ BR
                      BECMG 2001/2003 VRB02KT 1000 BR FU
                      BECMG 2004/2006 1800 FU=
202010181700 TAF VIDP 181700Z 1818/1924 26004KT 3000 HZ NSC
                      BECMG 1822/1824 00000KT 2500 HZ BR FEW100
                       BECMG 1901/1903 VRB02KT 1200 BR
                      BECMG 1905/1907 29004KT 2000 BR FU NSC
                      BECMG 1909/1911 32010KT 3000 FU HZ
                      BECMG 1915/1917 VRB02KT 2500 HZ=
202010181100 TAF VIDP 181100Z 1812/1918 32006KT 3000 HZ NSC
                      BECMG 1818/1820 VRB02KT 2500 HZ
                      BECMG 1900/1902 1200 FU BR
                      BECMG 1905/1907 32007KT 3000 HZ FEW100
                      BECMG 1915/1917 VRB02KT 2200 HZ=
202010180500 TAF VIDP 180500Z 1806/1912 27004KT 150 FU NSC
                      BECMG 1808/1810 29007KT 2500 FU HZ
                      BECMG 1812/1814 32005KT 2500 HZ FEW100
                      BECMG 1823/1901 00000KT 1500 BR
                      BECMG 1903/1905 1000 BR
                      BECMG 1908/1910 31007KT 2500 FU=
202010172300 TAF VIDP 172300Z 1800/1906 00000KT 2000 BR NSC
                      BECMG 1801/1803 1200 BR FU
                      BECMG 1804/1806 29004KT 2500 HZ
                      BECMG 1822/1824 00000KT 1500 BR
                      BECMG 1901/1903 1000 BR
                      BECMG 1904/1906 VRB02KT 2000 BR FU=
202010171700 TAF VIDP 171700Z 1718/1824 00000KT 2500 HZ BR NSC
                      BECMG 1801/1803 1200 BR FU
                      BECMG 1804/1806 29004KT 2500 HZ
                      BECMG 1822/1824 00000KT 2000 BR=
202010171100 TAF VIDP 171100Z 1712/1818 29005KT 2500 FU NSC
                      BECMG 1714/1716 32005KT 2000 FU BR
                      BECMG 1723/1801 00000KT 2000 HZ BR
                      BECMG 1803/1805 VRB02KT 1200 BR
                      BECMG 1808/1810 32006KT 2500 HZ SCT100
                      BECMG 1815/1817 VRB02KT 2000 HZ FEW040=
202010170500 TAF VIDP 170500Z 1706/1812 29004KT 2500 FU HZ NSC
                      BECMG 1709/1711 32006KT 3000 HZ
                      BECMG 1714/1716 00000KT 2000 HZ BR
                      BECMG 1801/1803 VRB02KT 1200 BR
                      BECMG 1804/1806 29004KT 1800 BR FU FEW100
                       BECMG 1809/1811 31006KT 2500 FU HZ FEW40
                       SCT100=
202010162300 TAF VIDP 162300Z 1700/1806 00000KT 1500 HZ BR NSC
                      BECMG 1704/1706 VRB02KT 2500 HZ
                      BECMG 1707/1709 32005KT 3500 HZ FEW100
                      BECMG 1716/1718 00000KT 2500 HZ FU NSC
                      BECMG 1800/1802 00000KT 1500 HZ BR
                      BECMG 1803/1805 VRB02KT 2000 HZ=
202010161700 TAF VIDP 161700Z 1618/1724 00000KT 2200 HZ FU NSC
                      BECMG 1700/1702 1200 FU BR
                      BECMG 1705/1707 32005KT 3500 HZ FEW100
                      BECMG 1716/1718 VRB02KT 2500 HZ FU NSC=
202010161100 TAF VIDP 161100Z 1612/1718 29005KT 3500 HZ NSC
                      BECMG 1618/1620 00000KT 2500 FU
                      BECMG 1700/1702 23003KT 1200 FU
                      BECMG 1704/1706 29006KT 2500 HZ
                      BECMG 1708/1710 3500 HZ=
202010160500 TAF VIDP 160500Z 1606/1712 29004KT 3000 FU NSC
                      BECMG 1606/1608 32006KT 4000 HZ FEW100
                      BECMG 1618/1620 09004KT 2500 HZ FU SCT100
                       BECMG 1701/1703 00000KT 1500 BR FU
                      BECMG 1706/1708 09006KT 3000 HZ FEW040=
202010152300 TAF VIDP 152300Z 1600/1706 00000KT 1200 BR FEW100
                      BECMG 1604/1606 26004KT 2000 FU HZ
                      BECMG 1607/1609 33006KT 3000 HZ NSC
                      BECMG 1617/1619 VRB02KT 2000 HZ BR
                      BECMG 1700/1702 1200 BR
                      BECMG 1704/1705 13005KT 2100 FU HZ=
202010151700 TAF VIDP 151700Z 1518/1624 00000KT 2500 HZ NSC
                      BECMG 1600/1602 1200 BR FEW100
                      BECMG 1604/1606 26004KT 2000 HZ FU
                      BECMG 1607/1609 33006KT 3000 HZ NSC
                      BECMG 1617/1619 VRB02KT 2000 HZ BR=
202010151100 TAF VIDP 151100Z 1512/1618 32005KT 3500 HZ FEW100
                      BECMG 1515/1517 2500 FU BR SCT100
                      BECMG 1601/1603 00000KT 1200 BR FU
                      BECMG 1604/1606 23005KT 2500 FU HZ FEW040
                       BECMG 1607/1609 3500 HZ FEW100
                      BECMG 1615/1617 36005KT 2500 FU BR=
202010150500 TAF VIDP 150500Z 1506/1612 00000KT 2000 FU FEW100
                      BECMG 1510/1512 34006KT 2500 FU HZ
                      BECMG 1517/1519 VRB02KT 2000 HZ BR FEW100
                       BECMG 1601/1603 00000KT 1200 BR
                      BECMG 1604/1606 14005KT 2000 FU HZ
                      BECMG 1608/1610 32006KT 2500 HZ=
202010142300 TAF VIDP 142300Z 1500/1606 VRB02KT 1200 BR SCT100
                      BECMG 1505/1507 1800 BR FU FEW040 SCT100
                       BECMG 1510/1512 32006KT 2500 FU HZ
                      BECMG 1515/1517 VRB02KT 2000 HZ BR SCT100
                       BECMG 1601/1603 00000KT 1200 BR
                      BECMG 1604/1606 13005KT 1800 BR FU=
202010141700 TAF VIDP 141700Z 1418/1524 02003KT 2000 FU BR SCT100
                      BECMG 1422/1424 00000KT 1800 BR
                      BECMG 1501/1503 VRB02KT 1200 BR
                      BECMG 1505/1507 1800 BR FU FEW040 SCT100
                       BECMG 1510/1512 32006KT 2500 FU
                      BECMG 1515/1517 VRB02KT 2000 FU HZ SCT100=
202010141100 TAF VIDP 141100Z 1412/1518 34004KT 2200 FU SCT100
                      BECMG 1500/1502 00000KT 1200 BR
                      BECMG 1505/1507 34005KT 2500 HZ FU
                      BECMG 1515/1517 VRB02KT 2000 FU BR=
202010140500 TAF VIDP 140500Z 1406/1512 07005KT 1500 FU FEW040 SCT100
                      BECMG 1408/1410 03005KT 2200 FU
                      BECMG 1415/1417 05005KT 2500 BR FU
                      BECMG 1423/1501 00000KT 2000 BR
                      BECMG 1503/1505 1500 BR
                      BECMG 1508/1510 VRB02KT 2500 HZ FU=
202010132300 TAF VIDP 132300Z 1400/1506 00000KT 1500 BR
                      BECMG 1405/1407 08004KT 3000 HZ FEW100
                      BECMG 1413/1415 05004KT 2500 HZ BR
                      BECMG 1500/1502 00000KT 1200 BR
                      BECMG 1503/1505 VRB02KT 2500 HZ SCT100=
202010131700 TAF VIDP 131700Z 1318/1424 09004KT 2000 HZ FEW100
                      BECMG 1401/1403 00000KT 1500 BR FU
                      BECMG 1405/1407 09004KT 3000 HZ SCT100
                      BECMG 1413/1415 05004KT 2500 HZ BR=
202010131100 TAF VIDP 131100Z 1312/1418 09005KT 2500 HZ FEW100
                      BECMG 1314/1316 VRB02KT 2000 HZ FU FEW040
                       BECMG 1323/1401 00000KT 1800 BR FU
                      BECMG 1402/1404 14004KT 1500 BR FU
                      BECMG 1406/1408 14008KT 2500 HZ FU
                      BECMG 1410/1412 34008KT 2200 HZ FU
                      BECMG 1415/1417 07005KT 2000 HZ BR=
202010130500 TAF VIDP 130500Z 1306/1412 12004KT 1800 FU NSC
                      BECMG 1309/1311 12008KT 2500 FU
                      BECMG 1314/1316 00000KT 2000 FU
                      BECMG 1400/1402 VRB02KT 1500 BR
                      BECMG 1404/1406 13004KT 1800 BR FU
                      BECMG 1409/1411 35006KT 2500 FU=
202010122300 TAF VIDP 122300Z 1300/1406 00000KT 1500 BR NSC
                      BECMG 1305/1307 13006KT 3500 HZ
                      BECMG 1315/1317 VRB02KT 3500 HZ BR
                      BECMG 1400/1402 00000KT 1500 BR
                      BECMG 1403/1405 VRB02KT 2500 HZ=
202010121700 TAF VIDP 121700Z 1218/1324 00000KT 2200 HZ BR NSC
                      BECMG 1300/1302 11005KT 1500 BR
                      BECMG 1305/1307 13007KT 3500 HZ FEW100
                      BECMG 1315/1317 VRB02KT 1500 HZ BR=
202010121100 TAF VIDP 121100Z 1212/1318 32005KT 3000 HZ NSC
                      BECMG 1215/1217 00000KT 2500 BR
                      BECMG 1300/1302 VRB02KT 1500 BR
                      BECMG 1304/1306 12005KT 2500 FU
                      BECMG 1309/1311 05006KT 3000 FU FEW100
                      BECMG 1314/1316 VRB02KT 2500 FU=
202010120500 TAF VIDP 120500Z 1206/1312 VRB02KT 3000 HZ NSC
                      BECMG 1208/1210 07008KT 4000 HZ
                      BECMG 1214/1216 VRB02KT 3000 HZ
                      BECMG 1223/1301 1500 BR
                      BECMG 1303/1305 11008KT 2500M HZ
                      BECMG 1307/1309 4000 HZ=
202010112300 TAF VIDP 112300Z 1200/1306 00000KT 1800 BR SCT100
                      BECMG 1205/1207 VRB02KT 3500 HZ FEW100
                      BECMG 1217/1219 13006KT 2500 HZ BR NSC
                      BECMG 1300/1302 1800 BR
                      BECMG 1304/1305 2500 HZ=
202010111700 TAF VIDP 111700Z 1118/1224 00000KT 2800 HZ NSC
                      BECMG 1200/1202 1800 BR SCT100
                      BECMG 1205/1207 VRB02KT 3500 HZ FEW100
                      BECMG 1217/1219 13006KT 2200 HZ BR NSC=
202010111100 TAF VIDP 111100Z 1112/1218 30008KT 3500 HZ NSC
                      BECMG 1116/1118 VRB02KT 2500 HZ
                      BECMG 1200/1202 OOOOOKT 1500 BR
                      BECMG 1204/1206 VRB02KT 2500 HZ
                      BECMG 1208/1210 07005KT 4000 HZ
                      BECMG 1214/1216 VRB02KT 3000 HZ=
202010110500 TAF VIDP 110500Z 1106/1212 27004KT 3000 HZ NSC
                      BECMG 1110/1112 3500 HZ
                      BECMG 1115/1117 28004KT 3000 HZ
                      BECMG 1200/1202 2000 BR
                      BECMG 1204/1206 32004KT 3000 HZ NSC
                      BECMG 1208/1210 29008KT 3500 HZ=
202010102300 TAF VIDP 102300Z 1100/1206 VRB02KT 2000 BR NSC
                      BECMG 1105/1107 29005KT 2500 HZ
                      BECMG 1110/1112 02010KT 3500 HZ
                      BECMG 1115/1117 VRB02KT 3000 HZ
                      BECMG 1200/1202 00000KT 2000 BR FEW100
                      BECMG 1204/1206 13005KT 2500 HZ=
202010101700 TAF VIDP 101700Z 1018/1124 29005KT 2800 BR NSC
                      BECMG 1100/1102 VRB02KT 2000 BR HZ
                      BECMG 1105/1107 29005KT 2500 HZ
                      BECMG 1110/1112 02010KT 3500 HZ
                      BECMG 1115/1117 VRB02KT 3000 HZ
                      BECMG 1122/1124 00000KT 2500 BR FEW100=
202010101100 TAF VIDP 101100Z 1012/1118 29007KT 3000 HZ NSC
                      BECMG 1022/1024 00000KT 2000 BR
                      BECMG 1104/1106 25005KT 2500 HZ
                      BECMG 1108/1110 32008KT 3500 HZ
                      BECMG 1015/1017 VRB02KT 2500 HZ=
202010100500 TAF VIDP 100500Z 1006/1112 29007KT 2500 HZ NSC
                      BECMG 1008/1010 30010KT 3500 HZ
                      BECMG 1012/1014 29008KT 3000 HZ
                      BECMG 1015/1017 VRB02KT 2500 HZ
                      BECMG 1023/1101 00000KT 1500 BR
                      BECMG 1103/1105 27004KT 1800 BR
                      BECMG 1108/1110 29008KT 3500 HZ=
202010092300 TAF VIDP 092300Z 1000/1106 00000KT 1500 BR NSC
                      BECMG 1004/1006 VRB02KT 2500 HZ
                      BECMG 1007/1009 29008KT 4000 HZ
                      BECMG 1015/1017 00000KT 3000 HZ
                      BECMG 1023/1101 1500 BR
                      BECMG 1103/1105 VRB02KT 2500 HZ=
202010091700 TAF VIDP 091700Z 0918/1024 VRB02KT 2500 HZ NSC
                      BECMG 0923/1001 00000KT 1500 BR
                      BECMG 1003/1005 VRB02KT 2500 HZ
                      BECMG 1007/1009 29008KT 4500 HZ
                      BECMG 1014/1016 VRB02KT 3000 HZ
                      BECMG 1021/1023 00000KT 2200 BR=
202010091100 TAF VIDP 091100Z 0912/1018 31006KT 3500 HZ NSC
                      BECMG 0918/0920 29005KT 2500 HZ BR
                      BECMG 0923/1001 00000KT 2000 BR
                      BECMG 1003/1005 27005KT 1500 BR
                      BECMG 1008/1010 32010KT 3000 HZ
                      BECMG 1012/1014 29008G18KT 4500 HZ
                      BECMG 1015/1017 31005KT 3000 HZ=
202010090500 TAF VIDP 090500Z 0906/1012 26006KT 3500 HZ NSC
                      BECMG 0909/0911 32010KT 4000 HZ
                      BECMG 0916/0918 VRB02KT 3500 HZ
                      BECMG 1000/1002 26005KT 2000 HZ
                      BECMG 1005/1007 29008KT 3000 HZ
                      BECMG 1009/1011 32007G17KT 4000 HZ=
202010082300 TAF VIDP 082300Z 0900/1006 00000KT 1500 BR NSC
                      BECMG 0904/0906 32005KT 2500 HZ
                      BECMG 0908/0910 29008KT 4000 HZ
                      BECMG 0915/0917 32004KT 3000 HZ BR
                      BECMG 0921/0923 00000KT 2500 BR HZ
                      BECMG 1001/1003 32004KT 1500 BR
                      BECMG 1004/1006 2500 BR HZ=
202010081700 TAF VIDP 081700Z 0818/0924 00000KT 2500 HZ BR NSC
                      BECMG 0900/0902 1500 BR
                      BECMG 0904/0906 27005KT 2500 HZ
                      BECMG 0908/0910 31008KT 4000 HZ
                      BECMG 0915/0917 VRB02KT 2500 HZ BR=
202010081100 TAF VIDP 081100Z 0812/0918 32008KT 3000 HZ NSC
                      BECMG 0818/0820 00000KT 2500 HZ BR
                      BECMG 0901/0903 VRB02KT 1500 BR
                      BECMG 0904/0906 29005KT 2500 HZ
                      BECMG 0909/0911 32008KT 3500 HZ
                      BECMG 0915/0917 02005KT 2800 HZ=
202010072300 TAF VIDP 072300Z 0800/0906 00000KT 1800 BR
                      BECMG 0802/0804 1500 BR
                      BECMG 0806/0808 29008KT 3500 HZ
                      BECMG 0816/0818 VRB02KT 3000 HZ
                      BECMG 0821/0823 00000KT 2500 BR HZ
                      BECMG 0901/0903 29004KT 1500 BR
                      BECMG 0904/0906 2500 BR HZ=
202010071700 TAF VIDP 071700Z 0718/0824 29005KT 3000 HZ NSC
                      BECMG 0718/0720 00000KT 2200 BR
                      BECMG 0723/0801 00000KT 2000 BR
                      BECMG 0803/0805 29005KT 3000 HZ
                      BECMG 0807/0810 32010KT 4500 HZ
                      BECMG 0814/0816 VRB02KT 3000 HZ
                      BECMG 0820/0823 00000KT 2000 BR=
202010071100 TAF VIDP 071100Z 0712/0818 32008KT 4000 HZ NSC
                      BECMG 0716/0718 VRB02KT 3000 HZ
                      BECMG 0723/0801 00000KT 2000 BR
                      BECMG 0803/0805 29008KT 3000 HZ
                      BECMG 0807/0809 4500 HZ
                      BECMG 0814/0816 VRB02KT 3000 HZ=
202010070501 TAF VIDP 070501Z 0706/0812 27004KT 3500 HZ NSC
                      BECMG 0710/0712 32008KT 4000 HZ
                      BECMG 0716/0718 32004KT 3000 HZ
                      BECMG 0723/0801 00000KT 1800 BR
                      BECMG 0804/0806 2500 BR HZ
                      BECMG 0810/0812 3500 HZ FEW100=
202010070500 TAF VIDP 070500Z 0706/0812 27004KT 3500 HZ NSC
                      BECMG 0710/0712 32008KT 4000 HZ
                      BECMG 0716/0718 32004KT 3000 HZ
                      BECMG 0723/0801 00000KT 1800 BR
                      BECMG 0804/0806 2500 BR HZ=
202010062300 TAF VIDP 062300Z 0700/0806 27004KT 2500 BR NSC
                      BECMG 0702/0704 29006KT 1500 BR
                      BECMG 0706/0708 31008KT 3500 HZ
                      BECMG 0716/0718 VRB02KT 3000 HZ
                      BECMG 0721/0723 00000KT 2500 HZ
                      BECMG 0801/0803 26004KT 1500 BR
                      BECMG 0804/0806 2000 BR HZ=
202010061700 TAF VIDP 061700Z 0618/0724 00000KT 3000 HZ NSC
                      BECMG 0702/0704 29004KT 1500 BR
                      BECMG 0705/0707 31008KT 2500 HZ
                      BECMG 0709/0711 3500 HZ FEW100
                      BECMG 0715/0717 VRB02KT 3000 HZ
                      BECMG 0721/0723 00000KT 2500 HZ=
202010061100 TAF VIDP 061100Z 0612/0718 30008KT 3000 HZ NSC
                      BECMG 0700/0702 VRB02KT 1500 BR
                      BECMG 0704/0706 27005KT 2500 HZ FEW100
                      BECMG 0708/0710 32008KT 4000 HZ
                      BECMG 0715/0717 VRB02KT 2500 HZ=
202010060500 TAF VIDP 060500Z 0606/0712 27007KT 2000 HZ NSC
                      BECMG 0608/0612 29008G18KT 3500 HZ
                      BECMG 0615/0620 VRB02KT 2500 BR HZ
                      BECMG 0623/0701 00000KT 1500 BR
                      BECMG 0703/0706 2000 BR
                      BECMG 0708/0710 3500 HZ FEW100=
202010052300 TAF VIDP 052300Z 0600/0706 VRB02KT 1800 BR NSC
                      BECMG 0604/0606 29008G18KT 3000 HZ
                      BECMG 0607/0609 5000 HZ
                      BECMG 0613/0615 00000KT 3000 HZ
                      BECMG 0623/0701 1500 BR
                      BECMG 0703/0705 27006KT 2500 HZ=
202010051700 TAF VIDP 051700Z 0518/0624 00000KT 3000 HZ NSC
                      BECMG 0523/0601 1800 BR
                      BECMG 0604/0606 29008G18KT 3000 HZ
                      BECMG 0607/0609 5000 HZ
                      BECMG 0613/0615 00000KT 3000 HZ
                      BECMG 0621/0623 2500 BR=
202010051100 TAF VIDP 051100Z 0512/0618 32010G20KT 6000 NSC
                      BECMG 0515/0517 VRB02KT 3000 HZ BR
                      BECMG 0523/0603 00000KT 1500 BR
                      BECMG 0605/0608 29005KT 3000 HZ
                      BECMG 0610/0614 32008KT 3500 HZ
                      BECMG 0615/0617 29008KT 3000 HZ=
202010050500 TAF VIDP 050500Z 0506/0612 32008KT 2500 HZ NSC
                      BECMG 0509/0511 32007G17KT 3500 HZ
                      BECMG 0515/0517 VRB02KT 2500 HZ BR
                      BECMG 0601/0603 00000KT 1500 BR
                      BECMG 0604/0606 29005KT 2500 HZ
                      BECMG 0609/0611 32008KT 3500 HZ=
202010042300 TAF VIDP 042300Z 0500/0606 00000KT 1500 BR NSC
                      BECMG 0504/0506 2500 BR HZ
                      BECMG 0507/0509 32008KT 4000 HZ
                      BECMG 0517/0519 29004KT 2500 BR
                      BECMG 0600/0602 1500 BR
                      BECMG 0604/0606 26005KT 2500 BR HZ=
202010041700 TAF VIDP 041700Z 0418/0524 29004KT 2500 HZ BR NSC
                      BECMG 0500/0502 1200 BR
                      BECMG 0504/0506 32007KT 2800 HZ
                      BECMG 0508/0510 4000 HZ
                      BECMG 0517/0519 VRB02KT 2500 HZ BR=
202010041100 TAF VIDP 041100Z 0412/0518 32008KT 3500 HZ NSC
                      BECMG 0415/0417 29005KT 2500 HZ BR
                      BECMG 0500/0502 1500 BR
                      BECMG 0503/0505 31008KT 2500 BR HZ
                      BECMG 0508/0512 31007G17KT 4000 HZ
                      BECMG 0515/0517 29005KT 2500 BR=
202010040500 TAF VIDP 040500Z 0406/0418 29005KT 4500 HZ NSC
                      BECMG 0414/0416 VRB02KT 3000 HZ
                      BECMG 0423/0501 00000KT 1500 BR
                      BECMG 0504/0506 29005KT 4000 HZ
                      BECMG 0514/0516 VRB02KT 3000 HZ=
202010032300 TAF VIDP 032300Z 0400/0506 25004KT 1200 BR NSC
                      BECMG 0404/0406 2800 BR HZ
                      BECMG 0407/0409 31008KT 3500 HZ
                      BECMG 0417/0419 VRB02KT 2000 BR
                      BECMG 0500/0502 1200 BR
                      BECMG 0504/0505 28005KT 2500 BR HZ=
202010031700 TAF VIDP 031700Z 0318/0424 VRB02KT 2500 HZ BR NSC
                      BECMG 0400/0402 25004KT 1200 BR
                      BECMG 0404/0406 2800 BR HZ
                      BECMG 0407/0409 31008KT 3500 HZ
                      BECMG 0417/0419 VRB02KT 2000 BR=
202010031100 TAF VIDP 031100Z 0312/0418 32006KT 4000 HZ NSC
                      BECMG 0318/0320 00000KT 3000 HZ
                      BECMG 0400/0402 25004KT 1500 BR
                      BECMG 0403/0405 3000 HZ
                      BECMG 0406/0408 32007KT 5000 HZ=
202010030500 TAF VIDP 030500Z 0306/0412 26004KT 3000 HZ NSC
                      BECMG 0309/0311 32008KT 5000 HZ
                      BECMG 0315/0317 29006KT 3500 HZ NSC
                      BECMG 0323/0401 25004KT 1800 BR
                      BECMG 0403/0405 27003KT 3000 HZ
                      BECMG 0408/0410 4500 HZ=
202010022300 TAF VIDP 022300Z 0300/0406 24005KT 1800 BR NSC
                      BECMG 0303/0305 29008KT 3000 HZ FEW100
                      BECMG 0308/0310 32010KT 5000 HZ
                      BECMG 0315/0317 29006KT 3500 HZ NSC
                      BECMG 0323/0401 00000KT 2000 BR
                      BECMG 0403/0405 26005KT 3000 HZ=
202010021700 TAF VIDP 021700Z 0218/0324 32004KT 3000 HZ BR NSC
                      BECMG 0300/0302 25004KT 2000 BR
                      BECMG 0304/0306 27010KT 3000 HZ
                      BECMG 0307/0309 5000 HZ
                      BECMG 0315/0317 05004KT 3000 HZ BR=
202010021100 TAF VIDP 021100Z 0212/0318 29006KT 4000 HZ NSC
                      BECMG 0218/0220 VRB02KT 2200 HZ BR
                      BECMG 0304/0306 27007KT 5000 HZ FEW100
                      BECMG VRB02KT 3000 HZ NSC=
202010020500 TAF VIDP 020500Z 0206/0312 27005KT 0206/0312 27005KT 3000 HZ NSC
                       0207/0210 29010KT 4000 HZ
                      BECMG 0212/0215 VRB02KT 3000 HZ
                      BECMG 0223/0301 00000KT 2000 BR
                      BECMG 0303/0305 29008KT 3000 HZ
                      BECMG 0308/0312 3500 HZ=
202010012300 TAF VIDP 012300Z 0200/0306 VRB02KT 2000 BR NSC
                      BECMG 0202/0209 29008KT 4000 HZ
                      BECMG 0214/0216 VRB02KT 3000 HZ
                      BECMG 0222/0302 00000KT 2000 BR
                      BECMG 0303/0305 29008KT 3500 HZ=
202010011700 TAF VIDP 011700Z 0118/0224 00000KT 2500 HZ BR NSC
                      BECMG 0202/0204 27008KT 4000 HZ
                      BECMG 0214/0216 00000KT 3000 HZ
                      BECMG 0221/0223 2000 BR=
202010011100 TAF VIDP 011100Z 0112/0218 29008KT 3500 HZ NSC
                      BECMG 0117/0119 VRB02KT 2500 HZ BR
                      BECMG 0200/0202 1500 BR
                      BECMG 0204/0206 27008KT 2500 HZ
                      BECMG 0207/0209 33008KT 3500 HZ
                      BECMG 0215/0217 VRB02KT 2500 HZ=
202010010500 TAF VIDP 010500Z 0106/0212 29010KT 3500 HZ FEW100
                      BECMG 0107/0111 32010G20KT 4000 HZ
                      BECMG 0115/0117 31008KT 3000 HZ
                      BECMG 0123/0201 VRB02KT 2500 BR NSC
                      BECMG 0205/0207 31008KT 3500 HZ FEW100=

