
##########################################################
# Query made at 07/09/2023 14:48:09 UTC
# Time interval: from 04/01/2020 00:00  to 04/30/2020 23:59  UTC
##########################################################

##########################################################
# VIDP, New Delhi / Palam (India)
# WMO index: 42181
# Latitude 28-34-00N. Longitude 077-07-00E. Altitude 225 m.
##########################################################

###################################
#  METAR/SPECI from VIDP
###################################
202004302330 METAR VIDP 302330Z 00000KT 2500 HZ FEW100 26/18 Q1006 NOSIG=
202004302300 METAR VIDP 302300Z 00000KT 3000 HZ FEW100 26/18 Q1006 NOSIG=
202004302230 METAR VIDP 302230Z 11003KT 3000 HZ FEW100 26/18 Q1006 NOSIG=
202004302200 METAR VIDP 302200Z 00000KT 3000 HZ FEW100 26/19 Q1006 NOSIG=
202004302130 METAR VIDP 302130Z 00000KT 3000 HZ FEW100 27/19 Q1007 NOSIG=
202004302100 METAR VIDP 302100Z 00000KT 3000 HZ FEW100 27/19 Q1007 NOSIG=
202004302030 METAR VIDP 302030Z 00000KT 3000 HZ FEW100 27/18 Q1007 NOSIG=
202004302000 METAR VIDP 302000Z 00000KT 3000 HZ FEW100 28/18 Q1007 NOSIG=
202004301930 METAR VIDP 301930Z 00000KT 3000 HZ FEW100 28/17 Q1007 NOSIG=
202004301900 METAR VIDP 301900Z 00000KT 3000 HZ FEW100 28/17 Q1007 NOSIG=
202004301830 METAR VIDP 301830Z 00000KT 3000 HZ SCT100 28/17 Q1007 NOSIG=
202004301800 METAR VIDP 301800Z 00000KT 3000 HZ SCT100 28/18 Q1007 NOSIG=
202004301730 METAR VIDP 301730Z 00000KT 3000 HZ SCT100 29/18 Q1007 NOSIG=
202004301700 METAR VIDP 301700Z 15003KT 3000 HZ SCT100 30/17 Q1007 NOSIG=
202004301630 METAR VIDP 301630Z 17003KT 3000 HZ SCT100 30/17 Q1007 NOSIG=
202004301600 METAR VIDP 301600Z 15003KT 3000 HZ FEW040 SCT100 30/17 Q1007 NOSIG=
202004301530 METAR VIDP 301530Z 09004KT 3000 HZ FEW040 SCT100 31/16 Q1006 NOSIG=
202004301500 METAR COR VIDP 301500Z 09004KT 3000 HZ FEW040 SCT100 31/16 Q1006 NOSIG=
202004301430 METAR VIDP 301430Z 08007KT 3000 HZ FEW040 SCT100 32/17 Q1006 NOSIG=
202004301400 METAR VIDP 301400Z 06008G18KT 3000 HZ FEW040 SCT100 33/17 Q1006 NOSIG=
202004301330 METAR VIDP 301330Z 05008G18KT 3500 HZ FEW040 SCT100 35/17 Q1006 BECMG 3000 HZ=
202004301300 METAR VIDP 301300Z 28005KT 4000 HZ FEW040 36/16 Q1005 NOSIG=
202004301230 METAR VIDP 301230Z 25004KT 4000 HZ FEW040 36/16 Q1005 NOSIG=
202004301200 METAR VIDP 301200Z 24004KT 4500 HZ FEW100 37/16 Q1005 NOSIG=
202004301130 METAR VIDP 301130Z 29003KT 4500 HZ FEW100 37/16 Q1005 NOSIG=
202004301100 METAR VIDP 301100Z 27004KT 4500 HZ FEW040 37/16 Q1005 NOSIG=
202004301030 METAR VIDP 301030Z 25004KT 5000 HZ FEW040 38/17 Q1006 NOSIG=
202004301000 METAR VIDP 301000Z 26004KT 5000 HZ FEW040 38/17 Q1006 NOSIG=
202004300930 METAR VIDP 300930Z 30004KT 5000 HZ FEW040 SCT100 38/17 Q1007 NOSIG=
202004300900 METAR VIDP 300900Z 32004KT 5000 HZ FEW040 SCT100 38/17 Q1007 NOSIG=
202004300830 METAR VIDP 300830Z 34005KT 5000 HZ FEW100 38/17 Q1008 NOSIG=
202004300800 METAR VIDP 300800Z 32005KT 5000 HZ FEW100 37/17 Q1008 NOSIG=
202004300730 METAR VIDP 300730Z 24003KT 5000 HZ FEW100 37/17 Q1009 NOSIG=
202004300700 METAR VIDP 300700Z 18003KT 5000 HZ FEW100 36/18 Q1009 NOSIG=
202004300630 METAR VIDP 300630Z 04003KT 5000 HZ FEW100 36/18 Q1010 NOSIG=
202004300530 METAR VIDP 300530Z 04003KT 3500 HZ NSC 34/18 Q1010 NOSIG=
202004300500 METAR VIDP 300500Z 11003KT 3000 HZ NSC 33/19 Q1010 NOSIG=
202004300430 METAR VIDP 300430Z 13004KT 2500 HZ FEW100 32/19 Q1010 BECMG 3000 HZ=
202004300400 METAR VIDP 300400Z 14003KT 2500 HZ SCT100 31/19 Q1010 NOSIG=
202004300330 METAR VIDP 300330Z 14003KT 2200 HZ FEW040 SCT100 30/20 Q1010 NOSIG=
202004300300 METAR VIDP 300300Z 13004KT 2200 HZ FEW040 SCT100 29/20 Q1010 NOSIG=
202004300230 METAR VIDP 300230Z 14005KT 2200 HZ FEW040 SCT100 28/20 Q1009 NOSIG=
202004300200 METAR VIDP 300200Z 12004KT 2200 HZ FEW040 SCT100 27/20 Q1009 NOSIG=
202004300130 METAR VIDP 300130Z 12005KT 2200 HZ FEW040 SCT100 27/20 Q1009 NOSIG=
202004300100 METAR VIDP 300100Z 13003KT 2200 HZ FEW040 SCT100 27/20 Q1009 NOSIG=
202004300030 METAR VIDP 300030Z 12003KT 2200 HZ FEW040 SCT100 27/20 Q1008 NOSIG=
202004300000 METAR VIDP 300000Z 11004KT 2500 HZ FEW040 SCT100 27/20 Q1008 NOSIG=
202004292330 METAR COR VIDP 292330Z 12003KT 3000 HZ FEW040 SCT100 27/20 Q1008 NOSIG=
202004292300 METAR COR VIDP 292300Z 11003KT 3000 HZ FEW040 SCT100 27/20 Q1008 NOSIG=
202004292230 METAR VIDP 292230Z 13003KT 3000 HZ FEW035 FEW040CB SCT100 27/20 Q1008 NOSIG=
202004292200 METAR VIDP 292200Z 12005KT 3000 HZ FEW035 FEW040CB SCT100 28/20 Q1008 NOSIG=
202004292130 METAR VIDP 292130Z 10004KT 3000 HZ FEW035 FEW040CB SCT100 28/20 Q1009 NOSIG=
202004292100 METAR VIDP 292100Z 09004KT 3000 HZ FEW035 FEW040CB SCT100 28/20 Q1009 NOSIG=
202004292030 METAR COR VIDP 292030Z 10005KT 3000 HZ FEW035 FEW040CB SCT100 28/20 Q1009 NOSIG=
202004292000 METAR VIDP 292000Z 11004KT 3000 HZ SCT100 28/20 Q1009 NOSIG=
202004291930 METAR VIDP 291930Z 10004KT 3000 HZ SCT100 28/20 Q1008 NOSIG=
202004291900 METAR VIDP 291900Z 10006KT 3000 HZ SCT100 28/20 Q1008 NOSIG=
202004291830 METAR VIDP 291830Z 10007KT 3000 HZ SCT100 29/19 Q1008 NOSIG=
202004291800 METAR VIDP 291800Z 11006KT 3000 HZ SCT100 30/18 Q1008 NOSIG=
202004291730 METAR VIDP 291730Z 12006KT 3000 HZ SCT100 30/18 Q1008 NOSIG=
202004291700 METAR VIDP 291700Z 12007KT 3000 HZ SCT100 30/18 Q1008 NOSIG=
202004291630 METAR VIDP 291630Z 10006KT 3000 HZ SCT100 31/17 Q1008 NOSIG=
202004291600 METAR VIDP 291600Z 10004KT 3200 HZ SCT100 31/17 Q1007 BECMG 3000 HZ=
202004291530 METAR VIDP 291530Z 00000KT 3200 HZ SCT100 32/17 Q1007 NOSIG=
202004291500 METAR VIDP 291500Z 00000KT 3500 HZ SCT100 32/17 Q1007 NOSIG=
202004291430 METAR VIDP 291430Z 00000KT 3500 HZ SCT100 33/17 Q1006 NOSIG=
202004291400 METAR VIDP 291400Z 10002KT 3500 HZ FEW040 SCT100 33/17 Q1006 NOSIG=
202004291330 METAR VIDP 291330Z 08003KT 4000 HZ FEW040 SCT100 33/17 Q1006 NOSIG=
202004291300 METAR VIDP 291300Z 10003KT 4500 HZ FEW040 SCT100 34/16 Q1006 NOSIG=
202004291230 METAR VIDP 291230Z 28003KT 5000 HZ FEW040 SCT100 35/15 Q1006 NOSIG=
202004291200 METAR VIDP 291200Z 27003KT 5000 HZ FEW040 SCT100 35/15 Q1006 NOSIG=
202004291130 METAR VIDP 291130Z 28003KT 5000 HZ FEW040 SCT100 35/15 Q1006 NOSIG=
202004291100 METAR VIDP 291100Z 23004KT 5000 HZ FEW040 SCT100 35/16 Q1006 NOSIG=
202004291030 METAR VIDP 291030Z 25005KT 5000 HZ FEW040 SCT100 36/17 Q1007 NOSIG=
202004291000 METAR VIDP 291000Z 27005KT 5000 HZ FEW040 SCT100 36/17 Q1007 NOSIG=
202004290930 METAR VIDP 290930Z 25005KT 5000 HZ FEW040 SCT100 36/17 Q1007 NOSIG=
202004290900 METAR VIDP 290900Z 33004KT 5000 HZ FEW040 SCT100 36/17 Q1008 NOSIG=
202004290830 METAR VIDP 290830Z 25004KT 5000 HZ FEW040 SCT100 36/17 Q1008 NOSIG=
202004290800 METAR VIDP 290800Z 28005KT 5000 HZ FEW100 35/17 Q1009 NOSIG=
202004290730 METAR VIDP 290730Z 26004KT 5000 HZ FEW100 35/17 Q1009 NOSIG=
202004290700 METAR VIDP 290700Z 20005KT 5000 HZ FEW100 35/18 Q1010 NOSIG=
202004290630 METAR VIDP 290630Z 16005KT 5000 HZ FEW100 34/18 Q1010 NOSIG=
202004290600 METAR VIDP 290600Z 16005KT 4000 HZ NSC 33/18 Q1010 BECMG 5000 HZ=
202004290530 METAR VIDP 290530Z 15005KT 3500 HZ NSC 33/19 Q1010 NOSIG=
202004290500 METAR VIDP 290500Z 16005KT 3500 HZ NSC 32/19 Q1011 NOSIG=
202004290430 METAR VIDP 290430Z 16006KT 3000 HZ NSC 31/19 Q1011 NOSIG=
202004290400 METAR VIDP 290400Z 16006KT 3000 HZ NSC 30/19 Q1011 NOSIG=
202004290330 METAR VIDP 290330Z 15007KT 2500 HZ NSC 29/19 Q1011 BECMG 3000 HZ=
202004290300 METAR VIDP 290300Z 15005KT 2500 HZ NSC 29/20 Q1011 NOSIG=
202004290230 METAR VIDP 290230Z 15004KT 2100 HZ NSC 28/20 Q1010 NOSIG=
202004290200 METAR VIDP 290200Z 17003KT 1600 R28/P2000 R29/P2000 HZ NSC 26/20 Q1010 NOSIG=
202004290130 METAR VIDP 290130Z 17004KT 1600 R28/P2000 R29/P2000 HZ NSC 25/20 Q1010 NOSIG=
202004290100 METAR COR VIDP 290100Z 13004KT 1600 R28/P2000 R29/P2000 HZ NSC 25/20 Q1009 NOSIG=
202004290030 METAR VIDP 290030Z 15004KT 2500 HZ NSC 25/20 Q1009 NOSIG=
202004290000 METAR VIDP 290000Z 17003KT 2500 HZ NSC 25/19 Q1009 NOSIG=
202004282330 METAR VIDP 282330Z 00000KT 2500 HZ NSC 25/19 Q1009 NOSIG=
202004282300 METAR VIDP 282300Z 00000KT 3000 HZ FEW100 25/18 Q1009 NOSIG=
202004282230 METAR VIDP 282230Z 00000KT 3000 HZ FEW100 26/18 Q1009 NOSIG=
202004282200 METAR VIDP 282200Z 00000KT 3500 HZ FEW100 26/18 Q1009 BECMG 3000 HZ=
202004282130 METAR VIDP 282130Z 00000KT 3500 HZ FEW100 27/18 Q1009 NOSIG=
202004282100 METAR VIDP 282100Z 00000KT 3500 HZ FEW100 27/18 Q1009 NOSIG=
202004282030 METAR VIDP 282030Z 00000KT 3500 HZ FEW100 27/18 Q1009 NOSIG=
202004282000 METAR VIDP 282000Z 00000KT 3500 HZ FEW100 27/18 Q1009 NOSIG=
202004281930 METAR VIDP 281930Z 00000KT 3500 HZ FEW100 28/19 Q1009 NOSIG=
202004281900 METAR VIDP 281900Z 11004KT 3500 HZ FEW100 28/19 Q1009 NOSIG=
202004281830 METAR COR VIDP 281830Z 00000KT 3500 HZ FEW100 28/19 Q1009 NOSIG=
202004281800 METAR COR VIDP 281800Z 00000KT 4000 HZ FEW100 28/20 Q1009 NOSIG=
202004281730 METAR VIDP 281730Z 00000KT 4000 HZ FEW100 29/20 Q1009 NOSIG=
202004281700 METAR VIDP 281700Z 00000KT 4000 HZ FEW100 29/20 Q1009 NOSIG=
202004281630 METAR VIDP 281630Z 00000KT 4000 HZ FEW100 29/20 Q1009 NOSIG=
202004281600 METAR VIDP 281600Z 00000KT 4000 HZ FEW035 SCT100 29/20 Q1009 NOSIG=
202004281530 METAR VIDP 281530Z 00000KT 4000 HZ FEW035 SCT100 29/19 Q1009 NOSIG=
202004281500 METAR VIDP 281500Z 00000KT 4000 HZ FEW035 SCT100 30/19 Q1009 NOSIG=
202004281430 METAR VIDP 281430Z 10002KT 4000 HZ FEW035 FEW040CB SCT100 30/19 Q1009 TEMPO 30010G30KT 1500 TS=
202004281400 METAR VIDP 281400Z 09004KT 4000 HZ FEW035 FEW035CB SCT100 31/18 Q1008 TEMPO 30010G30KT 1500 TS=
202004281330 METAR VIDP 281330Z 08004KT 4500 HZ FEW035 FEW035CB SCT100 32/18 Q1008 NOSIG=
202004281300 METAR VIDP 281300Z 07004KT 4500 HZ FEW100 32/17 Q1008 NOSIG=
202004281230 METAR VIDP 281230Z 08003KT 5000 HZ SCT040 32/18 Q1008 NOSIG=
202004281200 METAR VIDP 281200Z 09003KT 5000 HZ SCT040 33/18 Q1008 NOSIG=
202004281130 METAR VIDP 281130Z 08003KT 5000 HZ SCT040 33/18 Q1009 NOSIG=
202004281100 METAR VIDP 281100Z 08003KT 5000 HZ SCT040 33/17 Q1009 NOSIG=
202004281030 METAR VIDP 281030Z 09004KT 5000 HZ SCT040 32/16 Q1009 NOSIG=
202004281000 METAR VIDP 281000Z 12004KT 5000 HZ SCT040 32/16 Q1009 NOSIG=
202004280930 METAR VIDP 280930Z 13005KT 5000 HZ SCT040 32/16 Q1010 NOSIG=
202004280900 METAR VIDP 280900Z 12004KT 5000 HZ SCT040 32/16 Q1010 NOSIG=
202004280830 METAR VIDP 280830Z 15004KT 5000 HZ SCT040 33/17 Q1011 NOSIG=
202004280800 METAR VIDP 280800Z 13005KT 5000 HZ FEW040 33/17 Q1011 NOSIG=
202004280730 METAR VIDP 280730Z 10007KT 5000 HZ FEW040 33/17 Q1012 NOSIG=
202004280700 METAR VIDP 280700Z 12006KT 5000 HZ FEW040 32/17 Q1012 NOSIG=
202004280630 METAR VIDP 280630Z 10008KT 5000 HZ FEW040 32/17 Q1013 NOSIG=
202004280600 METAR VIDP 280600Z 11009KT 5000 HZ NSC 31/17 Q1013 NOSIG=
202004280530 METAR VIDP 280530Z 11010KT 5000 HZ NSC 31/17 Q1013 NOSIG=
202004280500 METAR VIDP 280500Z 10005KT 4500 HZ NSC 30/17 Q1014 BECMG 5000 HZ=
202004280430 METAR VIDP 280430Z 12005KT 4000 HZ NSC 29/17 Q1014 NOSIG=
202004280400 METAR VIDP 280400Z 12005KT 3500 HZ NSC 28/17 Q1014 NOSIG=
202004280330 METAR VIDP 280330Z 11007KT 3500 HZ NSC 27/18 Q1014 NOSIG=
202004280300 METAR VIDP 280300Z 10006KT 3000 HZ NSC 26/18 Q1014 NOSIG=
202004280230 METAR VIDP 280230Z 09006KT 2500 HZ NSC 26/18 Q1014 BECMG 3000 HZ=
202004280200 METAR VIDP 280200Z 10007KT 2500 HZ FEW100 26/18 Q1014 NOSIG=
202004280130 METAR VIDP 280130Z 09007KT 2500 HZ FEW100 25/18 Q1013 NOSIG=
202004280100 METAR VIDP 280100Z 08007KT 2500 HZ FEW040 SCT100 24/18 Q1013 NOSIG=
202004280030 METAR VIDP 280030Z 10007KT 2500 HZ FEW040 SCT100 24/18 Q1013 NOSIG=
202004280000 METAR VIDP 280000Z 09007KT 2500 HZ FEW040 SCT100 24/18 Q1012 NOSIG=
202004272330 METAR VIDP 272330Z 08007KT 2500 HZ SCT040 SCT100 24/18 Q1012 NOSIG=
202004272300 METAR VIDP 272300Z 10006KT 2500 HZ SCT040 SCT100 24/18 Q1012 NOSIG=
202004272230 METAR VIDP 272230Z 09007KT 3000 HZ FEW040 SCT100 24/18 Q1012 NOSIG=
202004272200 METAR VIDP 272200Z 10006KT 3000 HZ SCT100 24/18 Q1012 NOSIG=
202004272130 METAR VIDP 272130Z 11006KT 3000 HZ SCT100 24/18 Q1012 NOSIG=
202004272100 METAR VIDP 272100Z 11006KT 3000 HZ SCT100 24/18 Q1012 NOSIG=
202004272030 METAR VIDP 272030Z 12007KT 3000 HZ SCT100 25/19 Q1012 NOSIG=
202004272000 METAR VIDP 272000Z 10006KT 3000 HZ SCT100 25/19 Q1012 NOSIG=
202004271930 METAR VIDP 271930Z 10006KT 3000 HZ SCT100 25/19 Q1012 NOSIG=
202004271900 METAR VIDP 271900Z 10006KT 3200 HZ SCT100 25/19 Q1012 BECMG 3000 HZ=
202004271830 METAR VIDP 271830Z 10007KT 3500 HZ SCT100 26/19 Q1012 NOSIG=
202004271800 METAR VIDP 271800Z 10008KT 3500 HZ SCT100 26/19 Q1012 NOSIG=
202004271730 METAR VIDP 271730Z 10007KT 3500 HZ SCT100 26/19 Q1012 NOSIG=
202004271700 METAR VIDP 271700Z 10008KT 3500 HZ SCT100 26/19 Q1013 NOSIG=
202004271630 METAR COR VIDP 271630Z 10009KT 3500 HZ SCT100 27/18 Q1013 NOSIG=
202004271600 METAR VIDP 271600Z 09012KT 3500 HZ SCT100 27/18 Q1012 NOSIG=
202004271530 METAR VIDP 271530Z 09012KT 3500 HZ SCT100 28/18 Q1012 NOSIG=
202004271500 METAR VIDP 271500Z 08012KT 3500 HZ SCT100 28/17 Q1011 NOSIG=
202004271430 METAR VIDP 271430Z 09012KT 3500 HZ SCT100 29/17 Q1010 NOSIG=
202004271400 METAR VIDP 271400Z 09009KT 4000 HZ FEW100 30/16 Q1010 NOSIG=
202004271330 METAR VIDP 271330Z 09009KT 4500 HZ FEW100 30/15 Q1010 NOSIG=
202004271300 METAR VIDP 271300Z 10009KT 4500 HZ FEW100 30/15 Q1010 NOSIG=
202004271230 METAR VIDP 271230Z 09009KT 4500 HZ FEW100 31/15 Q1010 NOSIG=
202004271200 METAR VIDP 271200Z 08010KT 5000 HZ FEW100 31/15 Q1009 NOSIG=
202004271130 METAR VIDP 271130Z 10010KT 5000 HZ FEW100 32/14 Q1009 NOSIG=
202004271100 METAR VIDP 271100Z 11008KT 6000 FEW100 33/14 Q1009 BECMG 5000 HZ=
202004271030 METAR VIDP 271030Z 11011KT 6000 FEW100 33/14 Q1009 NOSIG=
202004271000 METAR VIDP 271000Z 11010KT 6000 FEW100 34/14 Q1009 NOSIG=
202004270930 METAR VIDP 270930Z 10008KT 6000 FEW100 34/14 Q1010 NOSIG=
202004270900 METAR VIDP 270900Z 10009KT 6000 FEW100 34/15 Q1010 NOSIG=
202004270830 METAR VIDP 270830Z 12008KT 6000 FEW100 33/15 Q1011 NOSIG=
202004270800 METAR VIDP 270800Z 13008KT 6000 FEW100 32/15 Q1011 NOSIG=
202004270730 METAR VIDP 270730Z 13009KT 6000 FEW100 31/15 Q1012 NOSIG=
202004270700 METAR VIDP 270700Z 12008KT 6000 FEW100 30/15 Q1012 NOSIG=
202004270630 METAR VIDP 270630Z 12009KT 5000 HZ NSC 30/15 Q1013 NOSIG=
202004270600 METAR VIDP 270600Z 13011KT 5000 HZ NSC 29/14 Q1013 NOSIG=
202004270530 METAR VIDP 270530Z 12010KT 4500 HZ NSC 29/15 Q1013 BECMG 5000 HZ=
202004270500 METAR COR VIDP 270500Z 11011KT 4000 HZ NSC 28/16 Q1013 NOSIG=
202004270430 METAR VIDP 270430Z 11010KT 3500 HZ NSC 27/18 Q1014 NOSIG=
202004270400 METAR VIDP 270400Z 13010KT 3000 HZ NSC 26/18 Q1014 NOSIG=
202004270330 METAR VIDP 270330Z 11008KT 2800 HZ NSC 25/18 Q1014 BECMG 3000 HZ=
202004270300 METAR VIDP 270300Z 10010KT 2100 BR NSC 22/18 Q1012 NOSIG=
202004270230 METAR COR VIDP 270230Z 10010KT 2100 BR NSC 22/18 Q1012 NOSIG=
202004270200 METAR VIDP 270200Z 11008KT 2100 BR NSC 21/18 Q1012 NOSIG=
202004270130 METAR VIDP 270130Z 11011KT 2300 BR NSC 20/18 Q1012 NOSIG=
202004270100 METAR VIDP 270100Z 11007KT 2500 BR NSC 20/17 Q1011 NOSIG=
202004270030 METAR VIDP 270030Z 09008KT 2500 BR FEW100 19/17 Q1011 NOSIG=
202004270000 METAR VIDP 270000Z 09008KT 2500 BR FEW100 19/17 Q1010 NOSIG=
202004262330 METAR VIDP 262330Z 10011KT 2500 BR FEW100 19/17 Q1010 NOSIG=
202004262300 METAR VIDP 262300Z 09007KT 2500 BR FEW100 20/17 Q1010 NOSIG=
202004262230 METAR VIDP 262230Z 09006KT 2500 BR FEW100 20/17 Q1010 NOSIG=
202004262200 METAR VIDP 262200Z 08005KT 2500 BR FEW100 20/17 Q1009 NOSIG=
202004262130 METAR VIDP 262130Z 09004KT 2500 BR FEW100 20/17 Q1009 NOSIG=
202004262100 METAR VIDP 262100Z 08004KT 2500 BR FEW100 20/17 Q1009 NOSIG=
202004262030 METAR VIDP 262030Z 09006KT 2500 BR FEW100 20/17 Q1009 NOSIG=
202004262000 METAR VIDP 262000Z 11006KT 2500 BR FEW100 20/17 Q1010 NOSIG=
202004261930 METAR VIDP 261930Z 11004KT 2500 BR FEW100 21/18 Q1010 NOSIG=
202004261900 METAR VIDP 261900Z 10004KT 2500 HZ FEW100 21/17 Q1010 NOSIG=
202004261830 METAR VIDP 261830Z 11004KT 2500 HZ FEW100 21/17 Q1010 NOSIG=
202004261800 METAR VIDP 261800Z 11004KT 2500 HZ FEW100 21/17 Q1010 NOSIG=
202004261730 METAR VIDP 261730Z 11002KT 2500 HZ FEW100 21/16 Q1010 NOSIG=
202004261700 METAR VIDP 261700Z 12003KT 2500 HZ FEW100 21/16 Q1010 NOSIG=
202004261630 METAR VIDP 261630Z 11003KT 2500 HZ SCT100 22/16 Q1010 NOSIG=
202004261600 METAR VIDP 261600Z 10004KT 2500 HZ FEW035 SCT100 22/15 Q1010 NOSIG=
202004261530 METAR VIDP 261530Z 09004KT 2500 HZ FEW035 SCT090 22/15 Q1010 NOSIG=
202004261500 METAR VIDP 261500Z 10003KT 2500 HZ FEW035 SCT100 23/14 Q1009 NOSIG=
202004261430 METAR VIDP 261430Z 11006KT 2500 HZ FEW035 SCT100 23/13 Q1008 NOSIG=
202004261400 METAR VIDP 261400Z 11009KT 2500 HZ FEW035 SCT100 24/13 Q1007 NOSIG=
202004261330 METAR VIDP 261330Z 10010KT 2500 HZ FEW035 SCT100 25/13 Q1007 NOSIG=
202004261300 METAR VIDP 261300Z 11009KT 2500 HZ FEW035 SCT100 25/13 Q1007 NOSIG=
202004261230 METAR COR VIDP 261230Z 09012KT 2500 HZ FEW035 SCT100 26/13 Q1006 NOSIG=
202004261200 METAR VIDP 261200Z 08012KT 2500 HZ FEW035 FEW040CB SCT100 26/13 Q1006 NOSIG=
202004261130 METAR VIDP 261130Z 09010G20KT 2500 HZ FEW035 FEW040CB SCT100 26/14 Q1007 NOSIG=
202004261100 METAR VIDP 261100Z 08008G18KT 2500 HZ SCT035 FEW040CB BKN100 26/16 Q1007 TEMPO 28020G30KT 2000 TSRA=
202004261030 METAR VIDP 261030Z 08008G18KT 2500 HZ SCT030 FEW035CB BKN080 24/16 Q1008 TEMPO 28020G30KT 2000 TSRA=
202004261000 METAR VIDP 261000Z 07008G18KT 2500 HZ SCT030 FEW035CB BKN080 24/17 Q1008 TEMPO 28020G30KT 2000 TSRA=
202004260930 METAR VIDP 260930Z 07005G15KT 2500 HZ SCT030 FEW035CB BKN080 24/17 Q1008 TEMPO 28020G30KT 2000 TSRA=
202004260900 METAR VIDP 260900Z 06008G18KT 2500 BR SCT030 FEW035CB BKN090 23/19 Q1008 TEMPO 28025G35KT 2000 TSRA=
202004260830 METAR VIDP 260830Z 06007G17KT 2500 BR SCT030 FEW035CB OVC090 23/19 Q1010 TEMPO 28025G35KT 2000 TSRA=
202004260800 METAR VIDP 260800Z 08008G18KT 2800 -RA SCT030 FEW035CB OVC090 24/17 Q1010 TEMPO 28025G35KT 2000 TSRA=
202004260730 METAR VIDP 260730Z 05008G18KT 3500 HZ SCT035 FEW040CB BKN090 28/16 Q1012 TEMPO 28025G35KT TSRA=
202004260700 METAR VIDP 260700Z 05015G25KT 4000 HZ SCT035 BKN100 31/16 Q1009 TEMPO 28015G25KT TSRA=
202004260630 METAR VIDP 260630Z 03010KT 4000 HZ SCT035 BKN100 31/16 Q1009 NOSIG=
202004260600 METAR VIDP 260600Z 08005KT 4000 HZ SCT035 SCT100 30/17 Q1009 NOSIG=
202004260530 METAR VIDP 260530Z 18003KT 4000 HZ SCT035 FEW040CB SCT100 28/17 Q1009 TEMPO 15010G20KT 1500 TSRA=
202004260500 METAR VIDP 260500Z 22006KT 4000 HZ SCT035 FEW040CB SCT100 26/18 Q1009 TEMPO 15010G20KT 1500 TSRA=
202004260430 METAR VIDP 260430Z 16007KT 3500 HZ SCT035 FEW040CB BKN090 25/17 Q1009 TEMPO 15010G20KT 1500 TSRA=
202004260400 METAR VIDP 260400Z 18008KT 3500 -RA SCT035 FEW040CB BKN090 24/17 Q1009 TEMPO 27010G20KT 1500 TSRA=
202004260330 METAR VIDP 260330Z 23012G22KT 3000 -RA SCT035 FEW040CB BKN090 24/17 Q1010 TEMPO 27010G20KT 1500 TSRA=
202004260300 METAR VIDP 260300Z 25007KT 3000 HZ SCT035 FEW040CB BKN090 26/18 Q1010 TEMPO 27010G20KT 1500 TSRA=
202004260230 METAR VIDP 260230Z 15007KT 2800 HZ SCT035 FEW040CB BKN090 26/18 Q1008 TEMPO 32010G25KT 1500 TSRA=
202004260200 METAR VIDP 260200Z 16009KT 2200 -TSRA SCT035 FEW040CB BKN090 24/18 Q1008 TEMPO 32010G25KT 1500 TSRA=
202004260130 METAR VIDP 260130Z 28008KT 1500 R28/2000 R29/2000 TSRA SCT035 FEW040CB BKN100 25/17 Q1009 TEMPO 32010G25KT 1500 TSRA=
202004260100 METAR VIDP 260100Z 33008KT 2200 HZ SCT035 FEW040CB SCT100 26/17 Q1009 TEMPO 32010G25KT 1500 TSRA=
202004260030 METAR VIDP 260030Z 11004KT 2500 HZ SCT035 FEW040CB SCT100 25/17 Q1007 TEMPO 32010G25KT 1500 TSRA=
202004260000 METAR VIDP 260000Z 09004KT 2800 HZ SCT035 FEW040CB SCT100 25/16 Q1007 NOSIG=
202004252330 METAR VIDP 252330Z 14004KT 3000 HZ FEW035 FEW040CB SCT100 26/16 Q1007 NOSIG=
202004252300 METAR VIDP 252300Z 12004KT 3000 HZ FEW035 FEW040CB SCT100 26/16 Q1007 NOSIG=
202004252230 METAR VIDP 252230Z 13005KT 3000 HZ FEW035 FEW040CB SCT100 26/16 Q1007 NOSIG=
202004252200 METAR VIDP 252200Z 12005KT 3000 HZ FEW035 FEW040CB SCT100 26/16 Q1007 NOSIG=
202004252130 METAR VIDP 252130Z 14005KT 3000 HZ SCT100 27/15 Q1007 NOSIG=
202004252100 METAR VIDP 252100Z 14005KT 3000 HZ SCT100 28/15 Q1007 NOSIG=
202004252030 METAR COR VIDP 252030Z 09003KT 3000 HZ SCT100 28/15 Q1007 NOSIG=
202004252000 METAR VIDP 252000Z 11004KT 3000 HZ SCT100 28/15 Q1007 NOSIG=
202004251930 METAR VIDP 251930Z 11004KT 3000 HZ SCT100 28/15 Q1007 NOSIG=
202004251900 METAR VIDP 251900Z 10004KT 3000 HZ SCT100 29/15 Q1007 NOSIG=
202004251830 METAR VIDP 251830Z 07004KT 3000 HZ SCT100 29/15 Q1007 NOSIG=
202004251800 METAR VIDP 251800Z 09003KT 3200 HZ SCT100 29/14 Q1007 BECMG 3000 HZ=
202004251730 METAR VIDP 251730Z 06004KT 3500 HZ SCT100 30/14 Q1007 NOSIG=
202004251700 METAR VIDP 251700Z 04005KT 3500 HZ SCT100 30/14 Q1007 NOSIG=
202004251630 METAR VIDP 251630Z 04005KT 3500 HZ SCT100 31/13 Q1006 NOSIG=
202004251600 METAR VIDP 251600Z 00000KT 3500 HZ SCT100 31/13 Q1006 NOSIG=
202004251530 METAR VIDP 251530Z 00000KT 3500 HZ FEW040 SCT100 32/12 Q1006 NOSIG=
202004251500 METAR VIDP 251500Z 14003KT 3500 HZ FEW040 SCT100 32/12 Q1005 NOSIG=
202004251430 METAR VIDP 251430Z 14003KT 4000 HZ SCT040 SCT100 32/11 Q1005 NOSIG=
202004251400 METAR VIDP 251400Z 11004KT 4000 HZ SCT040 SCT100 33/10 Q1005 NOSIG=
202004251330 METAR VIDP 251330Z 11004KT 4000 HZ SCT040 SCT100 33/10 Q1005 NOSIG=
202004251300 METAR VIDP 251300Z 09006KT 4500 HZ SCT040 SCT100 34/10 Q1004 NOSIG=
202004251230 METAR VIDP 251230Z 08006KT 5000 HZ SCT040 SCT100 34/10 Q1004 NOSIG=
202004251200 METAR VIDP 251200Z 07006KT 5000 HZ SCT040 SCT100 35/11 Q1004 NOSIG=
202004251130 METAR VIDP 251130Z 09005KT 5000 HZ SCT040 SCT100 35/11 Q1004 NOSIG=
202004251100 METAR VIDP 251100Z 08007KT 5000 HZ SCT040 SCT100 35/11 Q1004 NOSIG=
202004251030 METAR VIDP 251030Z 18005KT 6000 SCT040 SCT100 37/12 Q1004 BECMG 5000 HZ=
202004251000 METAR VIDP 251000Z 25004KT 6000 SCT040 SCT100 37/12 Q1005 NOSIG=
202004250930 METAR VIDP 250930Z 25004KT 6000 SCT040 SCT100 36/12 Q1005 NOSIG=
202004250830 METAR VIDP 250830Z 12005KT 6000 FEW040 SCT100 35/12 Q1006 NOSIG=
202004250800 METAR VIDP 250800Z 23005KT 6000 FEW040 SCT100 36/13 Q1006 NOSIG=
202004250730 METAR VIDP 250730Z 22004KT 6000 SCT040 BKN100 35/13 Q1006 NOSIG=
202004250700 METAR VIDP 250700Z 21004KT 6000 SCT035 BKN100 34/13 Q1007 NOSIG=
202004250630 METAR VIDP 250630Z 21005KT 5000 HZ SCT035 BKN100 34/13 Q1007 NOSIG=
202004250600 METAR VIDP 250600Z 21005KT 5000 HZ SCT035 BKN100 34/13 Q1007 NOSIG=
202004250530 METAR VIDP 250530Z 18006KT 5000 HZ SCT035 BKN100 33/13 Q1007 NOSIG=
202004250500 METAR VIDP 250500Z 18006KT 5000 HZ SCT035 BKN100 33/13 Q1007 NOSIG=
202004250430 METAR VIDP 250430Z 20005KT 5000 HZ SCT035 BKN100 32/13 Q1007 NOSIG=
202004250400 METAR VIDP 250400Z 19005KT 4500 HZ SCT035 BKN100 30/14 Q1007 BECMG 5000 HZ=
202004250330 METAR VIDP 250330Z 21004KT 4000 HZ SCT035 BKN100 29/14 Q1007 NOSIG=
202004250300 METAR VIDP 250300Z 22004KT 3500 HZ SCT035 BKN100 28/14 Q1007 NOSIG=
202004250230 METAR VIDP 250230Z 24004KT 3000 HZ SCT035 BKN100 26/14 Q1007 NOSIG=
202004250200 METAR VIDP 250200Z 22006KT 3000 HZ SCT035 FEW040CB BKN100 25/14 Q1007 NOSIG=
202004250130 METAR VIDP 250130Z 21006KT 3000 HZ SCT035 FEW040CB BKN100 25/14 Q1007 NOSIG=
202004250100 METAR VIDP 250100Z 22007KT 3000 HZ SCT035 FEW040CB BKN100 25/14 Q1007 NOSIG=
202004250030 METAR VIDP 250030Z 23012KT 3000 HZ SCT035 FEW035CB BKN100 25/14 Q1006 NOSIG=
202004250000 METAR VIDP 250000Z 27005KT 3000 HZ SCT035 FEW035CB BKN100 25/12 Q1005 NOSIG=
202004242330 METAR VIDP 242330Z 26003KT 3000 HZ SCT035 FEW040CB BKN100 25/12 Q1005 NOSIG=
202004242300 METAR VIDP 242300Z 00000KT 3000 HZ FEW040 FEW040CB SCT100 25/12 Q1005 NOSIG=
202004242230 METAR VIDP 242230Z 00000KT 3000 HZ FEW040 SCT100 25/12 Q1004 NOSIG=
202004242200 METAR VIDP 242200Z 00000KT 3000 HZ FEW040 SCT100 25/12 Q1004 NOSIG=
202004242130 METAR VIDP 242130Z 00000KT 3000 HZ FEW040 SCT100 26/12 Q1004 NOSIG=
202004242100 METAR VIDP 242100Z 00000KT 3000 HZ FEW040 SCT100 26/12 Q1004 NOSIG=
202004242030 METAR VIDP 242030Z 00000KT 3000 HZ FEW040 SCT100 27/12 Q1004 NOSIG=
202004242000 METAR VIDP 242000Z 00000KT 3000 HZ FEW040 SCT100 28/12 Q1004 NOSIG=
202004241930 METAR VIDP 241930Z 00000KT 3000 HZ FEW040 SCT100 29/12 Q1004 NOSIG=
202004241900 METAR VIDP 241900Z 00000KT 3000 HZ SCT040 FEW040CB SCT100 29/13 Q1004 NOSIG=
202004241830 METAR VIDP 241830Z 00000KT 3000 HZ SCT040 FEW040CB SCT100 30/13 Q1005 NOSIG=
202004241800 METAR VIDP 241800Z 00000KT 3200 SCT040 FEW040CB SCT100 30/14 Q1005 BECMG 3000 HZ=
202004241730 METAR VIDP 241730Z 00000KT 3200 HZ SCT040 FEW040CB SCT100 30/14 Q1005 NOSIG=
202004241600 METAR VIDP 241600Z 11004KT 3200 SCT035 FEW040CB SCT100 31/12 Q1005 NOSIG=
202004241430 METAR VIDP 241430Z 11003KT 3200 SCT035 FEW040CB SCT100 33/11 Q1004 NOSIG=
202004241400 METAR VIDP 241400Z 08003KT 3200 SCT035 FEW040CB SCT100 33/11 Q1003 NOSIG=
202004241330 METAR VIDP 241330Z 12003KT 3200 SCT035 FEW040CB SCT100 33/11 Q1003 NOSIG=
202004241300 METAR VIDP 241300Z 31003KT 3500 HZ SCT100 34/09 Q1003 NOSIG=
202004241230 METAR VIDP 241230Z 31004KT 4000 HZ SCT100 34/09 Q1003 NOSIG=
202004241200 METAR VIDP 241200Z 30003KT 4500 FEW040 SCT100 34/09 Q1003 NOSIG=
202004241130 METAR VIDP 241130Z 28004KT 5000 FEW040 SCT100 34/10 Q1003 NOSIG=
202004241100 METAR VIDP 241100Z 29003KT 5000 HZ SCT040 34/13 Q1003 NOSIG=
202004241030 METAR VIDP 241030Z 30004KT 6000 SCT040 35/13 Q1003 BECMG 5000 HZ=
202004241000 METAR VIDP 241000Z 29004KT 6000 SCT040 36/12 Q1004 NOSIG=
202004240930 METAR VIDP 240930Z 27005KT 6000 SCT040 37/12 Q1004 NOSIG=
202004240900 METAR VIDP 240900Z 25004KT 6000 FEW040 37/12 Q1005 NOSIG=
202004240830 METAR VIDP 240830Z 29003KT 6000 FEW040 37/12 Q1005 NOSIG=
202004240800 METAR VIDP 240800Z 21006KT 6000 NSC 36/13 Q1006 NOSIG=
202004240730 METAR VIDP 240730Z 21004KT 6000 NSC 35/13 Q1006 NOSIG=
202004240700 METAR VIDP 240700Z 23004KT 6000 NSC 35/13 Q1007 NOSIG=
202004240630 METAR VIDP 240630Z 21005KT 6000 NSC 34/13 Q1007 NOSIG=
202004240600 METAR VIDP 240600Z 16005KT 6000 NSC 33/13 Q1007 NOSIG=
202004240530 METAR VIDP 240530Z 16005KT 5000 HZ NSC 33/14 Q1007 NOSIG=
202004240500 METAR VIDP 240500Z 16004KT 5000 HZ NSC 32/14 Q1008 NOSIG=
202004240430 METAR VIDP 240430Z 18004KT 5000 HZ NSC 30/14 Q1008 NOSIG=
202004240400 METAR VIDP 240400Z 16005KT 4500 HZ NSC 29/14 Q1008 BECMG 5000 HZ=
202004240330 METAR VIDP 240330Z 15005KT 4000 HZ NSC 29/15 Q1008 NOSIG=
202004240300 METAR VIDP 240300Z 13005KT 3000 HZ FEW100 27/15 Q1007 NOSIG=
202004240230 METAR VIDP 240230Z 15005KT 3000 HZ FEW100 26/15 Q1007 NOSIG=
202004240200 METAR VIDP 240200Z 13004KT 3000 HZ FEW100 25/16 Q1007 NOSIG=
202004240130 METAR VIDP 240130Z 00000KT 2800 HZ FEW100 24/16 Q1007 BECMG 3000 HZ=
202004240100 METAR VIDP 240100Z 00000KT 2800 HZ FEW035 SCT100 23/16 Q1006 NOSIG=
202004240030 METAR VIDP 240030Z 00000KT 2800 HZ FEW035 SCT100 23/16 Q1006 NOSIG=
202004240000 METAR VIDP 240000Z 00000KT 2800 HZ FEW035 SCT100 23/15 Q1006 NOSIG=
202004232330 METAR VIDP 232330Z 00000KT 2800 HZ FEW035 SCT100 23/15 Q1005 NOSIG=
202004232300 METAR VIDP 232300Z 00000KT 3000 HZ FEW035 SCT100 23/15 Q1005 NOSIG=
202004232230 METAR VIDP 232230Z 00000KT 3000 HZ FEW035 SCT100 23/15 Q1005 NOSIG=
202004232200 METAR VIDP 232200Z 00000KT 3000 HZ FEW035 SCT100 24/15 Q1005 NOSIG=
202004232130 METAR VIDP 232130Z 00000KT 3000 HZ FEW035 SCT100 25/14 Q1005 NOSIG=
202004232100 METAR VIDP 232100Z 00000KT 3000 HZ FEW035 SCT100 25/14 Q1005 NOSIG=
202004232030 METAR VIDP 232030Z 00000KT 3000 HZ FEW035 SCT100 26/12 Q1006 NOSIG=
202004232000 METAR VIDP 232000Z 00000KT 3000 HZ FEW035 SCT100 26/12 Q1006 NOSIG=
202004231930 METAR VIDP 231930Z 00000KT 3000 HZ FEW035 SCT100 26/12 Q1006 NOSIG=
202004231900 METAR VIDP 231900Z 00000KT 3000 HZ FEW035 SCT100 26/11 Q1006 NOSIG=
202004231830 METAR VIDP 231830Z 00000KT 3000 HZ FEW035 SCT100 26/11 Q1006 NOSIG=
202004231800 METAR VIDP 231800Z 00000KT 3000 HZ FEW035 SCT100 26/12 Q1006 NOSIG=
202004231730 METAR VIDP 231730Z 00000KT 3000 HZ FEW035 SCT100 26/12 Q1006 NOSIG=
202004231700 METAR VIDP 231700Z 00000KT 3200 HZ FEW035 SCT100 26/12 Q1006 BECMG 3000 HZ=
202004231630 METAR VIDP 231630Z 00000KT 3500 HZ FEW035 SCT100 27/13 Q1006 NOSIG=
202004231600 METAR VIDP 231600Z 00000KT 3500 HZ FEW035 SCT100 27/13 Q1006 NOSIG=
202004231530 METAR VIDP 231530Z 00000KT 3500 HZ SCT035 BKN100 27/13 Q1006 NOSIG=
202004231500 METAR VIDP 231500Z 00000KT 3500 HZ SCT035 BKN090 27/13 Q1006 NOSIG=
202004231430 METAR VIDP 231430Z 00000KT 3500 HZ SCT035 BKN090 27/11 Q1005 NOSIG=
202004231400 METAR VIDP 231400Z 00000KT 4000 HZ SCT035 BKN090 29/12 Q1005 NOSIG=
202004231330 METAR VIDP 231330Z 00000KT 4000 HZ SCT035 BKN090 30/11 Q1005 NOSIG=
202004231300 METAR VIDP 231300Z 24004KT 4000 HZ SCT035 BKN090 30/11 Q1005 NOSIG=
202004231230 METAR VIDP 231230Z 24004KT 4000 HZ SCT035 BKN090 31/11 Q1004 NOSIG=
202004231200 METAR VIDP 231200Z 25004KT 4000 HZ SCT035 BKN090 31/11 Q1005 NOSIG=
202004231130 METAR VIDP 231130Z 30006KT 3500 HZ SCT035 FEW040CB BKN100 31/10 Q1005 TEMPO 28010G20KT TSRA=
202004231100 METAR VIDP 231100Z 30005KT 3500 HZ SCT035 FEW040CB BKN090 32/10 Q1005 TEMPO 28010G20KT TSRA=
202004231030 METAR VIDP 231030Z 30007KT 3500 HZ SCT035 FEW040CB BKN100 32/10 Q1006 TEMPO 28010G20KT TSRA=
202004231000 METAR VIDP 231000Z 32008KT 3500 HZ SCT035 FEW040CB BKN090 32/10 Q1006 TEMPO 28010G20KT TSRA=
202004230930 METAR VIDP 230930Z 32010G20KT 3500 HZ SCT035 FEW040CB BKN090 32/10 Q1007 TEMPO 28010G20KT TSRA=
202004230900 METAR VIDP 230900Z 33012KT 3500 HZ SCT035 FEW040CB BKN090 32/10 Q1007 TEMPO 28015G25KT TSRA=
202004230830 METAR VIDP 230830Z 34020KT 3500 HZ SCT035 FEW040CB BKN090 33/10 Q1007 TEMPO 28015G25KT TSRA=
202004230800 METAR VIDP 230800Z 34010KT 4000 HZ SCT035 FEW040CB BKN090 34/10 Q1007 TEMPO 28015G25KT TSRA=
202004230730 METAR VIDP 230730Z 34009KT 4500 HZ SCT035 FEW040CB BKN090 35/11 Q1008 TEMPO 28015G25KT TSRA=
202004230700 METAR VIDP 230700Z 31003KT 4000 HZ SCT035 BKN100 34/11 Q1008 NOSIG=
202004230630 METAR VIDP 230630Z 29004KT 4000 HZ SCT035 BKN100 34/11 Q1008 NOSIG=
202004230600 METAR VIDP 230600Z 21003KT 3500 HZ SCT035 BKN100 34/11 Q1008 NOSIG=
202004230530 METAR VIDP 230530Z 21004KT 2800 HZ SCT035 BKN100 34/10 Q1009 BECMG 3000 HZ=
202004230500 METAR VIDP 230500Z 20003KT 2500 HZ SCT035 BKN100 33/11 Q1009 NOSIG=
202004230430 METAR VIDP 230430Z 21004KT 2500 HZ SCT035 BKN100 32/11 Q1009 NOSIG=
202004230400 METAR VIDP 230400Z 16004KT 2500 HZ SCT035 BKN090 32/12 Q1009 BECMG 3000 HZ=
202004230330 METAR VIDP 230330Z 17004KT 2500 HZ SCT035 BKN090 31/12 Q1009 NOSIG=
202004230300 METAR VIDP 230300Z 14004KT 2000 HZ SCT035 BKN090 30/12 Q1009 NOSIG=
202004230230 METAR VIDP 230230Z 16007KT 2500 HZ SCT035 BKN090 29/13 Q1008 NOSIG=
202004230200 METAR VIDP 230200Z 09004KT 2500 HZ SCT035 BKN100 27/12 Q1008 NOSIG=
202004230130 METAR VIDP 230130Z 09004KT 2500 HZ SCT035 BKN100 27/12 Q1007 NOSIG=
202004230100 METAR VIDP 230100Z 09003KT 2500 HZ SCT030 BKN080 26/12 Q1007 NOSIG=
202004230030 METAR VIDP 230030Z 14006KT 2500 HZ BKN030 OVC080 26/13 Q1007 NOSIG=
202004230000 METAR VIDP 230000Z 00000KT 2500 HZ SCT030 BKN100 27/13 Q1007 NOSIG=
202004222330 METAR VIDP 222330Z 00000KT 2500 HZ SCT030 FEW040CB BKN080 27/13 Q1007 NOSIG=
202004222300 METAR VIDP 222300Z 00000KT 2800 HZ SCT030 FEW040CB BKN080 27/13 Q1007 NOSIG=
202004222230 METAR VIDP 222230Z 14004KT 3200 HZ SCT030 FEW040CB BKN080 27/13 Q1007 BECMG 3000 HZ=
202004222200 METAR VIDP 222200Z 17006KT 3500 HZ FEW040 SCT100 27/13 Q1007 NOSIG=
202004222130 METAR VIDP 222130Z 00000KT 3500 HZ FEW035 SCT100 27/12 Q1007 NOSIG=
202004222100 METAR VIDP 222100Z 00000KT 3500 HZ FEW040 SCT100 27/12 Q1007 NOSIG=
202004222030 METAR VIDP 222030Z 00000KT 3500 HZ FEW035 SCT100 28/12 Q1007 NOSIG=
202004222000 METAR VIDP 222000Z 00000KT 3500 HZ FEW035 SCT100 28/12 Q1007 NOSIG=
202004221930 METAR VIDP 221930Z 00000KT 3500 HZ FEW040 SCT100 28/12 Q1007 NOSIG=
202004221900 METAR VIDP 221900Z 00000KT 3500 HZ FEW040 SCT100 28/12 Q1008 NOSIG=
202004221830 METAR VIDP 221830Z 00000KT 3500 HZ FEW040 SCT100 29/12 Q1008 NOSIG=
202004221800 METAR VIDP 221800Z 00000KT 3500 HZ FEW040 SCT100 29/11 Q1008 NOSIG=
202004221730 METAR COR VIDP 221730Z 00000KT 3500 HZ FEW040 SCT100 29/11 Q1008 NOSIG=
202004221700 METAR VIDP 221700Z 00000KT 3500 HZ FEW040 SCT100 29/11 Q1008 NOSIG=
202004221630 METAR VIDP 221630Z 00000KT 3500 HZ FEW040 SCT100 30/10 Q1008 NOSIG=
202004221600 METAR VIDP 221600Z 00000KT 4000 HZ FEW040 SCT100 30/10 Q1008 NOSIG=
202004221530 METAR VIDP 221530Z 00000KT 4000 HZ FEW040 SCT100 30/10 Q1008 NOSIG=
202004221500 METAR VIDP 221500Z 00000KT 4000 HZ FEW040 SCT100 30/10 Q1007 NOSIG=
202004221430 METAR VIDP 221430Z 00000KT 4000 HZ FEW035 SCT100 32/11 Q1006 NOSIG=
202004221400 METAR VIDP 221400Z 29004KT 4000 HZ FEW035 SCT100 33/11 Q1007 NOSIG=
202004221330 METAR VIDP 221330Z 30005KT 4500 HZ FEW035 SCT100 33/11 Q1006 NOSIG=
202004221300 METAR VIDP 221300Z 30007KT 5000 HZ FEW035 SCT100 34/11 Q1006 NOSIG=
202004221230 METAR VIDP 221230Z 30009KT 5000 HZ FEW035 SCT100 34/11 Q1006 NOSIG=
202004221200 METAR VIDP 221200Z 30008KT 5500 HZ FEW035 SCT100 35/11 Q1006 BECMG 5000 HZ=
202004221130 METAR VIDP 221130Z 31009KT 5500 FEW035 SCT100 35/11 Q1006 NOSIG=
202004221100 METAR VIDP 221100Z 30006KT 6000 FEW035 SCT100 35/10 Q1006 NOSIG=
202004221030 METAR VIDP 221030Z 29009KT 6000 FEW035 SCT100 35/10 Q1006 NOSIG=
202004221000 METAR VIDP 221000Z 32008KT 6000 FEW100 36/10 Q1006 NOSIG=
202004220930 METAR VIDP 220930Z 30008KT 6000 FEW100 36/10 Q1007 NOSIG=
202004220900 METAR VIDP 220900Z 29007KT 5000 HZ FEW100 35/10 Q1007 NOSIG=
202004220830 METAR VIDP 220830Z 32005KT 5000 HZ FEW100 34/10 Q1008 NOSIG=
202004220800 METAR VIDP 220800Z 32004KT 5000 HZ FEW100 33/11 Q1008 NOSIG=
202004220730 METAR VIDP 220730Z 28005KT 5000 HZ FEW100 33/11 Q1008 NOSIG=
202004220700 METAR VIDP 220700Z 23006KT 5000 HZ FEW100 33/11 Q1009 NOSIG=
202004220630 METAR VIDP 220630Z 24004KT 4500 HZ FEW100 33/11 Q1009 BECMG 5000 HZ=
202004220500 METAR VIDP 220500Z 26004KT 2500 HZ NSC 31/11 Q1010 NOSIG=
202004220430 METAR VIDP 220430Z 28003KT 2200 HZ NSC 30/11 Q1010 NOSIG=
202004220400 METAR VIDP 220400Z 26003KT 2200 HZ NSC 29/11 Q1010 NOSIG=
202004220330 METAR VIDP 220330Z 24003KT 2000 HZ NSC 28/12 Q1010 NOSIG=
202004220300 METAR VIDP 220300Z 21003KT 2000 HZ NSC 26/12 Q1010 NOSIG=
202004220230 METAR VIDP 220230Z 20004KT 2000 HZ FEW100 25/12 Q1009 NOSIG=
202004220200 METAR VIDP 220200Z 26004KT 2000 HZ FEW100 24/12 Q1009 NOSIG=
202004220130 METAR VIDP 220130Z 25003KT 2000 HZ FEW100 23/13 Q1009 NOSIG=
202004220100 METAR VIDP 220100Z 00000KT 2000 HZ FEW100 22/13 Q1008 NOSIG=
202004220030 METAR VIDP 220030Z 00000KT 2500 HZ FEW100 22/13 Q1008 NOSIG=
202004220000 METAR VIDP 220000Z 00000KT 2500 HZ FEW100 23/13 Q1007 NOSIG=
202004212330 METAR VIDP 212330Z 00000KT 2500 HZ FEW100 23/13 Q1007 NOSIG=
202004212300 METAR VIDP 212300Z 00000KT 2500 HZ FEW100 24/13 Q1007 NOSIG=
202004212230 METAR VIDP 212230Z 00000KT 2500 HZ FEW100 24/12 Q1007 NOSIG=
202004212200 METAR VIDP 212200Z 00000KT 2800 HZ FEW100 25/12 Q1007 NOSIG=
202004212130 METAR VIDP 212130Z 00000KT 2800 HZ FEW100 25/12 Q1007 NOSIG=
202004212100 METAR VIDP 212100Z 00000KT 2800 HZ FEW100 25/12 Q1007 NOSIG=
202004212030 METAR VIDP 212030Z 00000KT 2800 HZ FEW100 26/12 Q1008 NOSIG=
202004212000 METAR VIDP 212000Z 00000KT 3000 HZ FEW100 26/12 Q1008 NOSIG=
202004211930 METAR VIDP 211930Z 00000KT 3000 HZ FEW100 27/11 Q1008 NOSIG=
202004211900 METAR VIDP 211900Z 00000KT 3000 HZ FEW100 27/11 Q1009 NOSIG=
202004211830 METAR VIDP 211830Z 00000KT 3000 HZ FEW100 28/11 Q1009 NOSIG=
202004211800 METAR VIDP 211800Z 00000KT 3000 HZ FEW100 28/11 Q1009 NOSIG=
202004211730 METAR VIDP 211730Z 00000KT 3000 HZ FEW100 28/11 Q1009 NOSIG=
202004211700 METAR VIDP 211700Z 00000KT 3200 HZ SCT100 29/11 Q1009 BECMG 3000 HZ=
202004211630 METAR VIDP 211630Z 00000KT 3500 HZ SCT100 29/11 Q1009 NOSIG=
202004211600 METAR VIDP 211600Z 30003KT 3500 HZ SCT100 30/11 Q1009 NOSIG=
202004211530 METAR VIDP 211530Z 32004KT 3500 HZ SCT100 30/11 Q1009 NOSIG=
202004211500 METAR VIDP 211500Z 31005KT 3500 HZ SCT100 30/10 Q1009 NOSIG=
202004211430 METAR VIDP 211430Z 32005KT 4000 HZ SCT100 31/09 Q1008 NOSIG=
202004211400 METAR VIDP 211400Z 30008KT 4000 HZ FEW040 SCT100 31/08 Q1008 NOSIG=
202004211330 METAR VIDP 211330Z 31009KT 4000 HZ FEW040 SCT100 31/08 Q1008 NOSIG=
202004211300 METAR VIDP 211300Z 30008KT 4000 HZ SCT040 BKN100 31/08 Q1007 NOSIG=
202004211230 METAR VIDP 211230Z 29009KT 4000 HZ SCT040 BKN100 32/08 Q1007 NOSIG=
202004211200 METAR VIDP 211200Z 31009KT 4000 HZ SCT040 BKN100 32/08 Q1007 NOSIG=
202004211130 METAR VIDP 211130Z 30009KT 4000 HZ SCT040 BKN100 32/08 Q1007 NOSIG=
202004211100 METAR VIDP 211100Z 32008KT 4000 HZ SCT040 BKN100 32/08 Q1007 NOSIG=
202004211030 METAR VIDP 211030Z 29009KT 4000 HZ SCT040 BKN100 32/08 Q1007 NOSIG=
202004211000 METAR VIDP 211000Z 29009KT 4000 HZ SCT040 BKN100 33/08 Q1007 NOSIG=
202004210930 METAR VIDP 210930Z 31007KT 4000 HZ SCT040 BKN100 35/11 Q1008 NOSIG=
202004210900 METAR VIDP 210900Z 29007KT 4000 HZ SCT040 BKN100 34/11 Q1008 NOSIG=
202004210830 METAR VIDP 210830Z 27007KT 4000 HZ FEW040 SCT100 34/11 Q1009 NOSIG=
202004210800 METAR VIDP 210800Z 29007KT 3500 HZ FEW040 SCT100 33/12 Q1009 NOSIG=
202004210730 METAR VIDP 210730Z 33007KT 3500 HZ FEW040 SCT100 33/12 Q1010 NOSIG=
202004210700 METAR VIDP 210700Z 32004KT 3500 HZ FEW040 SCT100 32/13 Q1010 NOSIG=
202004210630 METAR VIDP 210630Z 32009KT 3500 HZ FEW040 SCT100 31/13 Q1011 NOSIG=
202004210600 METAR VIDP 210600Z 31007KT 3500 HZ FEW100 31/13 Q1011 NOSIG=
202004210530 METAR VIDP 210530Z 25005KT 3500 HZ FEW100 30/13 Q1011 NOSIG=
202004210500 METAR VIDP 210500Z 29005KT 3500 HZ FEW100 30/13 Q1011 NOSIG=
202004210430 METAR VIDP 210430Z 25004KT 3000 HZ FEW100 29/12 Q1011 NOSIG=
202004210400 METAR VIDP 210400Z 25004KT 3000 HZ FEW100 28/12 Q1011 NOSIG=
202004210330 METAR VIDP 210330Z 25003KT 2800 HZ FEW100 27/14 Q1011 BECMG 3000 HZ=
202004210300 METAR VIDP 210300Z 25004KT 2500 HZ FEW100 25/14 Q1011 NOSIG=
202004210230 METAR VIDP 210230Z 23003KT 2500 HZ FEW100 23/15 Q1010 NOSIG=
202004210130 METAR VIDP 210130Z 00000KT 2500 HZ FEW100 21/15 Q1010 NOSIG=
202004210100 METAR VIDP 210100Z 00000KT 2500 HZ SCT100 21/15 Q1010 NOSIG=
202004210030 METAR VIDP 210030Z 00000KT 2500 HZ FEW040 SCT100 21/16 Q1010 NOSIG=
202004210000 METAR VIDP 210000Z 00000KT 2500 HZ FEW040 SCT100 21/16 Q1010 NOSIG=
202004202330 METAR VIDP 202330Z 00000KT 2800 HZ FEW040 SCT100 21/15 Q1009 NOSIG=
202004202300 METAR VIDP 202300Z 00000KT 3000 HZ FEW040 SCT100 22/15 Q1009 NOSIG=
202004202230 METAR VIDP 202230Z 00000KT 3000 HZ SCT035 SCT100 22/15 Q1009 NOSIG=
202004202200 METAR VIDP 202200Z 00000KT 3200 HZ SCT035 SCT100 22/15 Q1009 BECMG 3000 HZ=
202004202130 METAR VIDP 202130Z 00000KT 3500 HZ SCT035 BKN100 22/15 Q1009 BECMG 3000 HZ=
202004202100 METAR VIDP 202100Z 00000KT 3500 HZ SCT035 BKN100 23/15 Q1009 NOSIG=
202004202030 METAR VIDP 202030Z 09004KT 3500 HZ SCT035 BKN080 23/15 Q1009 NOSIG=
202004202003 METAR VIDP 202003Z 09004KT 3500 HZ SCT035 BKN080 23/15 Q1009 NOSIG=
202004202000 METAR VIDP 202000Z 06003KT 3500 HZ SCT035 BKN080 23/14 Q1009 NOSIG=
202004201930 METAR VIDP 201930Z 05004KT 3500 HZ SCT035 BKN100 23/14 Q1010 NOSIG=
202004201900 METAR VIDP 201900Z 05006KT 3500 HZ SCT035 BKN100 24/14 Q1010 NOSIG=
202004201830 METAR VIDP 201830Z 05007KT 3500 HZ SCT035 BKN080 24/14 Q1010 NOSIG=
202004201800 METAR VIDP 201800Z 01006KT 3500 HZ SCT035 BKN080 25/14 Q1011 NOSIG=
202004201730 METAR VIDP 201730Z 03007KT 3500 HZ SCT035 BKN080 25/13 Q1011 NOSIG=
202004201700 METAR VIDP 201700Z 02007KT 3500 HZ SCT035 BKN080 25/13 Q1010 NOSIG=
202004201630 METAR COR VIDP 201630Z 36005KT 3500 HZ SCT035 BKN080 26/13 Q1010 NOSIG=
202004201600 METAR VIDP 201600Z 00000KT 3500 HZ SCT035 BKN080 28/11 Q1009 NOSIG=
202004201530 METAR VIDP 201530Z 00000KT 3500 HZ SCT035 BKN080 28/11 Q1009 NOSIG=
202004201500 METAR VIDP 201500Z 00000KT 3500 HZ SCT035 BKN080 28/11 Q1009 NOSIG=
202004201430 METAR VIDP 201430Z 00000KT 3500 HZ SCT035 BKN080 29/11 Q1009 NOSIG=
202004201400 METAR VIDP 201400Z 00000KT 3500 HZ SCT030 BKN080 29/11 Q1008 NOSIG=
202004201330 METAR VIDP 201330Z 00000KT 4000 HZ SCT030 BKN080 29/11 Q1008 NOSIG=
202004201300 METAR VIDP 201300Z 19003KT 4500 HZ SCT035 BKN100 30/10 Q1007 NOSIG=
202004201230 METAR VIDP 201230Z 18005KT 4500 HZ SCT035 BKN100 30/10 Q1007 NOSIG=
202004201200 METAR VIDP 201200Z 18006KT 4500 HZ SCT035 BKN100 30/10 Q1007 NOSIG=
202004201130 METAR VIDP 201130Z 17007KT 4500 HZ SCT035 BKN100 30/10 Q1007 NOSIG=
202004201100 METAR VIDP 201100Z 17007KT 4500 HZ SCT035 BKN100 31/10 Q1008 NOSIG=
202004201030 METAR VIDP 201030Z 19007KT 5000 HZ SCT035 BKN100 31/10 Q1008 NOSIG=
202004201000 METAR VIDP 201000Z 19006KT 5000 HZ SCT035 BKN100 31/10 Q1009 NOSIG=
202004200930 METAR VIDP 200930Z 20005KT 5000 HZ SCT035 BKN100 31/10 Q1009 NOSIG=
202004200900 METAR VIDP 200900Z 22005KT 5000 HZ SCT035 BKN100 31/10 Q1009 NOSIG=
202004200830 METAR VIDP 200830Z 20004KT 5000 HZ SCT035 BKN100 31/12 Q1010 NOSIG=
202004200800 METAR VIDP 200800Z 20005KT 5000 HZ SCT035 BKN100 31/12 Q1010 NOSIG=
202004200730 METAR VIDP 200730Z 18005KT 4500 HZ SCT035 BKN100 30/12 Q1010 BECMG 5000 HZ=
202004200700 METAR VIDP 200700Z 18005KT 4000 HZ SCT035 BKN100 29/12 Q1010 NOSIG=
202004200630 METAR VIDP 200630Z 22007KT 4000 HZ SCT035 BKN100 29/12 Q1011 NOSIG=
202004200600 METAR VIDP 200600Z 24005KT 3500 HZ SCT035 BKN100 27/12 Q1011 NOSIG=
202004200530 METAR VIDP 200530Z 23006KT 2800 HZ SCT035 BKN100 27/13 Q1011 BECMG 3000 HZ=
202004200500 METAR VIDP 200500Z 23008KT 2500 HZ SCT035 BKN100 27/13 Q1011 NOSIG=
202004200430 METAR VIDP 200430Z 22009KT 2500 HZ SCT035 BKN100 27/13 Q1011 NOSIG=
202004200400 METAR VIDP 200400Z 23009KT 2000 HZ SCT035 BKN100 27/13 Q1011 NOSIG=
202004200330 METAR VIDP 200330Z 23011KT 1800 R28/P2000 R29/P2000 HZ SCT035 BKN100 27/13 Q1011 NOSIG=
202004200300 METAR VIDP 200300Z 23007KT 1800 R28/P2000 R29/P2000 HZ SCT035 BKN100 26/12 Q1010 NOSIG=
202004200230 METAR VIDP 200230Z 25005KT 1800 R28/P2000 R29/P2000 HZ SCT035 BKN100 26/15 Q1010 NOSIG=
202004200200 METAR VIDP 200200Z 00000KT 1800 R28/P2000 R29/P2000 HZ FEW040 SCT100 26/15 Q1009 NOSIG=
202004200130 METAR VIDP 200130Z 00000KT 2000 R28/P2000 R29/P2000 HZ SCT100 24/15 Q1009 NOSIG=
202004200100 METAR VIDP 200100Z 00000KT 2200 HZ FEW100 23/15 Q1008 NOSIG=
202004200030 METAR VIDP 200030Z 00000KT 2200 HZ FEW100 22/15 Q1008 NOSIG=
202004200000 METAR VIDP 200000Z 00000KT 2200 HZ FEW100 24/15 Q1007 NOSIG=
202004192330 METAR VIDP 192330Z 00000KT 2500 HZ FEW100 24/15 Q1007 NOSIG=
202004192300 METAR VIDP 192300Z 00000KT 2500 HZ FEW100 24/15 Q1007 NOSIG=
202004192230 METAR VIDP 192230Z 00000KT 2500 HZ FEW100 24/15 Q1007 NOSIG=
202004192200 METAR VIDP 192200Z 00000KT 2500 HZ FEW100 24/15 Q1007 NOSIG=
202004192130 METAR VIDP 192130Z 00000KT 2500 HZ FEW100 25/14 Q1008 NOSIG=
202004192100 METAR VIDP 192100Z 00000KT 2500 HZ FEW100 25/14 Q1008 NOSIG=
202004192030 METAR VIDP 192030Z 00000KT 3000 HZ FEW100 25/14 Q1008 NOSIG=
202004192000 METAR VIDP 192000Z 00000KT 3000 HZ FEW100 26/13 Q1008 NOSIG=
202004191930 METAR VIDP 191930Z 00000KT 3000 HZ FEW100 26/13 Q1008 NOSIG=
202004191900 METAR VIDP 191900Z 00000KT 3000 HZ FEW100 26/14 Q1008 NOSIG=
202004191830 METAR VIDP 191830Z 00000KT 3000 HZ FEW100 27/13 Q1008 NOSIG=
202004191800 METAR VIDP 191800Z 00000KT 3000 HZ FEW100 27/12 Q1009 NOSIG=
202004191730 METAR VIDP 191730Z 00000KT 3200 HZ FEW100 27/12 Q1009 BECMG 3000 HZ=
202004191700 METAR VIDP 191700Z 00000KT 3500 HZ FEW100 27/12 Q1009 NOSIG=
202004191630 METAR VIDP 191630Z 00000KT 3500 HZ FEW100 27/11 Q1009 NOSIG=
202004191600 METAR VIDP 191600Z 00000KT 3500 HZ FEW100 27/12 Q1008 NOSIG=
202004191530 METAR VIDP 191530Z 00000KT 3500 HZ FEW100 28/11 Q1008 NOSIG=
202004191500 METAR VIDP 191500Z 00000KT 4000 HZ FEW100 29/11 Q1008 NOSIG=
202004191430 METAR VIDP 191430Z 00000KT 4000 HZ FEW100 30/11 Q1007 NOSIG=
202004191400 METAR VIDP 191400Z 29004KT 4500 HZ FEW100 32/12 Q1007 NOSIG=
202004191330 METAR VIDP 191330Z 29005KT 4500 HZ FEW035 FEW100 32/12 Q1007 NOSIG=
202004191300 METAR VIDP 191300Z 29007KT 5000 HZ FEW035 SCT100 33/12 Q1006 NOSIG=
202004191230 METAR VIDP 191230Z 30008KT 5000 HZ FEW035 SCT100 34/12 Q1006 NOSIG=
202004191200 METAR VIDP 191200Z 30008KT 5000 HZ FEW035 SCT100 34/12 Q1006 NOSIG=
202004191130 METAR VIDP 191130Z 30010KT 5000 HZ FEW035 SCT100 35/12 Q1006 NOSIG=
202004191100 METAR VIDP 191100Z 29008KT 5000 HZ FEW035 SCT100 35/11 Q1006 NOSIG=
202004191030 METAR VIDP 191030Z 29008KT 5000 HZ FEW035 SCT100 36/11 Q1007 NOSIG=
202004191000 METAR VIDP 191000Z 29007KT 5000 HZ FEW035 SCT100 35/11 Q1007 NOSIG=
202004190930 METAR VIDP 190930Z 32007KT 5000 HZ FEW040 SCT100 35/11 Q1007 NOSIG=
202004190900 METAR VIDP 190900Z 26006KT 4500 HZ FEW040 SCT100 34/11 Q1008 BECMG 5000 HZ=
202004190830 METAR VIDP 190830Z 26008KT 4000 HZ FEW040 SCT100 34/11 Q1008 NOSIG=
202004190800 METAR VIDP 190800Z 30006KT 4000 HZ FEW040 SCT100 33/11 Q1009 NOSIG=
202004190730 METAR VIDP 190730Z 28006KT 3500 HZ FEW040 SCT100 33/11 Q1009 NOSIG=
202004190700 METAR VIDP 190700Z 29006KT 3500 HZ FEW040 SCT100 32/12 Q1009 NOSIG=
202004190630 METAR VIDP 190630Z 29008KT 3000 HZ FEW040 SCT100 31/14 Q1009 NOSIG=
202004190600 METAR VIDP 190600Z 29008KT 2800 HZ FEW040 SCT100 30/14 Q1009 BECMG 3000 HZ=
202004190530 METAR VIDP 190530Z 29007KT 2500 HZ FEW040 SCT100 29/15 Q1010 NOSIG=
202004190500 METAR VIDP 190500Z 28006KT 2500 HZ FEW040 SCT100 27/16 Q1010 NOSIG=
202004190430 METAR VIDP 190430Z 28005KT 2500 HZ FEW040 SCT100 27/17 Q1010 NOSIG=
202004190400 METAR VIDP 190400Z 26006KT 2100 HZ FEW040 SCT100 26/17 Q1010 NOSIG=
202004190330 METAR VIDP 190330Z 26006KT 2000 HZ FEW040 SCT100 26/17 Q1009 NOSIG=
202004190300 METAR VIDP 190300Z 27008KT 3000 HZ FEW040 SCT100 26/17 Q1009 NOSIG=
202004190230 METAR VIDP 190230Z 26009KT 2800 HZ FEW040 SCT100 25/18 Q1009 BECMG 3000 HZ=
202004190200 METAR VIDP 190200Z 00000KT 2500 BR SCT035 BKN100 23/19 Q1008 NOSIG=
202004190130 METAR VIDP 190130Z 00000KT 2500 BR SCT035 BKN100 23/19 Q1008 NOSIG=
202004190100 METAR VIDP 190100Z 00000KT 2500 BR SCT035 BKN100 22/18 Q1008 NOSIG=
202004190030 METAR VIDP 190030Z 00000KT 2500 BR SCT035 FEW040CB BKN100 22/18 Q1008 NOSIG=
202004190000 METAR VIDP 190000Z 00000KT 2800 BR SCT035 FEW040CB BKN100 22/18 Q1007 NOSIG=
202004182330 METAR VIDP 182330Z 12004KT 3000 HZ SCT035 FEW040CB BKN100 22/17 Q1007 TEMPO 23015G25KT TSRA=
202004182300 METAR VIDP 182300Z 07003KT 3000 HZ SCT035 FEW040CB BKN100 22/16 Q1008 TEMPO 23015G25KT TSRA=
202004182230 METAR VIDP 182230Z 03004KT 3000 TSRA SCT035 FEW040CB BKN100 22/16 Q1009 TEMPO 23015G25KT TSRA=
202004182200 METAR VIDP 182200Z 35005KT 3000 TS SCT035 FEW040CB BKN100 22/16 Q1009 TEMPO 23015G25KT TSRA=
202004182130 METAR VIDP 182130Z 34005KT 3000 HZ SCT035 FEW040CB BKN100 24/14 Q1008 NOSIG=
202004182100 METAR VIDP 182100Z 05004KT 3000 HZ SCT035 FEW040CB BKN100 24/14 Q1008 NOSIG=
202004182030 METAR VIDP 182030Z 31005KT 3000 HZ SCT035 FEW040CB BKN100 24/14 Q1008 NOSIG=
202004182000 METAR VIDP 182000Z 05004KT 3000 HZ SCT035 FEW040CB BKN100 24/15 Q1008 NOSIG=
202004181930 METAR VIDP 181930Z 06004KT 3000 HZ SCT035 FEW040CB BKN100 24/15 Q1008 NOSIG=
202004181900 METAR VIDP 181900Z 04004KT 3000 HZ SCT035 FEW040CB BKN100 24/15 Q1008 TEMPO 24015G25KT TSRA=
202004181830 VIDP 181830Z 03005KT 3000 HZ SCT035 FEW040CB BKN100 24/15 Q1008 TEMPO 24015G25KT TSRA=
202004181800 METAR COR VIDP 181800Z 05005KT 3000 HZ SCT035 FEW040CB BKN100 25/16 Q1008 TEMPO 24015G25KT TSRA=
202004181730 METAR COR VIDP 181730Z 05005KT 3000 TS SCT035 FEW040CB BKN100 25/17 Q1008 TEMPO 24015G25KT TSRA=
202004181700 VIDP 181700Z 04007KT 3000 TS SCT035 FEW040CB BKN100 26/16 Q1008 TEMPO 24015G25KT TSRA=
202004181630 METAR VIDP 181630Z 35007KT 3000 HZ SCT035 FEW040CB BKN100 26/16 Q1008 TEMPO 24015G25KT TSRA=
202004181600 METAR VIDP 181600Z 33009KT 3000 HZ SCT035 FEW040CB BKN100 28/14 Q1008 TEMPO 24015G25KT TSRA=
202004181530 METAR VIDP 181530Z 33007KT 3000 HZ SCT035 FEW040CB BKN100 27/13 Q1008 NOSIG=
202004181500 METAR VIDP 181500Z 06005KT 3000 HZ SCT035 FEW040CB BKN100 27/13 Q1007 TEMPO 28015G25KT 2000 TSRA=
202004181430 METAR VIDP 181430Z 07008KT 3000 HZ SCT035 FEW040CB BKN100 27/13 Q1007 TEMPO 28015G25KT 2000 TSRA=
202004181400 METAR VIDP 181400Z 07012KT 3000 HZ SCT035 FEW040CB BKN100 27/13 Q1007 TEMPO 28015G25KT 2000 TSRA=
202004181330 METAR VIDP 181330Z 07007G17KT 3000 HZ SCT035 FEW040CB BKN100 28/13 Q1007 TEMPO 28015G25KT 2000 TSRA=
202004181300 METAR VIDP 181300Z 27005G15KT 3000 HZ SCT035 FEW040CB BKN100 31/10 Q1006 TEMPO 28015G25KT 2000 TSRA=
202004181230 METAR VIDP 181230Z 31005G15KT 3000 HZ SCT035 FEW040CB BKN100 32/10 Q1006 TEMPO 28015G25KT 2000 TSRA=
202004181200 METAR VIDP 181200Z 06007KT 3000 HZ SCT035 FEW040CB BKN100 35/10 Q1006 TEMPO 28015G25KT 2000 TSRA=
202004181130 METAR VIDP 181130Z 07006KT 3000 HZ SCT035 FEW040CB BKN100 35/10 Q1006 TEMPO 28015G25KT 2000 TSRA=
202004181100 METAR COR VIDP 181100Z 07006KT 3000 HZ SCT035 FEW040CB BKN100 36/10 Q1006 TEMPO 28015G25KT 2000 TSRA=
202004181030 METAR VIDP 181030Z 08005KT 3500 HZ SCT035 FEW040CB BKN100 36/10 Q1007 NOSIG=
202004181000 METAR VIDP 181000Z 10004KT 4000 HZ SCT035 FEW040CB BKN100 36/11 Q1007 NOSIG=
202004180930 METAR VIDP 180930Z 12005KT 5000 HZ SCT035 BKN100 36/11 Q1008 NOSIG=
202004180900 METAR VIDP 180900Z 12005KT 5000 HZ SCT035 BKN100 35/11 Q1008 NOSIG=
202004180830 METAR VIDP 180830Z 10007KT 5000 HZ SCT035 BKN100 35/11 Q1009 NOSIG=
202004180800 METAR VIDP 180800Z 10006KT 5000 HZ SCT035 BKN100 35/11 Q1009 NOSIG=
202004180730 METAR VIDP 180730Z 12008KT 5000 HZ SCT035 BKN100 35/11 Q1009 NOSIG=
202004180700 METAR VIDP 180700Z 11009KT 5000 HZ FEW035 SCT100 35/11 Q1010 NOSIG=
202004180630 METAR VIDP 180630Z 10008KT 5000 HZ FEW035 SCT100 34/12 Q1010 NOSIG=
202004180600 METAR VIDP 180600Z 10009KT 5000 HZ FEW035 SCT100 32/12 Q1010 NOSIG=
202004180530 METAR VIDP 180530Z 09009KT 5000 HZ FEW035 SCT100 31/12 Q1011 NOSIG=
202004180500 METAR VIDP 180500Z 09009KT 4500 HZ FEW100 30/12 Q1011 BECMG 5000 HZ=
202004180430 METAR VIDP 180430Z 08009KT 4000 HZ FEW100 29/12 Q1011 NOSIG=
202004180400 METAR VIDP 180400Z 08008KT 3500 HZ FEW100 28/13 Q1011 NOSIG=
202004180330 METAR VIDP 180330Z 08006KT 2800 HZ FEW100 27/13 Q1011 BECMG 3000 HZ=
202004180300 METAR VIDP 180300Z 09006KT 2500 HZ FEW035 SCT100 27/14 Q1010 NOSIG=
202004180230 METAR VIDP 180230Z 07006KT 2500 HZ FEW035 SCT100 26/15 Q1010 NOSIG=
202004180200 METAR VIDP 180200Z 07005KT 2500 HZ SCT035 BKN100 25/15 Q1010 NOSIG=
202004180130 METAR VIDP 180130Z 06005KT 2500 HZ SCT035 BKN100 24/14 Q1009 NOSIG=
202004180100 METAR VIDP 180100Z 07005KT 2500 HZ SCT035 BKN100 24/14 Q1009 NOSIG=
202004180030 METAR VIDP 180030Z 36005G15KT 2500 HZ SCT035 FEW040CB BKN100 26/14 Q1010 NOSIG=
202004180000 METAR VIDP 180000Z 32005G15KT 2500 HZ SCT035 FEW040CB BKN100 26/14 Q1010 NOSIG=
202004172330 METAR VIDP 172330Z 32010G20KT 2500 HZ SCT035 FEW040CB BKN100 26/14 Q1008 TEMPO 32010G25KT 1500 TSRA=
202004172300 METAR VIDP 172300Z 05008KT 2500 HZ SCT035 FEW040CB BKN100 27/14 Q1007 NOSIG=
202004172230 METAR VIDP 172230Z 05006KT 2500 HZ SCT035 FEW040CB BKN100 27/14 Q1007 NOSIG=
202004172200 METAR VIDP 172200Z 09005KT 2500 HZ SCT035 FEW040CB BKN100 27/13 Q1007 NOSIG=
202004172130 METAR VIDP 172130Z 08005KT 2500 HZ SCT035 FEW040CB BKN100 27/15 Q1007 NOSIG=
202004172100 METAR VIDP 172100Z 08005KT 2500 HZ SCT035 FEW040CB BKN100 27/15 Q1007 NOSIG=
202004172030 METAR VIDP 172030Z 09005KT 2500 HZ SCT035 FEW040CB BKN100 27/15 Q1007 NOSIG=
202004172000 METAR VIDP 172000Z 09005KT 2500 HZ SCT035 FEW040CB BKN100 27/15 Q1007 NOSIG=
202004171930 METAR VIDP 171930Z 07005KT 2500 TS SCT035 FEW040CB BKN100 27/15 Q1008 NOSIG=
202004171900 METAR VIDP 171900Z 08004KT 2500 HZ SCT035 FEW040CB BKN090 28/15 Q1007 NOSIG=
202004171830 METAR VIDP 171830Z 06005KT 2500 HZ SCT035 BKN090 28/14 Q1007 NOSIG=
202004171800 METAR VIDP 171800Z 08004KT 2500 HZ SCT035 BKN090 28/14 Q1007 NOSIG=
202004171730 METAR VIDP 171730Z 10006KT 2500 HZ SCT035 BKN100 29/13 Q1007 NOSIG=
202004171700 METAR VIDP 171700Z 08005KT 2500 HZ SCT035 BKN100 29/13 Q1006 NOSIG=
202004171630 METAR VIDP 171630Z 10003KT 2500 HZ SCT035 BKN100 29/13 Q1006 NOSIG=
202004171600 METAR VIDP 171600Z 07004KT 2500 HZ SCT035 FEW040CB BKN090 29/13 Q1006 NOSIG=
202004171530 METAR VIDP 171530Z 12006KT 2500 HZ SCT035 FEW040CB BKN100 29/14 Q1006 NOSIG=
202004171500 METAR VIDP 171500Z 12008KT 2500 HZ SCT035 FEW040CB BKN100 29/14 Q1005 NOSIG=
202004171430 METAR VIDP 171430Z 11008KT 2500 TS SCT035 FEW040CB BKN100 29/14 Q1005 TEMPO 23010G20KT 1500 -TSRA=
202004171400 METAR VIDP 171400Z 11008KT 2500 TS SCT035 FEW040CB BKN100 29/14 Q1005 TEMPO 23010G20KT 1500 -TSRA=
202004171330 METAR VIDP 171330Z 12005KT 3000 TS SCT035 FEW040CB BKN100 30/13 Q1005 TEMPO 23010G20KT 1500 -TSRA=
202004171300 METAR VIDP 171300Z 10010KT 3500 SCT035 FEW040CB BKN100 32/11 Q1004 TEMPO 23010G20KT 1500 -TSRA=
202004171230 METAR VIDP 171230Z 15005KT 5000 SCT035 FEW040CB BKN100 35/10 Q1005 NOSIG=
202004171200 METAR VIDP 171200Z 05005KT 5000 SCT035 FEW040CB BKN100 36/10 Q1004 NOSIG=
202004171130 METAR VIDP 171130Z 10004KT 6000 SCT035 FEW040CB BKN100 37/09 Q1004 NOSIG=
202004171100 METAR VIDP 171100Z 16003KT 6000 SCT035 FEW040CB BKN100 37/09 Q1004 NOSIG=
202004171030 METAR VIDP 171030Z 17003KT 6000 SCT035 BKN100 37/09 Q1004 NOSIG=
202004171000 METAR VIDP 171000Z 32004KT 6000 SCT035 BKN100 36/10 Q1005 NOSIG=
202004170930 METAR VIDP 170930Z 23005KT 6000 SCT035 BKN100 36/10 Q1005 NOSIG=
202004170900 METAR VIDP 170900Z 25005KT 6000 SCT035 BKN100 36/10 Q1006 NOSIG=
202004170830 METAR VIDP 170830Z 26004KT 6000 SCT035 BKN100 36/10 Q1006 NOSIG=
202004170800 METAR VIDP 170800Z 08004KT 6000 SCT035 BKN100 35/11 Q1007 NOSIG=
202004170730 METAR VIDP 170730Z 08004KT 6000 SCT035 BKN100 35/11 Q1007 NOSIG=
202004170700 METAR VIDP 170700Z 08006KT 5500 SCT035 BKN100 34/12 Q1007 NOSIG=
202004170630 METAR VIDP 170630Z 06005KT 5000 HZ SCT035 BKN100 33/12 Q1008 NOSIG=
202004170600 METAR VIDP 170600Z 03006KT 4500 HZ SCT035 BKN100 32/12 Q1008 BECMG 5000 HZ=
202004170530 METAR VIDP 170530Z 03006KT 4000 HZ SCT035 BKN100 31/13 Q1009 NOSIG=
202004170500 METAR VIDP 170500Z 03005KT 3500 HZ SCT035 BKN100 31/14 Q1009 NOSIG=
202004170430 METAR VIDP 170430Z 36008KT 3000 HZ SCT035 BKN100 31/15 Q1009 NOSIG=
202004170400 METAR VIDP 170400Z 01009KT 3000 HZ SCT035 BKN100 30/15 Q1009 NOSIG=
202004170330 METAR VIDP 170330Z 36008KT 3000 HZ SCT035 BKN100 30/16 Q1009 NOSIG=
202004170300 METAR VIDP 170300Z 35005G15KT 3000 HZ SCT035 BKN100 30/16 Q1008 NOSIG=
202004170230 METAR VIDP 170230Z 35005G15KT 3000 HZ SCT035 BKN100 30/16 Q1008 NOSIG=
202004170200 METAR VIDP 170200Z 34007KT 3000 HZ SCT035 BKN100 30/15 Q1007 NOSIG=
202004170130 METAR VIDP 170130Z 32007KT 3000 HZ SCT035 BKN100 29/15 Q1007 NOSIG=
202004170100 METAR VIDP 170100Z 32007KT 3000 HZ SCT035 BKN100 29/15 Q1007 NOSIG=
202004170030 METAR VIDP 170030Z 31007KT 3000 HZ SCT035 BKN100 28/15 Q1007 NOSIG=
202004170000 METAR VIDP 170000Z 30008KT 3000 HZ SCT035 BKN100 28/15 Q1007 NOSIG=
202004162330 METAR VIDP 162330Z 30009KT 3000 HZ SCT035 BKN100 28/15 Q1007 NOSIG=
202004162300 METAR VIDP 162300Z 24006KT 3000 HZ SCT035 BKN100 28/15 Q1007 NOSIG=
202004162230 METAR VIDP 162230Z 25010KT 3500 HZ SCT035 BKN100 29/15 Q1007 BECMG 3000 HZ=
202004162200 METAR VIDP 162200Z 30006KT 3500 HZ SCT035 SCT100 29/15 Q1006 NOSIG=
202004162130 METAR VIDP 162130Z 34006KT 3500 HZ SCT035 SCT100 30/14 Q1006 NOSIG=
202004162100 METAR VIDP 162100Z 34007KT 3500 HZ SCT035 SCT100 30/14 Q1006 NOSIG=
202004162030 METAR COR VIDP 162030Z 33006KT 3500 HZ SCT035 SCT100 30/14 Q1007 NOSIG=
202004162000 METAR VIDP 162000Z 34007KT 3500 HZ SCT035 SCT100 31/14 Q1007 NOSIG=
202004161930 METAR VIDP 161930Z 34006KT 3500 HZ FEW035 SCT100 31/14 Q1007 NOSIG=
202004161900 METAR VIDP 161900Z 34006KT 3500 HZ FEW035 SCT100 31/14 Q1007 NOSIG=
202004161830 METAR VIDP 161830Z 29006KT 3500 HZ FEW035 SCT100 31/14 Q1007 NOSIG=
202004161800 METAR VIDP 161800Z 35007KT 3500 HZ FEW035 SCT100 31/13 Q1007 NOSIG=
202004161730 METAR VIDP 161730Z 35006KT 3500 HZ FEW035 SCT100 32/13 Q1007 NOSIG=
202004161700 METAR VIDP 161700Z 33005KT 3500 HZ FEW035 SCT100 32/13 Q1007 NOSIG=
202004161630 METAR VIDP 161630Z 32005KT 3500 HZ FEW035 SCT100 33/13 Q1007 NOSIG=
202004161600 METAR VIDP 161600Z 32006KT 3500 HZ FEW035 SCT100 33/13 Q1007 NOSIG=
202004161530 METAR VIDP 161530Z 32005KT 4000 HZ FEW035 SCT100 34/13 Q1007 NOSIG=
202004161500 METAR VIDP 161500Z 31004KT 4000 HZ FEW035 SCT100 34/13 Q1007 NOSIG=
202004161430 METAR VIDP 161430Z 30004KT 4000 HZ FEW035 SCT100 35/12 Q1006 NOSIG=
202004161400 METAR VIDP 161400Z 30004KT 4000 HZ FEW035 SCT100 35/12 Q1006 NOSIG=
202004161330 METAR VIDP 161330Z 29005KT 4000 HZ FEW035 SCT100 36/12 Q1006 NOSIG=
202004161300 METAR VIDP 161300Z 29006KT 4000 HZ FEW035 SCT100 36/12 Q1005 NOSIG=
202004161230 METAR VIDP 161230Z 29007KT 4500 HZ FEW035 SCT100 37/11 Q1005 NOSIG=
202004161200 METAR VIDP 161200Z 29005G15KT 5000 HZ FEW035 SCT100 37/11 Q1005 NOSIG=
202004161130 METAR VIDP 161130Z 29006G16KT 5000 HZ FEW035 SCT100 37/11 Q1005 NOSIG=
202004161100 METAR VIDP 161100Z 29006G16KT 5000 HZ FEW035 SCT100 38/11 Q1005 NOSIG=
202004161030 METAR VIDP 161030Z 30006G16KT 5000 HZ FEW035 SCT100 38/10 Q1005 NOSIG=
202004161000 METAR VIDP 161000Z 29006G16KT 5000 HZ FEW035 SCT100 38/10 Q1006 NOSIG=
202004160930 METAR VIDP 160930Z 29006G16KT 5000 HZ FEW035 SCT100 39/10 Q1006 NOSIG=
202004160830 METAR VIDP 160830Z 30008KT 5000 HZ SCT100 37/10 Q1007 NOSIG=
202004160800 METAR VIDP 160800Z 31009KT 4500 HZ FEW040 SCT100 36/10 Q1007 BECMG 5000 HZ=
202004160730 METAR VIDP 160730Z 30008KT 4000 HZ FEW040 SCT100 35/10 Q1008 NOSIG=
202004160700 METAR VIDP 160700Z 31005KT 3500 HZ FEW040 SCT100 34/10 Q1008 NOSIG=
202004160630 METAR VIDP 160630Z 29007KT 3000 HZ FEW040 SCT100 33/11 Q1009 NOSIG=
202004160600 METAR VIDP 160600Z 26007KT 3000 HZ FEW040 SCT100 32/11 Q1009 NOSIG=
202004160530 METAR VIDP 160530Z 23004KT 3000 HZ FEW040 SCT100 31/12 Q1009 NOSIG=
202004160500 METAR VIDP 160500Z 24004KT 3000 HZ FEW040 SCT100 31/12 Q1009 NOSIG=
202004160430 METAR VIDP 160430Z 23003KT 3000 HZ FEW040 SCT100 30/12 Q1009 NOSIG=
202004160400 METAR VIDP 160400Z 26005KT 3000 HZ FEW100 29/12 Q1009 NOSIG=
202004160330 METAR VIDP 160330Z 25005KT 3000 HZ FEW100 27/12 Q1009 NOSIG=
202004160300 METAR VIDP 160300Z 25005KT 3000 HZ FEW100 27/12 Q1009 NOSIG=
202004160230 METAR VIDP 160230Z 26005KT 2800 HZ FEW100 26/14 Q1008 BECMG 3000 HZ=
202004160200 METAR VIDP 160200Z 07003KT 2800 HZ FEW100 26/13 Q1007 NOSIG=
202004160130 METAR VIDP 160130Z 00000KT 2500 HZ FEW100 25/13 Q1007 NOSIG=
202004160100 METAR VIDP 160100Z 27003KT 2500 HZ FEW100 25/13 Q1007 NOSIG=
202004160030 METAR VIDP 160030Z 30002KT 2500 HZ FEW100 25/12 Q1007 NOSIG=
202004160000 METAR VIDP 160000Z 29002KT 2500 HZ FEW100 25/12 Q1007 NOSIG=
202004152330 METAR VIDP 152330Z 28004KT 2500 HZ FEW100 25/10 Q1007 NOSIG=
202004152300 METAR VIDP 152300Z 27003KT 2500 HZ FEW100 25/10 Q1006 NOSIG=
202004152230 METAR VIDP 152230Z 24003KT 2500 HZ FEW100 26/09 Q1006 NOSIG=
202004152200 METAR VIDP 152200Z 24003KT 2500 HZ FEW100 26/09 Q1007 NOSIG=
202004152130 METAR VIDP 152130Z 26003KT 2500 HZ FEW100 26/09 Q1006 NOSIG=
202004152100 METAR VIDP 152100Z 23004KT 3000 HZ FEW100 26/09 Q1007 NOSIG=
202004152030 METAR VIDP 152030Z 22004KT 3000 HZ FEW100 26/09 Q1007 NOSIG=
202004152000 METAR VIDP 152000Z 00000KT 3000 HZ FEW100 26/09 Q1007 NOSIG=
202004151930 METAR VIDP 151930Z 00000KT 3000 HZ FEW100 26/09 Q1008 NOSIG=
202004151900 METAR VIDP 151900Z 00000KT 3000 HZ FEW100 26/09 Q1008 NOSIG=
202004151830 METAR VIDP 151830Z 00000KT 3000 HZ FEW100 26/09 Q1008 NOSIG=
202004151800 METAR VIDP 151800Z 00000KT 3000 HZ FEW100 27/09 Q1007 NOSIG=
202004151730 METAR COR VIDP 151730Z 00000KT 3000 HZ FEW100 28/08 Q1007 NOSIG=
202004151700 METAR VIDP 151700Z 00000KT 3500 HZ FEW100 28/08 Q1007 BECMG 3000 HZ=
202004151630 METAR VIDP 151630Z 00000KT 3500 HZ FEW100 29/07 Q1007 NOSIG=
202004151600 METAR VIDP 151600Z 00000KT 3500 HZ FEW100 30/07 Q1007 NOSIG=
202004151530 METAR VIDP 151530Z 00000KT 3500 HZ SCT100 32/07 Q1007 NOSIG=
202004151500 METAR VIDP 151500Z 00000KT 3500 HZ FEW040 SCT100 32/06 Q1007 NOSIG=
202004151430 METAR VIDP 151430Z 00000KT 3500 HZ FEW040 SCT100 35/03 Q1006 NOSIG=
202004151400 METAR VIDP 151400Z 32004KT 3500 HZ FEW040 SCT100 37/03 Q1006 NOSIG=
202004151330 METAR VIDP 151330Z 30003KT 4000 HZ FEW040 SCT100 37/03 Q1006 NOSIG=
202004151300 METAR VIDP 151300Z 31004KT 4000 HZ SCT035 BKN090 38/03 Q1005 NOSIG=
202004151230 METAR VIDP 151230Z 31007KT 4500 HZ SCT035 BKN090 39/03 Q1006 NOSIG=
202004151200 METAR VIDP 151200Z 31007KT 4500 HZ SCT035 BKN090 39/03 Q1006 NOSIG=
202004151130 METAR VIDP 151130Z 31006KT 4500 HZ SCT035 BKN090 39/03 Q1006 NOSIG=
202004151100 METAR VIDP 151100Z 32007KT 4500 HZ SCT035 BKN090 39/03 Q1006 NOSIG=
202004151030 METAR VIDP 151030Z 30008KT 4000 HZ SCT035 BKN090 39/03 Q1006 NOSIG=
202004151000 METAR VIDP 151000Z 28006KT 4000 HZ SCT035 BKN090 39/04 Q1006 NOSIG=
202004150930 METAR VIDP 150930Z 32006KT 4000 HZ SCT035 BKN090 39/04 Q1007 NOSIG=
202004150900 METAR VIDP 150900Z 31006KT 4000 HZ SCT035 BKN090 39/04 Q1007 NOSIG=
202004150830 METAR VIDP 150830Z 32005KT 3500 HZ SCT035 BKN090 39/04 Q1008 NOSIG=
202004150800 METAR VIDP 150800Z 26008KT 3500 HZ SCT035 BKN090 38/05 Q1008 NOSIG=
202004150730 METAR VIDP 150730Z 25006KT 3500 HZ SCT035 BKN090 38/06 Q1008 NOSIG=
202004150700 METAR VIDP 150700Z 27006KT 3500 HZ SCT035 BKN090 38/06 Q1009 NOSIG=
202004150630 METAR VIDP 150630Z 28005KT 3000 HZ SCT035 BKN090 36/07 Q1009 NOSIG=
202004150600 METAR VIDP 150600Z 27005KT 3000 HZ SCT035 BKN090 36/08 Q1010 NOSIG=
202004150530 METAR VIDP 150530Z 26004KT 2800 HZ SCT035 BKN090 35/09 Q1010 BECMG 3000 HZ=
202004150500 METAR VIDP 150500Z 25005KT 2500 HZ SCT035 BKN090 34/10 Q1010 NOSIG=
202004150430 METAR VIDP 150430Z 24004KT 2500 HZ SCT035 BKN090 33/11 Q1011 NOSIG=
202004150400 METAR VIDP 150400Z 00000KT 2200 HZ SCT035 BKN090 31/12 Q1011 NOSIG=
202004150330 METAR VIDP 150330Z 13004KT 2200 HZ SCT035 BKN090 30/13 Q1011 NOSIG=
202004150300 METAR VIDP 150300Z 13003KT 2200 HZ SCT035 BKN090 29/14 Q1011 NOSIG=
202004150230 METAR VIDP 150230Z 13004KT 2500 HZ SCT035 BKN090 29/14 Q1010 NOSIG=
202004150200 METAR VIDP 150200Z 11004KT 2500 HZ SCT035 BKN090 28/13 Q1010 NOSIG=
202004150130 METAR VIDP 150130Z 10004KT 2500 HZ SCT035 BKN090 28/12 Q1010 NOSIG=
202004150100 METAR VIDP 150100Z 10003KT 2500 HZ SCT035 BKN090 27/12 Q1010 NOSIG=
202004150030 METAR VIDP 150030Z 10003KT 2500 HZ FEW040 SCT100 27/12 Q1009 NOSIG=
202004150000 METAR VIDP 150000Z 08004KT 2500 HZ FEW040 SCT100 28/13 Q1009 NOSIG=
202004142330 METAR VIDP 142330Z 09004KT 3000 HZ FEW040 SCT100 28/12 Q1009 NOSIG=
202004142300 METAR VIDP 142300Z 00000KT 3000 HZ FEW040 SCT100 28/12 Q1009 NOSIG=
202004142230 METAR VIDP 142230Z 00000KT 3000 HZ FEW040 SCT100 28/12 Q1009 NOSIG=
202004142200 METAR VIDP 142200Z 12003KT 3000 HZ FEW040 SCT100 28/12 Q1009 NOSIG=
202004142130 METAR VIDP 142130Z 15003KT 3000 HZ FEW040 SCT100 29/12 Q1009 NOSIG=
202004142100 METAR VIDP 142100Z 12003KT 3000 HZ FEW040 SCT100 29/11 Q1009 NOSIG=
202004142030 METAR VIDP 142030Z 13004KT 3000 HZ FEW040 SCT100 30/12 Q1009 NOSIG=
202004142000 METAR VIDP 142000Z 12002KT 3000 HZ FEW040 SCT100 30/11 Q1009 NOSIG=
202004141930 METAR VIDP 141930Z 17004KT 3000 HZ FEW040 SCT100 31/11 Q1009 NOSIG=
202004141900 METAR VIDP 141900Z 14003KT 3000 HZ FEW040 SCT100 31/11 Q1009 NOSIG=
202004141830 METAR VIDP 141830Z 13005KT 3000 HZ FEW040 SCT100 31/11 Q1009 NOSIG=
202004141800 METAR VIDP 141800Z 11003KT 3000 HZ FEW040 SCT100 32/11 Q1010 NOSIG=
202004141730 METAR VIDP 141730Z 15003KT 3000 HZ FEW040 SCT100 32/11 Q1010 NOSIG=
202004141700 METAR VIDP 141700Z 15003KT 3000 HZ FEW040 SCT100 33/11 Q1010 NOSIG=
202004141630 METAR VIDP 141630Z 13004KT 3000 HZ FEW040 SCT100 33/13 Q1010 NOSIG=
202004141600 METAR VIDP 141600Z 10004KT 3000 HZ FEW040 SCT100 33/13 Q1010 NOSIG=
202004141530 METAR VIDP 141530Z 10002KT 3000 HZ FEW040 SCT100 33/13 Q1010 NOSIG=
202004141500 METAR VIDP 141500Z 13003KT 3000 HZ FEW040 SCT100 34/13 Q1009 NOSIG=
202004141430 METAR VIDP 141430Z 14004KT 3000 HZ FEW040 SCT100 35/13 Q1009 NOSIG=
202004141400 METAR VIDP 141400Z 14004KT 3000 HZ SCT035 BKN100 35/13 Q1008 NOSIG=
202004141330 METAR VIDP 141330Z 00000KT 3000 HZ SCT035 BKN100 36/11 Q1007 NOSIG=
202004141300 METAR COR VIDP 141300Z 00000KT 3500 HZ SCT035 BKN100 36/11 Q1007 BECMG 3000=
202004141230 METAR VIDP 141230Z 15003KT 3500 HZ SCT035 BKN100 37/10 Q1006 NOSIG=
202004141200 METAR VIDP 141200Z 25005KT 3500 HZ SCT035 BKN100 35/13 Q1006 NOSIG=
202004141130 METAR VIDP 141130Z 21005KT 3500 HZ SCT035 BKN100 37/12 Q1006 NOSIG=
202004141100 METAR VIDP 141100Z 29003KT 5000 HZ SCT035 SCT100 38/11 Q1006 NOSIG=
202004141030 METAR VIDP 141030Z 20003KT 5000 HZ SCT035 SCT100 38/11 Q1006 NOSIG=
202004141000 METAR VIDP 141000Z 20004KT 5000 HZ SCT035 BKN100 39/11 Q1007 NOSIG=
202004140930 METAR VIDP 140930Z 20005KT 5000 HZ SCT035 BKN100 39/11 Q1007 NOSIG=
202004140900 METAR VIDP 140900Z 25005KT 5000 HZ SCT035 BKN100 38/11 Q1008 NOSIG=
202004140830 METAR VIDP 140830Z 18005KT 5000 HZ SCT035 BKN100 37/11 Q1008 NOSIG=
202004140800 METAR VIDP 140800Z 12004KT 5000 HZ SCT035 BKN090 37/11 Q1009 NOSIG=
202004140730 METAR VIDP 140730Z 10003KT 5000 HZ SCT035 BKN090 36/12 Q1009 NOSIG=
202004140700 METAR VIDP 140700Z 10004KT 5000 HZ SCT035 BKN090 36/12 Q1009 NOSIG=
202004140630 METAR VIDP 140630Z 08003KT 5000 HZ SCT035 BKN090 35/12 Q1010 NOSIG=
202004140600 METAR VIDP 140600Z 10004KT 5000 HZ SCT035 BKN090 34/12 Q1010 NOSIG=
202004140530 METAR VIDP 140530Z 12003KT 4500 HZ SCT035 BKN090 33/12 Q1010 BECMG 5000 HZ=
202004140500 METAR VIDP 140500Z 06003KT 4000 HZ SCT035 BKN090 32/13 Q1010 NOSIG=
202004140430 METAR VIDP 140430Z 11003KT 4000 HZ SCT035 BKN090 31/14 Q1010 NOSIG=
202004140400 METAR VIDP 140400Z 00000KT 3500 HZ SCT035 BKN090 30/14 Q1010 NOSIG=
202004140330 METAR VIDP 140330Z 00000KT 3500 HZ SCT035 BKN090 29/15 Q1010 NOSIG=
202004140300 METAR VIDP 140300Z 00000KT 3000 HZ SCT035 BKN090 28/16 Q1010 NOSIG=
202004140230 METAR VIDP 140230Z 00000KT 3000 HZ SCT035 BKN090 27/17 Q1010 NOSIG=
202004140200 METAR VIDP 140200Z 00000KT 3000 HZ SCT035 BKN090 25/18 Q1010 NOSIG=
202004140130 METAR VIDP 140130Z 00000KT 2800 HZ SCT035 BKN090 25/18 Q1010 BECMG 3000 HZ=
202004140100 METAR VIDP 140100Z 00000KT 2800 HZ SCT035 BKN090 25/18 Q1009 NOSIG=
202004140030 METAR VIDP 140030Z 00000KT 2500 HZ FEW035 SCT100 25/19 Q1009 NOSIG=
202004140000 METAR VIDP 140000Z 00000KT 3000 HZ FEW035 SCT100 25/18 Q1009 NOSIG=
202004132330 METAR VIDP 132330Z 00000KT 3000 HZ FEW035 SCT100 26/17 Q1008 NOSIG=
202004132300 METAR VIDP 132300Z 00000KT 3000 HZ FEW035 SCT100 26/17 Q1008 NOSIG=
202004132230 METAR VIDP 132230Z 00000KT 3000 HZ FEW035 SCT100 26/17 Q1008 NOSIG=
202004132200 METAR VIDP 132200Z 00000KT 3000 HZ FEW035 SCT100 26/17 Q1008 NOSIG=
202004132130 METAR VIDP 132130Z 00000KT 3000 HZ FEW035 SCT100 26/17 Q1008 NOSIG=
202004132100 METAR VIDP 132100Z 00000KT 3000 HZ FEW035 SCT100 27/17 Q1008 NOSIG=
202004132030 METAR VIDP 132030Z 00000KT 3500 HZ FEW035 SCT100 27/16 Q1008 BECMG 3000 HZ=
202004132000 METAR VIDP 132000Z 25004KT 3500 HZ SCT100 28/16 Q1008 NOSIG=
202004131930 METAR VIDP 131930Z 00000KT 3500 HZ SCT100 28/16 Q1008 NOSIG=
202004131900 METAR VIDP 131900Z 00000KT 3500 HZ SCT100 29/16 Q1008 NOSIG=
202004131830 METAR VIDP 131830Z 01004KT 3500 HZ SCT100 30/15 Q1008 NOSIG=
202004131800 METAR VIDP 131800Z 36003KT 3500 HZ SCT100 29/15 Q1008 NOSIG=
202004131730 METAR VIDP 131730Z 00000KT 3500 HZ SCT100 29/15 Q1008 NOSIG=
202004131700 METAR VIDP 131700Z 00000KT 3800 HZ SCT100 30/15 Q1008 NOSIG=
202004131630 METAR VIDP 131630Z 00000KT 4000 HZ SCT100 31/14 Q1008 NOSIG=
202004131600 METAR VIDP 131600Z 00000KT 4000 HZ FEW100 32/14 Q1008 NOSIG=
202004131530 METAR VIDP 131530Z 00000KT 4000 HZ FEW100 32/14 Q1008 NOSIG=
202004131500 METAR VIDP 131500Z 00000KT 4000 HZ FEW100 33/13 Q1007 NOSIG=
202004131430 METAR VIDP 131430Z 00000KT 4500 HZ FEW100 33/13 Q1007 NOSIG=
202004131400 METAR VIDP 131400Z 26003KT 4500 HZ FEW100 34/13 Q1007 NOSIG=
202004131330 METAR VIDP 131330Z 29004KT 4500 HZ FEW100 34/12 Q1006=
202004131300 METAR VIDP 131300Z 29006KT 5000 HZ FEW100 35/12 Q1006=
202004131230 METAR VIDP 131230Z 29008KT 5000 HZ FEW100 36/11 Q1006 NOSIG=
202004131200 METAR VIDP 131200Z 29009KT 5000 HZ FEW100 37/11 Q1006 NOSIG=
202004131130 METAR VIDP 131130Z 30010KT 5000 HZ FEW100 37/11 Q1006 NOSIG=
202004131100 METAR VIDP 131100Z 29011KT 5000 HZ FEW100 37/11 Q1006 NOSIG=
202004131030 METAR VIDP 131030Z 30010KT 5000 HZ FEW100 37/11 Q1006 NOSIG=
202004131000 METAR VIDP 131000Z 30011KT 5000 HZ FEW100 37/11 Q1006 NOSIG=
202004130930 METAR COR VIDP 130930Z 29012KT 4500 HZ FEW100 38/11 Q1007 BECMG 5000 HZ=
202004130900 METAR VIDP 130900Z 29010KT 4000 HZ FEW100 37/10 Q1008 NOSIG=
202004130830 METAR VIDP 130830Z 27010KT 4000 HZ FEW100 36/09 Q1009 NOSIG=
202004130800 METAR VIDP 130800Z 27010KT 4000 HZ FEW100 36/09 Q1009 NOSIG=
202004130730 METAR VIDP 130730Z 28010KT 4000 HZ FEW100 35/09 Q1009 NOSIG=
202004130700 METAR VIDP 130700Z 28006KT 4000 HZ FEW100 34/10 Q1009 NOSIG=
202004130630 METAR VIDP 130630Z 26005KT 4000 HZ FEW100 33/10 Q1009 NOSIG=
202004130600 METAR VIDP 130600Z 25005KT 4000 HZ FEW100 32/10 Q1010 NOSIG=
202004130530 METAR VIDP 130530Z 24005KT 4000 HZ FEW100 31/11 Q1010 NOSIG=
202004130500 METAR VIDP 130500Z 24004KT 3500 HZ FEW100 30/11 Q1010 NOSIG=
202004130430 METAR VIDP 130430Z 25004KT 2800 HZ FEW100 29/11 Q1010 BECMG 3000 HZ=
202004130400 METAR VIDP 130400Z 24004KT 2500 HZ FEW100 28/11 Q1010 NOSIG=
202004130330 METAR VIDP 130330Z 25004KT 2000 HZ FEW100 27/11 Q1010 NOSIG=
202004130300 METAR VIDP 130300Z 24004KT 2000 HZ FEW100 26/12 Q1010 NOSIG=
202004130230 METAR VIDP 130230Z 24004KT 2000 HZ FEW100 25/12 Q1010 NOSIG=
202004130200 METAR VIDP 130200Z 00000KT 2200 HZ FEW100 24/14 Q1010 NOSIG=
202004130130 METAR VIDP 130130Z 00000KT 2200 HZ FEW100 23/14 Q1010 NOSIG=
202004130100 METAR VIDP 130100Z 00000KT 2200 HZ FEW100 23/13 Q1010 NOSIG=
202004130030 METAR VIDP 130030Z 00000KT 3000 HZ FEW100 23/13 Q1009 NOSIG=
202004130000 METAR VIDP 130000Z 00000KT 3000 HZ FEW100 24/13 Q1009 NOSIG=
202004122330 METAR VIDP 122330Z 00000KT 3000 HZ FEW100 24/13 Q1009 NOSIG=
202004122300 METAR VIDP 122300Z 00000KT 3000 HZ FEW100 25/14 Q1008 NOSIG=
202004122230 METAR VIDP 122230Z 00000KT 3000 HZ FEW100 25/14 Q1008 NOSIG=
202004122200 METAR VIDP 122200Z 00000KT 3000 HZ FEW100 25/14 Q1008 NOSIG=
202004122130 METAR VIDP 122130Z 00000KT 3000 HZ FEW100 25/14 Q1008 NOSIG=
202004122100 METAR VIDP 122100Z 00000KT 3000 HZ FEW100 26/13 Q1008 NOSIG=
202004122030 METAR VIDP 122030Z 00000KT 3000 HZ FEW100 26/13 Q1008 NOSIG=
202004122000 METAR VIDP 122000Z 00000KT 3000 HZ FEW100 26/13 Q1009 NOSIG=
202004121930 METAR VIDP 121930Z 00000KT 3000 HZ FEW100 27/13 Q1009 NOSIG=
202004121900 METAR VIDP 121900Z 00000KT 3000 HZ FEW100 27/13 Q1009 NOSIG=
202004121830 METAR VIDP 121830Z 25003KT 3000 HZ FEW100 27/13 Q1009 NOSIG=
202004121800 METAR VIDP 121800Z 25003KT 3000 HZ FEW100 28/13 Q1009 NOSIG=
202004121730 METAR VIDP 121730Z 26003KT 3500 HZ FEW100 29/13 Q1009 BECMG 3000 HZ=
202004121700 METAR VIDP 121700Z 27003KT 3500 HZ FEW100 29/13 Q1009 NOSIG=
202004121630 METAR VIDP 121630Z 27003KT 3500 HZ FEW100 29/13 Q1009 NOSIG=
202004121600 METAR VIDP 121600Z 27003KT 3500 HZ FEW100 30/12 Q1009 NOSIG=
202004121530 METAR VIDP 121530Z 27003KT 3500 HZ FEW100 30/12 Q1009 NOSIG=
202004121500 METAR VIDP 121500Z 25004KT 3500 HZ FEW100 30/10 Q1009 NOSIG=
202004121430 METAR VIDP 121430Z 27004KT 4000 HZ FEW100 32/12 Q1009 NOSIG=
202004121400 METAR VIDP 121400Z 26004KT 4000 HZ FEW100 32/11 Q1009 NOSIG=
202004121330 METAR VIDP 121330Z 27005KT 4000 HZ FEW100 33/11 Q1009 NOSIG=
202004121300 METAR VIDP 121300Z 29008KT 4500 HZ FEW100 34/11 Q1008 NOSIG=
202004121230 METAR VIDP 121230Z 29008KT 5000 HZ FEW100 35/11 Q1008 NOSIG=
202004121200 METAR VIDP 121200Z 29008KT 5000 HZ FEW100 35/11 Q1008 NOSIG=
202004121130 METAR VIDP 121130Z 29010KT 5500 FEW100 35/12 Q1008 BECMG 5000 HZ=
202004121100 METAR VIDP 121100Z 29010KT 6000 FEW100 35/11 Q1008 NOSIG=
202004121030 METAR VIDP 121030Z 28008KT 6000 FEW100 36/11 Q1008 NOSIG=
202004121000 METAR VIDP 121000Z 29009KT 6000 FEW100 37/10 Q1008 NOSIG=
202004120930 METAR VIDP 120930Z 29009KT 6000 SCT100 37/10 Q1009 NOSIG=
202004120900 METAR VIDP 120900Z 29009KT 6000 SCT100 36/11 Q1009 NOSIG=
202004120830 METAR VIDP 120830Z 30008KT 6000 SCT100 34/11 Q1010 NOSIG=
202004120800 METAR VIDP 120800Z 30008KT 6000 SCT100 34/11 Q1011 NOSIG=
202004120730 METAR VIDP 120730Z 29008KT 6000 SCT100 34/11 Q1011 NOSIG=
202004120700 METAR VIDP 120700Z 30008KT 5000 HZ SCT100 33/11 Q1011 NOSIG=
202004120630 METAR VIDP 120630Z 28008KT 4500 HZ SCT100 32/11 Q1012 BECMG 5000 HZ=
202004120600 METAR VIDP 120600Z 28008KT 4000 HZ SCT100 31/11 Q1012 NOSIG=
202004120530 METAR VIDP 120530Z 30006KT 4000 HZ SCT100 30/11 Q1012 NOSIG=
202004120500 METAR VIDP 120500Z 29006KT 4000 HZ FEW100 29/11 Q1013 NOSIG=
202004120430 METAR VIDP 120430Z 28007KT 3000 HZ FEW100 28/12 Q1013 NOSIG=
202004120400 METAR VIDP 120400Z 28005KT 3000 HZ FEW100 27/12 Q1013 NOSIG=
202004120330 METAR VIDP 120330Z 27005KT 3000 HZ FEW100 26/12 Q1013 NOSIG=
202004120300 METAR VIDP 120300Z 27006KT 3000 HZ FEW100 25/12 Q1013 NOSIG=
202004120230 METAR VIDP 120230Z 26006KT 2500 HZ FEW100 25/13 Q1013 BECMG 3000 HZ=
202004120200 METAR VIDP 120200Z 25004KT 2200 HZ FEW100 23/13 Q1012 NOSIG=
202004120130 METAR VIDP 120130Z 25003KT 1800 R28/P2000 R29/P2000 HZ FEW100 22/13 Q1012 NOSIG=
202004120100 METAR VIDP 120100Z 26003KT 1800 R28/P2000 R29/P2000 HZ FEW100 21/12 Q1012 NOSIG=
202004120030 METAR VIDP 120030Z 26003KT 1800 R28/P2000 R29/P2000 HZ FEW100 22/12 Q1011 NOSIG=
202004120000 METAR VIDP 120000Z 25004KT 2200 HZ FEW100 23/12 Q1011 NOSIG=
202004112330 METAR VIDP 112330Z 24004KT 2500 HZ FEW100 24/12 Q1011 NOSIG=
202004112300 METAR VIDP 112300Z 25006KT 2500 HZ FEW100 25/12 Q1011 NOSIG=
202004112230 METAR VIDP 112230Z 35006KT 2800 HZ FEW100 25/12 Q1010 NOSIG=
202004112200 METAR VIDP 112200Z 34005KT 3000 HZ FEW100 26/11 Q1011 NOSIG=
202004112130 METAR VIDP 112130Z 32008KT 3000 HZ FEW100 26/11 Q1011 NOSIG=
202004112100 METAR VIDP 112100Z 31007KT 3000 HZ FEW100 26/11 Q1011 NOSIG=
202004112030 METAR VIDP 112030Z 32007KT 3000 HZ FEW100 27/11 Q1011 NOSIG=
202004112000 METAR VIDP 112000Z 29006KT 3000 HZ FEW100 27/11 Q1012 NOSIG=
202004111900 METAR VIDP 111900Z 31007KT 3000 HZ FEW100 28/10 Q1012 NOSIG=
202004111830 METAR VIDP 111830Z 31007KT 3000 HZ FEW100 28/11 Q1012 NOSIG=
202004111800 METAR VIDP 111800Z 32006KT 3000 HZ FEW100 29/11 Q1012 NOSIG=
202004111730 METAR VIDP 111730Z 30008KT 3000 HZ FEW100 30/11 Q1012 NOSIG=
202004111700 METAR VIDP 111700Z 30007KT 3200 HZ FEW100 30/11 Q1012 BECMG 3000 HZ=
202004111630 METAR VIDP 111630Z 32006KT 3500 HZ FEW100 30/11 Q1011 NOSIG=
202004111600 METAR VIDP 111600Z 32006KT 3500 HZ FEW100 30/11 Q1011 NOSIG=
202004111530 METAR VIDP 111530Z 30006KT 3500 HZ FEW100 30/11 Q1011 NOSIG=
202004111500 METAR VIDP 111500Z 30007KT 3500 HZ FEW100 31/11 Q1011 NOSIG=
202004111430 METAR VIDP 111430Z 30008KT 4000 HZ FEW100 31/10 Q1011 NOSIG=
202004111400 METAR VIDP 111400Z 29010KT 4000 HZ FEW100 31/08 Q1011 NOSIG=
202004111330 METAR VIDP 111330Z 28008KT 4000 HZ FEW100 32/07 Q1011 NOSIG=
202004111300 METAR VIDP 111300Z 29009KT 4000 HZ FEW100 32/07 Q1010 NOSIG=
202004111230 METAR VIDP 111230Z 31008KT 4000 HZ FEW100 33/07 Q1010 NOSIG=
202004111200 METAR VIDP 111200Z 28010KT 4000 HZ FEW100 34/06 Q1010 NOSIG=
202004111130 METAR VIDP 111130Z 29011KT 4500 HZ FEW100 35/07 Q1010 NOSIG=
202004111100 METAR VIDP 111100Z 31008KT 5000 HZ FEW100 35/07 Q1010 NOSIG=
202004111030 METAR VIDP 111030Z 32007KT 5000 HZ FEW100 36/08 Q1011 NOSIG=
202004111000 METAR VIDP 111000Z 32004KT 5000 HZ FEW100 36/08 Q1011 NOSIG=
202004110930 METAR VIDP 110930Z 30005KT 5000 HZ FEW100 36/08 Q1011 NOSIG=
202004110900 METAR VIDP 110900Z 30004KT 5000 HZ FEW100 35/08 Q1012 NOSIG=
202004110830 METAR VIDP 110830Z 31006KT 5000 HZ FEW100 35/08 Q1013 NOSIG=
202004110800 METAR VIDP 110800Z 30004KT 4500 HZ FEW100 35/08 Q1013 BECMG 5000 HZ=
202004110730 METAR VIDP 110730Z 28004KT 4000 HZ FEW100 35/08 Q1014 NOSIG=
202004110700 METAR VIDP 110700Z 30005KT 4000 HZ FEW100 34/09 Q1014 NOSIG=
202004110630 METAR VIDP 110630Z 32004KT 3500 HZ FEW100 34/09 Q1015 NOSIG=
202004110600 METAR VIDP 110600Z 05004KT 3500 HZ NSC 33/09 Q1015 NOSIG=
202004110530 METAR VIDP 110530Z 06003KT 3500 HZ NSC 32/10 Q1015 NOSIG=
202004110500 METAR VIDP 110500Z 03004KT 3500 HZ NSC 31/10 Q1015 NOSIG=
202004110430 METAR VIDP 110430Z 06004KT 2800 HZ NSC 30/10 Q1015 BECMG 3000 HZ=
202004110400 METAR VIDP 110400Z 06005KT 2500 HZ NSC 29/12 Q1015 NOSIG=
202004110330 METAR VIDP 110330Z 07003KT 2500 HZ NSC 27/12 Q1015 NOSIG=
202004110300 METAR VIDP 110300Z 00000KT 2500 HZ NSC 27/12 Q1015 NOSIG=
202004110230 METAR VIDP 110230Z 00000KT 2500 HZ FEW100 26/12 Q1014 NOSIG=
202004110200 METAR VIDP 110200Z 00000KT 2500 HZ FEW100 24/13 Q1014 NOSIG=
202004110130 METAR VIDP 110130Z 00000KT 2500 HZ FEW100 23/13 Q1014 NOSIG=
202004110100 METAR VIDP 110100Z 00000KT 2500 HZ FEW100 23/13 Q1014 NOSIG=
202004110030 METAR VIDP 110030Z 00000KT 3000 HZ SCT100 23/13 Q1013 NOSIG=
202004110000 METAR VIDP 110000Z 00000KT 3000 HZ SCT100 23/13 Q1013 NOSIG=
202004102330 METAR VIDP 102330Z 00000KT 3000 HZ SCT100 23/13 Q1012 NOSIG=
202004102300 METAR VIDP 102300Z 00000KT 3000 HZ SCT100 23/12 Q1012 NOSIG=
202004102230 METAR VIDP 102230Z 00000KT 3000 HZ SCT100 23/11 Q1012 NOSIG=
202004102200 METAR VIDP 102200Z 00000KT 3000 HZ SCT100 24/13 Q1012 NOSIG=
202004102130 METAR VIDP 102130Z 00000KT 3000 HZ SCT100 24/13 Q1012 NOSIG=
202004102100 METAR VIDP 102100Z 00000KT 3000 HZ SCT100 25/12 Q1012 NOSIG=
202004102030 METAR VIDP 102030Z 00000KT 3000 HZ SCT100 25/12 Q1012 NOSIG=
202004102000 METAR VIDP 102000Z 00000KT 3000 HZ SCT100 26/12 Q1012 NOSIG=
202004101930 METAR VIDP 101930Z 00000KT 3000 HZ SCT100 26/12 Q1012 NOSIG=
202004101900 METAR VIDP 101900Z 00000KT 3000 HZ SCT100 27/11 Q1012 NOSIG=
202004101830 METAR VIDP 101830Z 00000KT 3500 HZ SCT100 27/11 Q1013 BECMG VIS 3000 HZ=
202004101800 METAR VIDP 101800Z 00000KT 3500 HZ FEW100 27/11 Q1013 NOSIG=
202004101730 METAR VIDP 101730Z 00000KT 3500 HZ FEW100 27/11 Q1013 NOSIG=
202004101700 METAR VIDP 101700Z 00000KT 3500 HZ FEW100 28/10 Q1012 NOSIG=
202004101630 METAR VIDP 101630Z 00000KT 3500 HZ FEW100 28/10 Q1012 NOSIG=
202004101600 METAR VIDP 101600Z 06003KT 4000 HZ FEW100 29/09 Q1012 NOSIG=
202004101530 METAR VIDP 101530Z 06003KT 4000 HZ FEW100 30/09 Q1012 NOSIG=
202004101500 METAR VIDP 101500Z 05003KT 4000 HZ FEW100 30/09 Q1012 NOSIG=
202004101430 METAR VIDP 101430Z 01003KT 4000 HZ FEW100 32/06 Q1011 NOSIG=
202004101400 METAR VIDP 101400Z 34003KT 4000 HZ FEW100 32/06 Q1011 NOSIG=
202004101330 METAR VIDP 101330Z 34005KT 4000 HZ FEW100 33/05 Q1011 NOSIG=
202004101300 METAR VIDP 101300Z 31004KT 4000 HZ FEW100 33/05 Q1011 NOSIG=
202004101230 METAR VIDP 101230Z 30004KT 4000 HZ FEW100 34/05 Q1010 NOSIG=
202004101200 METAR VIDP 101200Z 29005KT 5000 HZ FEW100 35/04 Q1010 NOSIG=
202004101130 METAR VIDP 101130Z 28006KT 5000 HZ FEW100 35/04 Q1010 NOSIG=
202004101100 METAR VIDP 101100Z 30006KT 5000 HZ FEW100 35/05 Q1010 NOSIG=
202004101030 METAR VIDP 101030Z 29004KT 5000 HZ FEW100 35/06 Q1010 NOSIG=
202004101000 METAR VIDP 101000Z 29005KT 5000 HZ NSC 34/08 Q1010 NOSIG=
202004100930 METAR VIDP 100930Z 31004KT 5000 HZ FEW100 34/08 Q1011 NOSIG=
202004100900 METAR VIDP 100900Z 28004KT 5000 HZ FEW100 34/09 Q1011 NOSIG=
202004100830 METAR VIDP 100830Z 31004KT 4500 HZ FEW100 34/09 Q1012 BECMG 5000 HZ=
202004100800 METAR VIDP 100800Z 30004KT 4000 HZ FEW100 34/09 Q1012 NOSIG=
202004100730 METAR VIDP 100730Z 27005KT 3500 HZ NSC 34/10 Q1013 NOSIG=
202004100700 METAR VIDP 100700Z 30006KT 3000 HZ FEW100 33/10 Q1013 NOSIG=
202004100630 METAR VIDP 100630Z 30004KT 3000 HZ SCT100 33/11 Q1013 NOSIG=
202004100600 METAR VIDP 100600Z 29004KT 3000 HZ FEW040 SCT100 31/11 Q1014 NOSIG=
202004100530 METAR VIDP 100530Z 28004KT 2500 HZ FEW040 SCT100 31/11 Q1014 BECMG 3000 HZ=
202004100500 METAR VIDP 100500Z 33006KT 2200 HZ FEW040 SCT100 30/11 Q1014 NOSIG=
202004100430 METAR VIDP 100430Z 31005KT 2000 HZ FEW040 SCT100 28/11 Q1014 NOSIG=
202004100400 METAR VIDP 100400Z 30003KT 1800 R28/P2000 R29/P2000 FU SCT100 27/12 Q1014 NOSIG=
202004100330 METAR VIDP 100330Z 25004KT 1400 R28/P2000 R29/P2000 FU SCT100 25/12 Q1013 BECMG 1500 FU=
202004100300 METAR VIDP 100300Z 25003KT 1200 R28/P2000 R29/P2000 FU SCT100 24/11 Q1013 NOSIG=
202004100230 METAR VIDP 100230Z 24003KT 1200 R28/P2000 R29/P2000 FU FEW100 23/11 Q1013 NOSIG=
202004100200 METAR VIDP 100200Z 23003KT 1200 R28/P2000 R29/P2000 FU FEW100 23/11 Q1012 NOSIG=
202004100130 METAR VIDP 100130Z 24003KT 1200 R28/P2000 R29/P2000 FU FEW100 22/11 Q1012 NOSIG=
202004100100 METAR VIDP 100100Z 25003KT 1500 R28/P2000 R29/P2000 HZ FEW100 21/11 Q1012 NOSIG=
202004100030 METAR VIDP 100030Z 25004KT 1800 R28/P2000 R29/P2000 HZ FEW100 21/11 Q1011 BECMG 1500 HZ=
202004100000 METAR VIDP 100000Z 28004KT 2200 HZ FEW100 21/11 Q1011 NOSIG=
202004092330 METAR VIDP 092330Z 28003KT 2500 HZ FEW100 21/11 Q1010 NOSIG=
202004092300 METAR VIDP 092300Z 00000KT 2500 HZ FEW100 21/12 Q1010 NOSIG=
202004092230 METAR VIDP 092230Z 00000KT 2800 HZ FEW100 22/12 Q1010 NOSIG=
202004092200 METAR VIDP 092200Z 00000KT 2800 HZ FEW100 23/11 Q1010 NOSIG=
202004092130 METAR VIDP 092130Z 00000KT 2800 HZ FEW100 23/11 Q1010 NOSIG=
202004092100 METAR VIDP 092100Z 00000KT 3000 HZ FEW100 23/11 Q1010 NOSIG=
202004092030 METAR VIDP 092030Z 00000KT 3000 HZ FEW100 24/11 Q1010 NOSIG=
202004092000 METAR VIDP 092000Z 00000KT 3000 HZ FEW100 24/12 Q1011 NOSIG=
202004091930 METAR VIDP 091930Z 00000KT 3000 HZ FEW100 24/12 Q1011 NOSIG=
202004091900 METAR VIDP 091900Z 00000KT 3000 HZ FEW100 25/11 Q1011 NOSIG=
202004091830 METAR VIDP 091830Z 00000KT 3500 HZ FEW100 25/11 Q1011 BECMG 3000 HZ=
202004091800 METAR VIDP 091800Z 00000KT 3500 HZ FEW100 25/11 Q1011 NOSIG=
202004091730 METAR VIDP 091730Z 00000KT 3500 HZ SCT100 26/10 Q1011 NOSIG=
202004091700 METAR VIDP 091700Z 00000KT 3500 HZ SCT100 26/10 Q1011 NOSIG=
202004091630 METAR VIDP 091630Z 00000KT 3500 HZ SCT100 27/10 Q1011 NOSIG=
202004091600 METAR VIDP 091600Z 00000KT 3500 HZ SCT100 27/10 Q1011 NOSIG=
202004091530 METAR VIDP 091530Z 00000KT 4000 HZ SCT100 27/10 Q1010 NOSIG=
202004091500 METAR VIDP 091500Z 27003KT 4200 HZ SCT100 28/11 Q1010 NOSIG=
202004091430 METAR VIDP 091430Z 28004KT 4200 HZ FEW040 SCT100 28/11 Q1010 NOSIG=
202004091400 METAR VIDP 091400Z 27005KT 4200 HZ FEW040 SCT100 29/10 Q1010 NOSIG=
202004091330 METAR VIDP 091330Z 29005KT 4200 HZ FEW040 SCT100 30/10 Q1010 NOSIG=
202004091300 METAR VIDP 091300Z 31006KT 4500 HZ FEW040 SCT100 30/09 Q1010 NOSIG=
202004091230 METAR VIDP 091230Z 30006KT 4500 HZ FEW040 SCT100 31/09 Q1010 NOSIG=
202004091200 METAR VIDP 091200Z 29005KT 4500 HZ FEW040 SCT100 31/09 Q1010 NOSIG=
202004091130 METAR VIDP 091130Z 28008KT 5000 HZ SCT100 32/09 Q1010 NOSIG=
202004091100 METAR VIDP 091100Z 29008KT 5000 HZ SCT100 32/09 Q1009 NOSIG=
202004091030 METAR VIDP 091030Z 28008KT 5000 HZ SCT100 32/08 Q1009 NOSIG=
202004091000 METAR VIDP 091000Z 29008KT 5000 HZ SCT100 32/07 Q1010 NOSIG=
202004090930 METAR VIDP 090930Z 29009KT 5000 HZ SCT100 32/07 Q1010 NOSIG=
202004090900 METAR VIDP 090900Z 29010KT 5000 HZ SCT100 31/07 Q1010 NOSIG=
202004090830 METAR VIDP 090830Z 29009KT 5000 HZ SCT100 30/06 Q1011 NOSIG=
202004090800 METAR VIDP 090800Z 29009KT 5000 HZ SCT100 30/06 Q1011 NOSIG=
202004090730 METAR VIDP 090730Z 28007KT 5000 HZ SCT100 29/06 Q1012 NOSIG=
202004090700 METAR VIDP 090700Z 29010KT 5000 HZ SCT100 29/06 Q1012 NOSIG=
202004090630 METAR VIDP 090630Z 28009KT 4500 HZ SCT100 29/07 Q1012 BECMG 5000 HZ=
202004090600 METAR VIDP 090600Z 27006KT 4000 HZ FEW100 28/09 Q1012 NOSIG=
202004090530 METAR VIDP 090530Z 27006KT 4000 HZ FEW100 27/09 Q1012 NOSIG=
202004090500 METAR VIDP 090500Z 27007KT 3500 HZ FEW100 26/09 Q1012 NOSIG=
202004090430 METAR VIDP 090430Z 26007KT 2800 HZ FEW100 25/10 Q1012 BECMG 3000 HZ=
202004090400 METAR VIDP 090400Z 26006KT 2500 HZ FEW100 23/10 Q1012 NOSIG=
202004090330 METAR VIDP 090330Z 25006KT 2500 HZ FEW100 22/10 Q1012 NOSIG=
202004090300 METAR VIDP 090300Z 25007KT 2500 HZ FEW100 21/10 Q1012 NOSIG=
202004090230 METAR VIDP 090230Z 26006KT 2500 HZ FEW100 20/10 Q1011 NOSIG=
202004090200 METAR VIDP 090200Z 26004KT 2100 HZ NSC 19/11 Q1011 NOSIG=
202004090130 METAR VIDP 090130Z 26004KT 2100 HZ NSC 18/11 Q1011 NOSIG=
202004090100 METAR VIDP 090100Z 23003KT 2100 HZ FEW100 17/10 Q1010 NOSIG=
202004090030 METAR VIDP 090030Z 23003KT 2500 HZ FEW100 19/10 Q1010 NOSIG=
202004090000 METAR VIDP 090000Z 23003KT 2800 HZ FEW100 20/10 Q1010 NOSIG=
202004082330 METAR VIDP 082330Z 23004KT 3200 HZ FEW100 20/10 Q1010 BECMG 3000 HZ=
202004082300 METAR VIDP 082300Z 22003KT 3200 HZ FEW100 22/10 Q1010 NOSIG=
202004082230 METAR VIDP 082230Z 23003KT 3200 HZ FEW100 22/10 Q1010 NOSIG=
202004082200 METAR VIDP 082200Z 30003KT 3200 HZ FEW100 23/09 Q1010 NOSIG=
202004082130 METAR VIDP 082130Z 32004KT 3200 HZ FEW100 24/09 Q1010 NOSIG=
202004082100 METAR VIDP 082100Z 31004KT 3200 HZ FEW100 24/09 Q1010 NOSIG=
202004082030 METAR VIDP 082030Z 30004KT 3500 HZ FEW100 24/09 Q1011 NOSIG=
202004082000 METAR VIDP 082000Z 32004KT 3500 HZ FEW100 24/09 Q1011 NOSIG=
202004081930 METAR VIDP 081930Z 32004KT 3500 HZ FEW100 25/09 Q1011 NOSIG=
202004081900 METAR VIDP 081900Z 33004KT 3500 HZ FEW100 25/09 Q1012 NOSIG=
202004081830 METAR VIDP 081830Z 33004KT 3500 HZ FEW100 26/09 Q1012 NOSIG=
202004081800 METAR VIDP 081800Z 31004KT 3500 HZ FEW100 26/09 Q1012 NOSIG=
202004081730 METAR VIDP 081730Z 32004KT 3500 HZ FEW100 26/09 Q1012 NOSIG=
202004081700 METAR VIDP 081700Z 33006KT 3500 HZ FEW100 26/09 Q1011 NOSIG=
202004081630 METAR VIDP 081630Z 32006KT 3500 HZ FEW100 27/09 Q1011 NOSIG=
202004081600 METAR VIDP 081600Z 33004KT 3500 HZ FEW100 26/09 Q1011 NOSIG=
202004081530 METAR VIDP 081530Z 32004KT 3500 HZ FEW100 27/09 Q1011 NOSIG=
202004081500 METAR VIDP 081500Z 32004KT 3500 HZ FEW100 28/09 Q1011 NOSIG=
202004081430 METAR VIDP 081430Z 32005KT 3500 HZ FEW100 29/09 Q1010 NOSIG=
202004081400 METAR VIDP 081400Z 32009KT 3500 HZ FEW100 29/09 Q1010 NOSIG=
202004081330 METAR VIDP 081330Z 32008KT 4000 HZ FEW100 29/09 Q1010 NOSIG=
202004081300 METAR VIDP 081300Z 31008KT 4500 HZ FEW100 30/09 Q1010 NOSIG=
202004081230 METAR VIDP 081230Z 30008KT 5000 HZ NSC 31/09 Q1010 NOSIG=
202004081200 METAR VIDP 081200Z 31010KT 5000 HZ NSC 31/10 Q1009 NOSIG=
202004081130 METAR VIDP 081130Z 31009KT 5000 HZ NSC 32/09 Q1009 NOSIG=
202004081100 METAR VIDP 081100Z 29009KT 5000 HZ NSC 33/09 Q1009 NOSIG=
202004081030 METAR VIDP 081030Z 29010KT 5000 HZ NSC 33/09 Q1009 NOSIG=
202004081000 METAR VIDP 081000Z 31009KT 5000 HZ NSC 32/09 Q1010 NOSIG=
202004080930 METAR VIDP 080930Z 29010KT 5000 HZ NSC 32/10 Q1010 NOSIG=
202004080900 METAR VIDP 080900Z 29010KT 5000 HZ NSC 32/10 Q1011 NOSIG=
202004080830 METAR VIDP 080830Z 29010KT 5000 HZ NSC 32/10 Q1011 NOSIG=
202004080800 METAR VIDP 080800Z 29010KT 5000 HZ FEW100 32/11 Q1011 NOSIG=
202004080730 METAR VIDP 080730Z 29009KT 5000 HZ FEW100 31/11 Q1011 NOSIG=
202004080700 METAR VIDP 080700Z 30010KT 5000 HZ FEW100 30/11 Q1012 NOSIG=
202004080630 METAR VIDP 080630Z 29005G15KT 4000 HZ FEW100 30/11 Q1012 BECMG 5000 HZ=
202004080600 METAR VIDP 080600Z 30009KT 3000 HZ FEW100 29/10 Q1012 NOSIG=
202004080530 METAR VIDP 080530Z 32009KT 2500 HZ FEW100 28/10 Q1012 BECMG 3000 HZ=
202004080500 METAR VIDP 080500Z 31009KT 2500 HZ FEW100 28/10 Q1013 NOSIG=
202004080430 METAR VIDP 080430Z 29008KT 2000 HZ FEW100 26/10 Q1012 NOSIG=
202004080400 METAR VIDP 080400Z 31009KT 2000 HZ FEW100 25/10 Q1012 NOSIG=
202004080330 METAR VIDP 080330Z 31009KT 2000 HZ FEW100 24/10 Q1012 NOSIG=
202004080300 METAR VIDP 080300Z 27006KT 1500 R28/P2000 R29/P2000 FU FEW100 22/12 Q1012 NOSIG=
202004080230 METAR VIDP 080230Z 27007KT 1500 R28/P2000 R29/P2000 FU FEW100 21/12 Q1011 NOSIG=
202004080200 METAR VIDP 080200Z 27006KT 1600 R28/P2000 R29/P2000 FU FEW100 21/12 Q1011 BECMG 1500 FU=
202004080130 METAR VIDP 080130Z 24003KT 1800 R28/P2000 R29/P2000 HZ FEW030 SCT100 21/11 Q1010 NOSIG=
202004080100 METAR VIDP 080100Z 28006KT 2200 HZ FEW030 SCT100 22/11 Q1010 NOSIG=
202004080030 METAR VIDP 080030Z 28005KT 2200 HZ FEW030 SCT100 22/10 Q1009 NOSIG=
202004080000 METAR VIDP 080000Z 27004KT 2200 HZ FEW030 SCT100 22/10 Q1009 NOSIG=
202004072330 METAR VIDP 072330Z 27005KT 2200 HZ SCT030 SCT100 22/10 Q1009 NOSIG=
202004072300 METAR VIDP 072300Z 29006KT 2500 HZ SCT030 SCT100 22/11 Q1009 NOSIG=
202004072230 METAR VIDP 072230Z 27005KT 3000 HZ SCT030 SCT100 22/11 Q1008 NOSIG=
202004072200 METAR VIDP 072200Z 28005KT 3000 HZ SCT030 SCT100 23/11 Q1008 NOSIG=
202004072130 METAR VIDP 072130Z 30005KT 3000 HZ SCT030 FEW035CB SCT100 23/11 Q1008 NOSIG=
202004072100 METAR VIDP 072100Z 31005KT 3000 HZ SCT030 FEW035CB SCT100 23/11 Q1008 NOSIG=
202004072030 METAR VIDP 072030Z 23004KT 3000 HZ SCT030 FEW035CB SCT100 24/11 Q1008 NOSIG=
202004072000 METAR VIDP 072000Z 00000KT 3000 HZ SCT030 FEW035CB SCT100 24/11 Q1008 NOSIG=
202004071930 METAR VIDP 071930Z 00000KT 3000 HZ SCT030 FEW035CB SCT100 24/11 Q1008 NOSIG=
202004071830 METAR VIDP 071830Z 06004KT 3500 HZ SCT030 FEW035CB SCT100 25/10 Q1009 NOSIG=
202004071800 METAR VIDP 071800Z 00000KT 3500 HZ SCT030 FEW035CB BKN100 25/10 Q1010 NOSIG=
202004071730 METAR VIDP 071730Z 36004KT 3500 HZ SCT030 FEW035CB BKN100 26/10 Q1010 NOSIG=
202004071700 METAR VIDP 071700Z 35008KT 3500 HZ SCT030 FEW035CB BKN100 26/11 Q1010 NOSIG=
202004071630 METAR VIDP 071630Z 30008KT 3500 HZ SCT030 FEW035CB BKN100 26/11 Q1011 NOSIG=
202004071600 METAR VIDP 071600Z 24010G20KT 3500 HZ SCT030 FEW035CB BKN100 26/11 Q1012 NOSIG=
202004071530 METAR VIDP 071530Z 33007KT 4000 HZ FEW030 FEW035CB SCT100 27/10 Q1010 NOSIG=
202004071500 METAR VIDP 071500Z 33008KT 4000 HZ FEW040 SCT100 27/10 Q1009 NOSIG=
202004071430 METAR VIDP 071430Z 33010KT 4000 HZ FEW040 SCT100 27/10 Q1009 NOSIG=
202004071400 METAR VIDP 071400Z 33010KT 4000 HZ SCT100 29/11 Q1008 NOSIG=
202004071330 METAR VIDP 071330Z 33010KT 4000 HZ SCT100 30/10 Q1008 NOSIG=
202004071300 METAR VIDP 071300Z 33008KT 4500 HZ SCT100 30/10 Q1008 NOSIG=
202004071230 METAR VIDP 071230Z 32011KT 5000 HZ SCT100 30/10 Q1008 NOSIG=
202004071200 METAR VIDP 071200Z 32011KT 5000 HZ SCT100 31/10 Q1008 NOSIG=
202004071130 METAR VIDP 071130Z 33009KT 5000 HZ SCT100 32/10 Q1008 NOSIG=
202004071100 METAR VIDP 071100Z 33010KT 5000 HZ SCT100 32/11 Q1008 NOSIG=
202004071030 METAR VIDP 071030Z 33010KT 5000 HZ SCT100 33/11 Q1008 NOSIG=
202004071000 METAR VIDP 071000Z 32011KT 5000 HZ SCT100 33/11 Q1008 NOSIG=
202004070930 METAR VIDP 070930Z 33010KT 5000 HZ FEW100 33/11 Q1009 NOSIG=
202004070900 METAR VIDP 070900Z 33009KT 5000 HZ FEW100 32/12 Q1009 NOSIG=
202004070830 METAR VIDP 070830Z 32010KT 4500 HZ FEW100 31/12 Q1009 BECMG 5000 HZ=
202004070800 METAR VIDP 070800Z 33008KT 4000 HZ FEW100 30/12 Q1010 NOSIG=
202004070730 METAR VIDP 070730Z 33006KT 4000 HZ FEW100 30/13 Q1010 NOSIG=
202004070700 METAR VIDP 070700Z 33006KT 4000 HZ FEW100 29/13 Q1010 NOSIG=
202004070630 METAR VIDP 070630Z 35009KT 3500 HZ FEW100 29/13 Q1011 NOSIG=
202004070600 METAR VIDP 070600Z 34008KT 3000 HZ FEW100 28/13 Q1011 NOSIG=
202004070530 METAR VIDP 070530Z 32008G18KT 2500 HZ FEW100 27/13 Q1012 BECMG 3000 HZ=
202004070500 METAR VIDP 070500Z 31008G18KT 2200 HZ FEW100 26/13 Q1012 NOSIG=
202004070430 METAR VIDP 070430Z 30008G18KT 2200 HZ FEW100 26/13 Q1012 NOSIG=
202004070400 METAR VIDP 070400Z 30008KT 1800 R28/P2000 R29/P2000 HZ FEW100 26/14 Q1011 NOSIG=
202004070330 METAR VIDP 070330Z 29009KT 1400 R28/P2000 R29/P2000 HZ FEW100 25/15 Q1011 BECMG 1500 HZ=
202004070300 METAR VIDP 070300Z 26005KT 1200 R28/P2000 R29/P2000 FU FEW100 23/16 Q1010 NOSIG=
202004070230 METAR VIDP 070230Z 25005KT 1200 R28/2000 R29/2000 FU FEW100 22/16 Q1010 NOSIG=
202004070200 METAR VIDP 070200Z 27005KT 1200 R28/2000 R29/2000 BR FEW100 20/16 Q1010 NOSIG=
202004070130 METAR VIDP 070130Z 28006KT 1200 R28/2000 R29/2000 BR FEW100 20/16 Q1009 NOSIG=
202004070100 METAR VIDP 070100Z 26004KT 1600 R28/2000 R29/1700 BR FEW100 19/15 Q1009 BECMG 1500 BR=
202004070030 METAR VIDP 070030Z 25002KT 2500 HZ FEW100 19/14 Q1008 NOSIG=
202004070000 METAR VIDP 070000Z 26003KT 2500 HZ FEW100 19/14 Q1008 NOSIG=
202004062330 METAR VIDP 062330Z 24003KT 3000 HZ FEW100 21/14 Q1008 NOSIG=
202004062300 METAR VIDP 062300Z 23003KT 3000 HZ FEW100 22/14 Q1009 NOSIG=
202004062230 METAR VIDP 062230Z 25003KT 3000 HZ FEW100 23/14 Q1009 NOSIG=
202004062200 METAR VIDP 062200Z 27004KT 3000 HZ FEW100 24/14 Q1009 NOSIG=
202004062130 METAR VIDP 062130Z 28004KT 3000 HZ FEW100 24/14 Q1009 NOSIG=
202004062100 METAR VIDP 062100Z 29005KT 3000 HZ FEW100 24/14 Q1009 NOSIG=
202004062030 METAR VIDP 062030Z 30005KT 3000 HZ FEW100 25/14 Q1010 NOSIG=
202004062000 METAR VIDP 062000Z 29003KT 3000 HZ FEW100 26/14 Q1010 NOSIG=
202004061930 METAR VIDP 061930Z 34003KT 3000 HZ FEW100 26/14 Q1010 NOSIG=
202004061900 METAR VIDP 061900Z 35003KT 3000 HZ FEW100 26/14 Q1010 NOSIG=
202004061830 METAR VIDP 061830Z 34004KT 3000 HZ NSC 26/14 Q1011 NOSIG=
202004061800 METAR VIDP 061800Z 35004KT 3000 HZ NSC 27/14 Q1011 NOSIG=
202004061730 METAR VIDP 061730Z 35004KT 3000 HZ NSC 28/13 Q1011 NOSIG=
202004061700 METAR VIDP 061700Z 34007KT 3000 HZ NSC 29/12 Q1012 NOSIG=
202004061630 METAR VIDP 061630Z 35007KT 3000 HZ NSC 29/12 Q1012 NOSIG=
202004061600 METAR VIDP 061600Z 34007KT 3000 HZ NSC 29/12 Q1011 NOSIG=
202004061530 METAR VIDP 061530Z 33006KT 3000 HZ NSC 29/11 Q1011 NOSIG=
202004061500 METAR VIDP 061500Z 32007KT 3000 HZ NSC 30/11 Q1010 NOSIG=
202004061430 METAR VIDP 061430Z 33008KT 3000 HZ NSC 31/11 Q1010 NOSIG=
202004061400 METAR VIDP 061400Z 34008KT 3200 HZ NSC 31/11 Q1010 BECMG 3000 HZ=
202004061330 METAR VIDP 061330Z 33010KT 3500 HZ NSC 32/10 Q1009 NOSIG=
202004061300 METAR VIDP 061300Z 33008KT 4000 HZ NSC 33/09 Q1009 NOSIG=
202004061230 METAR VIDP 061230Z 33010KT 4000 HZ FEW040 34/08 Q1009 NOSIG=
202004061200 METAR VIDP 061200Z 29009KT 4500 HZ FEW040 35/08 Q1009 NOSIG=
202004061130 METAR VIDP 061130Z 30008KT 4500 HZ FEW040 35/09 Q1010 NOSIG=
202004061100 METAR VIDP 061100Z 28009KT 4500 HZ FEW040 35/10 Q1010 NOSIG=
202004061030 METAR VIDP 061030Z 30009KT 5000 HZ FEW040 35/11 Q1010 NOSIG=
202004061000 METAR VIDP 061000Z 30010KT 5000 HZ FEW040 35/12 Q1010 NOSIG=
202004060930 METAR VIDP 060930Z 32006KT 5000 HZ FEW040 35/12 Q1011 NOSIG=
202004060900 METAR VIDP 060900Z 29008KT 5000 HZ FEW040 35/12 Q1011 NOSIG=
202004060830 METAR VIDP 060830Z 29005KT 5000 HZ FEW040 34/13 Q1012 NOSIG=
202004060800 METAR VIDP 060800Z 28008KT 5000 HZ NSC 34/13 Q1012 NOSIG=
202004060730 METAR VIDP 060730Z 25005KT 5000 HZ NSC 33/13 Q1012 NOSIG=
202004060700 METAR VIDP 060700Z 29004KT 4000 HZ NSC 33/13 Q1013 BECMG 5000 HZ=
202004060630 METAR VIDP 060630Z 30005KT 3500 HZ NSC 32/12 Q1013 NOSIG=
202004060600 METAR VIDP 060600Z 27006KT 2500 HZ NSC 32/12 Q1013 BECMG 3000 HZ=
202004060530 METAR VIDP 060530Z 29007KT 2300 HZ NSC 31/14 Q1014 NOSIG=
202004060500 METAR VIDP 060500Z 26004KT 2100 HZ NSC 30/15 Q1014 NOSIG=
202004060430 METAR VIDP 060430Z 25003KT 2100 HZ NSC 29/15 Q1014 NOSIG=
202004060400 METAR VIDP 060400Z 00000KT 1700 R28/P2000 R29/P2000 FU NSC 28/16 Q1014 NOSIG=
202004060330 METAR VIDP 060330Z 24004KT 1500 R28/P2000 R29/P2000 FU NSC 28/16 Q1013 NOSIG=
202004060300 METAR VIDP 060300Z 23004KT 1500 R28/P2000 R29/P2000 FU FEW100 26/16 Q1013 NOSIG=
202004060230 METAR VIDP 060230Z 24003KT 1400 R28/P2000 R29/P2000 FU FEW100 25/16 Q1013 BECMG 1500 FU=
202004060200 METAR VIDP 060200Z 00000KT 1200 R28/P2000 R29/P2000 FU FEW100 22/15 Q1012 BECMG 0800 FU=
202004060130 METAR VIDP 060130Z 00000KT 1600 R28/P2000 R29/P2000 FU FEW100 22/15 Q1012 BECMG 1500 FU=
202004060100 METAR VIDP 060100Z 00000KT 2200 HZ FEW100 22/14 Q1012 NOSIG=
202004060030 METAR VIDP 060030Z 00000KT 2200 HZ FEW100 22/14 Q1012 NOSIG=
202004060000 METAR VIDP 060000Z 00000KT 2500 HZ FEW100 22/14 Q1011 NOSIG=
202004052330 METAR VIDP 052330Z 00000KT 3000 HZ FEW100 22/14 Q1011 NOSIG=
202004052300 METAR VIDP 052300Z 00000KT 3000 HZ FEW100 22/14 Q1011 NOSIG=
202004052230 METAR VIDP 052230Z 00000KT 3000 HZ FEW100 22/14 Q1011 NOSIG=
202004052200 METAR VIDP 052200Z 00000KT 3000 HZ FEW100 22/16 Q1011 NOSIG=
202004052130 METAR VIDP 052130Z 00000KT 3000 HZ FEW100 22/16 Q1012 NOSIG=
202004052100 METAR VIDP 052100Z 00000KT 3000 HZ FEW100 22/15 Q1012 NOSIG=
202004052030 METAR VIDP 052030Z 00000KT 3000 HZ FEW100 22/15 Q1012 NOSIG=
202004052000 METAR VIDP 052000Z 00000KT 3000 HZ FEW100 23/15 Q1012 NOSIG=
202004051930 METAR VIDP 051930Z 00000KT 3200 HZ FEW100 23/15 Q1012 BECMG 3000 HZ=
202004051900 METAR VIDP 051900Z 00000KT 3200 HZ FEW100 24/15 Q1012 NOSIG=
202004051830 METAR VIDP 051830Z 00000KT 3200 HZ FEW100 24/15 Q1013 NOSIG=
202004051800 METAR VIDP 051800Z 05003KT 3200 HZ FEW100 24/15 Q1013 NOSIG=
202004051700 METAR VIDP 051700Z 08003KT 3200 HZ FEW100 25/14 Q1013 NOSIG=
202004051630 METAR VIDP 051630Z 07004KT 3200 HZ FEW100 26/14 Q1013 NOSIG=
202004051600 METAR VIDP 051600Z 06005KT 3200 HZ FEW100 27/14 Q1012 NOSIG=
202004051530 METAR VIDP 051530Z 07004KT 3200 HZ FEW100 27/14 Q1012 NOSIG=
202004051500 METAR VIDP 051500Z 07004KT 3200 HZ FEW100 28/14 Q1012 NOSIG=
202004051430 METAR VIDP 051430Z 05004KT 3500 HZ FEW100 29/13 Q1012 NOSIG=
202004051400 METAR VIDP 051400Z 06005KT 3500 HZ FEW100 29/13 Q1012 NOSIG=
202004051330 METAR VIDP 051330Z 05004KT 4000 HZ FEW100 30/12 Q1011 NOSIG=
202004051300 METAR VIDP 051300Z 04006KT 4000 HZ FEW100 31/12 Q1011 NOSIG=
202004051230 METAR VIDP 051230Z 05005KT 4000 HZ FEW100 31/11 Q1011 NOSIG=
202004051200 METAR VIDP 051200Z 05004KT 4000 HZ FEW100 32/11 Q1011 NOSIG=
202004051130 METAR VIDP 051130Z 32003KT 4000 HZ FEW100 32/11 Q1011 NOSIG=
202004051100 METAR VIDP 051100Z 31005KT 4000 HZ FEW100 33/11 Q1011 NOSIG=
202004051030 METAR VIDP 051030Z 01004KT 4000 HZ FEW100 33/11 Q1011 NOSIG=
202004051000 METAR VIDP 051000Z 29005KT 4000 HZ FEW040 SCT100 33/11 Q1012 NOSIG=
202004050930 METAR VIDP 050930Z 28005KT 4000 HZ FEW040 SCT100 33/10 Q1012 NOSIG=
202004050900 METAR VIDP 050900Z 34003KT 4000 HZ FEW040 SCT100 32/11 Q1013 NOSIG=
202004050830 METAR VIDP 050830Z 32006KT 4000 HZ FEW040 SCT100 32/10 Q1013 NOSIG=
202004050800 METAR VIDP 050800Z 30006KT 4000 HZ FEW040 SCT100 31/11 Q1013 NOSIG=
202004050730 METAR VIDP 050730Z 30006KT 4000 HZ FEW040 SCT100 31/11 Q1014 NOSIG=
202004050700 METAR VIDP 050700Z 29005KT 3000 HZ FEW030 SCT100 30/11 Q1014 NOSIG=
202004050630 METAR VIDP 050630Z 28005KT 3000 HZ FEW030 SCT100 29/12 Q1015 NOSIG=
202004050600 METAR COR VIDP 050600Z 31004KT 2500 HZ FEW030 SCT100 28/12 Q1015 BECMG 3000=
202004050530 METAR VIDP 050530Z 32005KT 2500 HZ FEW030 SCT100 27/13 Q1015 NOSIG=
202004050500 METAR VIDP 050500Z 30005KT 2500 HZ FEW030 SCT100 27/13 Q1016 NOSIG=
202004050430 METAR VIDP 050430Z 29006KT 2200 HZ FEW030 SCT100 26/13 Q1016 NOSIG=
202004050400 METAR VIDP 050400Z 28006KT 2000 HZ FEW100 25/14 Q1015 NOSIG=
202004050330 METAR VIDP 050330Z 25007KT 1800 R28/P2000 R29/P2000 HZ FEW100 24/14 Q1015 NOSIG=
202004050300 METAR COR VIDP 050300Z 29005KT 1800 R28/P2000 R29/P2000 HZ FEW100 24/13 Q1015 NOSIG=
202004050230 METAR VIDP 050230Z 27004KT 1800 R28/P2000 R29/P2000 HZ FEW100 22/13 Q1014 NOSIG=
202004050200 METAR VIDP 050200Z 00000KT 1800 R28/P2000 R29/P2000 HZ FEW100 21/13 Q1013 NOSIG=
202004050130 METAR VIDP 050130Z 00000KT 1800 R28/P2000 R29/P2000 HZ FEW100 20/13 Q1013 NOSIG=
202004050100 METAR VIDP 050100Z 00000KT 1800 R28/P2000 R29/P2000 HZ FEW100 20/13 Q1013 NOSIG=
202004050030 METAR VIDP 050030Z 20003KT 2200 HZ FEW100 20/13 Q1012 NOSIG=
202004050000 METAR VIDP 050000Z 23003KT 2200 HZ NSC 20/13 Q1012 NOSIG=
202004042330 METAR VIDP 042330Z 00000KT 2500 HZ NSC 20/13 Q1012 NOSIG=
202004042300 METAR VIDP 042300Z 00000KT 2500 HZ NSC 20/13 Q1012 NOSIG=
202004042230 METAR VIDP 042230Z 00000KT 3000 HZ NSC 20/13 Q1012 NOSIG=
202004042200 METAR VIDP 042200Z 00000KT 3500 HZ NSC 20/12 Q1011 BECMG 3000 HZ=
202004042130 METAR VIDP 042130Z 00000KT 3500 HZ NSC 20/12 Q1011 NOSIG=
202004042100 METAR VIDP 042100Z 00000KT 3500 HZ NSC 20/12 Q1011 NOSIG=
202004042030 METAR VIDP 042030Z 00000KT 3500 HZ NSC 21/12 Q1012 NOSIG=
202004042000 METAR VIDP 042000Z 00000KT 3500 HZ NSC 22/12 Q1012 NOSIG=
202004041930 METAR VIDP 041930Z 00000KT 3500 HZ NSC 22/12 Q1012 NOSIG=
202004041900 METAR VIDP 041900Z 00000KT 3500 HZ NSC 23/12 Q1012 NOSIG=
202004041830 METAR VIDP 041830Z 00000KT 3500 HZ NSC 23/11 Q1012 NOSIG=
202004041800 METAR VIDP 041800Z 00000KT 3500 HZ NSC 23/12 Q1013 NOSIG=
202004041730 METAR VIDP 041730Z 00000KT 4000 HZ NSC 24/11 Q1013 NOSIG=
202004041700 METAR VIDP 041700Z 00000KT 4000 HZ NSC 24/11 Q1013 NOSIG=
202004041630 METAR VIDP 041630Z 00000KT 4000 HZ NSC 24/11 Q1013 NOSIG=
202004041600 METAR VIDP 041600Z 00000KT 4000 HZ NSC 25/11 Q1012 NOSIG=
202004041530 METAR VIDP 041530Z 00000KT 4000 HZ NSC 25/10 Q1012 NOSIG=
202004041500 METAR VIDP 041500Z 00000KT 4000 HZ NSC 26/09 Q1012 NOSIG=
202004041430 METAR VIDP 041430Z 33004KT 4000 HZ NSC 27/09 Q1011 NOSIG=
202004041400 METAR VIDP 041400Z 29005KT 4000 HZ NSC 28/09 Q1011 NOSIG=
202004041330 METAR VIDP 041330Z 29005KT 4000 HZ NSC 28/09 Q1011 NOSIG=
202004041300 METAR VIDP 041300Z 30007KT 4000 HZ NSC 29/08 Q1010 NOSIG=
202004041230 METAR VIDP 041230Z 29008KT 5000 HZ NSC 29/06 Q1010 NOSIG=
202004041200 METAR VIDP 041200Z 29008KT 6000 NSC 30/06 Q1010 BECMG 5000 HZ=
202004041130 METAR VIDP 041130Z 28008G18KT 6000 NSC 32/05 Q1010 NOSIG=
202004041100 METAR VIDP 041100Z 30008G18KT 6000 NSC 32/05 Q1010 NOSIG=
202004041030 METAR VIDP 041030Z 28010G20KT 6000 NSC 32/07 Q1010 NOSIG=
202004041000 METAR VIDP 041000Z 28008G18KT 5000 HZ NSC 31/08 Q1011 NOSIG=
202004040930 METAR VIDP 040930Z 28008G18KT 4500 HZ NSC 31/08 Q1011 BECMG 5000 HZ=
202004040900 METAR VIDP 040900Z 30008KT 4000 HZ NSC 31/09 Q1011 NOSIG=
202004040830 METAR VIDP 040830Z 29009KT 4000 HZ NSC 30/07 Q1012 NOSIG=
202004040800 METAR VIDP 040800Z 30008KT 3500 HZ NSC 30/07 Q1012 NOSIG=
202004040730 METAR VIDP 040730Z 30009KT 3500 HZ NSC 30/07 Q1013 NOSIG=
202004040700 METAR VIDP 040700Z 30009KT 3500 HZ NSC 29/07 Q1013 NOSIG=
202004040630 METAR VIDP 040630Z 28006KT 3000 HZ NSC 29/08 Q1014 NOSIG=
202004040600 METAR VIDP 040600Z 28006KT 2800 HZ NSC 28/09 Q1014 BECMG 3000 HZ=
202004040530 METAR VIDP 040530Z 29006KT 2500 HZ NSC 27/09 Q1014 NOSIG=
202004040500 METAR VIDP 040500Z 30005KT 2500 HZ NSC 25/10 Q1014 NOSIG=
202004040430 METAR VIDP 040430Z 31006KT 2200 HZ NSC 24/10 Q1014 NOSIG=
202004040400 METAR VIDP 040400Z 30006KT 1800 R28/P2000 R29/P2000 FU NSC 24/11 Q1014 NOSIG=
202004040330 METAR VIDP 040330Z 31005KT 1200 R28/P2000 R29/P2000 FU NSC 23/11 Q1014 BECMG 1500 FU=
202004040300 METAR VIDP 040300Z 30005KT 1000 R28/P2000 R29/P2000 FU NSC 21/11 Q1013 NOSIG=
202004040230 METAR VIDP 040230Z 28004KT 1000 R28/P2000 R29/P2000 FU SCT100 19/12 Q1013 NOSIG=
202004040200 METAR VIDP 040200Z 27003KT 1000 R28/P2000 R29/P2000 BR SCT100 17/13 Q1013 BECMG 0800 MIFG=
202004040130 METAR VIDP 040130Z 25004KT 1000 R28/P2000 R29/P2000 BR SCT100 16/13 Q1012 NOSIG=
202004040100 METAR VIDP 040100Z 26003KT 1200 R28/P2000 R29/P2000 BR SCT100 16/12 Q1012 NOSIG=
202004040030 METAR VIDP 040030Z 26004KT 1800 R28/P2000 R29/P2000 BR SCT100 17/13 Q1012 BECMG 1500 BR=
202004040000 METAR VIDP 040000Z 00000KT 2500 HZ SCT100 18/12 Q1011 NOSIG=
202004032330 METAR VIDP 032330Z 00000KT 3000 HZ SCT100 18/12 Q1011 NOSIG=
202004032300 METAR VIDP 032300Z 00000KT 3000 HZ SCT100 19/11 Q1011 NOSIG=
202004032230 METAR VIDP 032230Z 00000KT 3000 HZ SCT100 20/11 Q1011 NOSIG=
202004032200 METAR VIDP 032200Z 00000KT 3000 HZ SCT100 20/11 Q1011 NOSIG=
202004032130 METAR VIDP 032130Z 00000KT 3000 HZ SCT100 20/11 Q1011 NOSIG=
202004032100 METAR VIDP 032100Z 00000KT 3000 HZ SCT100 21/11 Q1012 NOSIG=
202004032030 METAR VIDP 032030Z 00000KT 3000 HZ SCT100 21/11 Q1012 NOSIG=
202004032000 METAR VIDP 032000Z 00000KT 3000 HZ SCT100 22/11 Q1012 NOSIG=
202004031930 METAR VIDP 031930Z 00000KT 3000 HZ SCT100 22/11 Q1012 NOSIG=
202004031900 METAR VIDP 031900Z 00000KT 3000 HZ SCT100 23/11 Q1012 NOSIG=
202004031830 METAR VIDP 031830Z 00000KT 3000 HZ SCT100 23/11 Q1012 NOSIG=
202004031800 METAR VIDP 031800Z 32004KT 3000 HZ SCT100 24/11 Q1013 NOSIG=
202004031730 METAR VIDP 031730Z 33005KT 3500 HZ SCT100 24/11 Q1013 BECMG 3000 HZ=
202004031700 METAR VIDP 031700Z 00000KT 3500 HZ SCT100 24/10 Q1013 NOSIG=
202004031630 METAR VIDP 031630Z 00000KT 4000 HZ SCT100 24/10 Q1013 NOSIG=
202004031600 METAR VIDP 031600Z 00000KT 4000 HZ SCT100 24/10 Q1013 NOSIG=
202004031530 METAR VIDP 031530Z 00000KT 4000 HZ SCT100 25/10 Q1012 NOSIG=
202004031500 METAR VIDP 031500Z 30004KT 4000 HZ SCT100 26/10 Q1012 NOSIG=
202004031430 METAR VIDP 031430Z 27004KT 4000 HZ SCT100 26/09 Q1012 NOSIG=
202004031400 METAR VIDP 031400Z 28004KT 4000 HZ SCT100 27/09 Q1011 NOSIG=
202004031330 METAR VIDP 031330Z 30005KT 4000 HZ SCT100 27/08 Q1011 NOSIG=
202004031300 METAR VIDP 031300Z 30006KT 5000 HZ SCT100 28/08 Q1011 NOSIG=
202004031230 METAR VIDP 031230Z 29008KT 5000 HZ SCT100 29/08 Q1011 NOSIG=
202004031200 METAR VIDP 031200Z 30008KT 5000 HZ SCT100 30/07 Q1010 NOSIG=
202004031130 METAR VIDP 031130Z 30009KT 5000 HZ SCT100 30/08 Q1010 NOSIG=
202004031100 METAR VIDP 031100Z 29008KT 5000 HZ SCT100 30/08 Q1010 NOSIG=
202004031030 METAR VIDP 031030Z 30010KT 5000 HZ SCT100 30/08 Q1011 NOSIG=
202004031000 METAR VIDP 031000Z 29009KT 5000 HZ SCT100 30/08 Q1011 NOSIG=
202004030930 METAR VIDP 030930Z 28007KT 5000 HZ SCT100 30/07 Q1011 NOSIG=
202004030900 METAR VIDP 030900Z 28008KT 5000 HZ SCT100 29/07 Q1012 NOSIG=
202004030830 METAR VIDP 030830Z 29008KT 5000 HZ SCT100 28/06 Q1012 NOSIG=
202004030800 METAR VIDP 030800Z 28008KT 5000 HZ SCT100 27/05 Q1012 NOSIG=
202004030730 METAR VIDP 030730Z 30008KT 5000 HZ SCT100 27/05 Q1013 NOSIG=
202004030700 METAR VIDP 030700Z 30008KT 4000 HZ SCT100 27/05 Q1013 BECMG 5000 HZ=
202004030630 METAR VIDP 030630Z 30009KT 3500 HZ SCT100 26/06 Q1013 NOSIG=
202004030600 METAR VIDP 030600Z 30008KT 3000 HZ SCT100 26/06 Q1013 NOSIG=
202004030530 METAR VIDP 030530Z 30009KT 2800 HZ SCT100 25/06 Q1014 BECMG 3000 HZ=
202004030500 METAR VIDP 030500Z 32009KT 2100 HZ SCT100 24/05 Q1014 NOSIG=
202004030430 METAR VIDP 030430Z 30008KT 2100 HZ FEW100 23/06 Q1014 NOSIG=
202004030400 METAR VIDP 030400Z 32006KT 1400 R28/P2000 R29/P2000 HZ NSC 22/09 Q1014 BECMG 1500 HZ=
202004030330 METAR VIDP 030330Z 32006KT 1200 R28/P2000 R29/P2000 HZ NSC 21/11 Q1013 NOSIG=
202004030300 METAR VIDP 030300Z 27004KT 1200 R28/P2000 R29/P2000 HZ NSC 20/12 Q1013 NOSIG=
202004030230 METAR VIDP 030230Z 25005KT 1600 R28/P2000 R29/P2000 HZ NSC 18/12 Q1013 BECMG 1500 HZ=
202004030200 METAR VIDP 030200Z 25003KT 1800 R28/P2000 R29/P2000 BR FEW100 16/13 Q1012 NOSIG=
202004030130 METAR VIDP 030130Z 26003KT 1800 R28/2000 R29/2000 BR FEW100 16/13 Q1012 NOSIG=
202004030100 METAR VIDP 030100Z 26004KT 2500 BR FEW100 16/13 Q1012 NOSIG=
202004030030 METAR VIDP 030030Z 25003KT 2500 BR FEW100 16/13 Q1012 NOSIG=
202004030000 METAR VIDP 030000Z 25004KT 2500 HZ FEW100 17/11 Q1012 NOSIG=
202004022330 METAR COR VIDP 022330Z 25004KT 3000 HZ FEW100 17/11 Q1012 NOSIG=
202004022300 METAR VIDP 022300Z 22005KT 3000 HZ FEW100 19/10 Q1012 NOSIG=
202004022230 METAR VIDP 022230Z 27004KT 3000 HZ FEW100 20/07 Q1011 NOSIG=
202004022200 METAR VIDP 022200Z 26004KT 3000 HZ FEW100 20/07 Q1011 NOSIG=
202004022130 METAR VIDP 022130Z 28004KT 3000 HZ FEW100 20/07 Q1011 NOSIG=
202004022100 METAR VIDP 022100Z 28004KT 3000 HZ FEW100 20/07 Q1011 NOSIG=
202004022030 METAR VIDP 022030Z 30004KT 3000 HZ FEW100 20/07 Q1012 NOSIG=
202004022000 METAR VIDP 022000Z 31005KT 3000 HZ FEW100 21/08 Q1012 NOSIG=
202004021930 METAR VIDP 021930Z 31004KT 3000 HZ FEW100 21/08 Q1012 NOSIG=
202004021900 METAR VIDP 021900Z 32004KT 3000 HZ FEW100 22/08 Q1012 NOSIG=
202004021830 METAR VIDP 021830Z 31004KT 3000 HZ FEW100 22/08 Q1012 NOSIG=
202004021800 METAR VIDP 021800Z 32004KT 3000 HZ FEW100 23/08 Q1012 NOSIG=
202004021730 METAR VIDP 021730Z 35004KT 3000 HZ FEW100 24/10 Q1013 NOSIG=
202004021700 METAR VIDP 021700Z 34005KT 3000 HZ FEW100 24/10 Q1013 NOSIG=
202004021630 METAR VIDP 021630Z 36004KT 3000 HZ FEW100 25/10 Q1013 NOSIG=
202004021600 METAR VIDP 021600Z 35004KT 3000 HZ FEW100 25/10 Q1012 NOSIG=
202004021530 METAR VIDP 021530Z 31005KT 3000 HZ FEW100 24/09 Q1012 NOSIG=
202004021500 METAR VIDP 021500Z 34006KT 3500 HZ FEW100 24/09 Q1012 BECMG 3000 HZ=
202004021430 METAR VIDP 021430Z 34007KT 4000 HZ FEW100 25/09 Q1011 NOSIG=
202004021400 METAR VIDP 021400Z 29008KT 4000 HZ FEW100 26/09 Q1011 NOSIG=
202004021330 METAR VIDP 021330Z 32008KT 4000 HZ FEW100 27/09 Q1011 NOSIG=
202004021300 METAR VIDP 021300Z 32008KT 4000 HZ FEW100 27/09 Q1011 NOSIG=
202004021230 METAR VIDP 021230Z 32009KT 4000 HZ FEW100 28/09 Q1010 NOSIG=
202004021200 METAR VIDP 021200Z 30010KT 5000 HZ FEW100 29/09 Q1010 NOSIG=
202004021130 METAR VIDP 021130Z 30010KT 5000 HZ FEW100 30/10 Q1010 NOSIG=
202004021100 METAR VIDP 021100Z 30011KT 5000 HZ FEW100 30/10 Q1010 NOSIG=
202004021030 METAR VIDP 021030Z 30012KT 5000 HZ FEW100 30/11 Q1010 NOSIG=
202004021000 METAR VIDP 021000Z 31012KT 5000 HZ FEW100 30/11 Q1010 NOSIG=
202004020930 METAR VIDP 020930Z 31011KT 5000 HZ FEW100 31/11 Q1010 NOSIG=
202004020900 METAR VIDP 020900Z 29011KT 5000 HZ FEW100 31/11 Q1010 NOSIG=
202004020830 METAR VIDP 020830Z 30012KT 5000 HZ NSC 30/12 Q1011 NOSIG=
202004020800 METAR VIDP 020800Z 30012KT 5000 HZ NSC 30/13 Q1011 NOSIG=
202004020730 METAR VIDP 020730Z 29012KT 5000 HZ NSC 30/14 Q1011 NOSIG=
202004020700 METAR VIDP 020700Z 30011KT 4500 HZ NSC 29/14 Q1012 BECMG 5000 HZ=
202004020630 METAR VIDP 020630Z 29010KT 4000 HZ NSC 29/14 Q1012 NOSIG=
202004020600 METAR VIDP 020600Z 29010KT 4000 HZ NSC 29/15 Q1012 NOSIG=
202004020530 METAR VIDP 020530Z 30009KT 3500 HZ NSC 28/15 Q1012 NOSIG=
202004020500 METAR VIDP 020500Z 30010KT 2500 HZ NSC 27/14 Q1012 BECMG 3000 HZ=
202004020430 METAR VIDP 020430Z 29008KT 2200 FU NSC 25/16 Q1012 NOSIG=
202004020400 METAR VIDP 020400Z 29006KT 2100 FU NSC 24/16 Q1012 NOSIG=
202004020330 METAR VIDP 020330Z 30006KT 1300 R28/P2000 R29/P2000 FU NSC 22/16 Q1012 BECMG 1500 FU=
202004020300 METAR VIDP 020300Z 29006KT 1000 R28/P2000 R29/P2000 FU NSC 21/16 Q1011 NOSIG=
202004020230 METAR VIDP 020230Z 26005KT 0900 R28/2000 R29/2000 MIFG NSC 19/16 Q1011 NOSIG=
202004020200 METAR VIDP 020200Z 25004KT 0800 R28/2000 R29/2000 MIFG NSC 18/15 Q1010 NOSIG=
202004020130 METAR VIDP 020130Z 25004KT 0800 R28/2000 R29/1900 MIFG NSC 18/15 Q1010 NOSIG=
202004020100 METAR VIDP 020100Z 25004KT 1200 R28/P2000 R29/P2000 BR FEW100 18/15 Q1010 BECMG 0800 MIFG=
202004020030 METAR VIDP 020030Z 26004KT 2200 BR FEW100 18/15 Q1009 BECMG 1500 BR=
202004020000 METAR VIDP 020000Z 25004KT 2500 BR FEW100 19/15 Q1009 NOSIG=
202004012330 METAR VIDP 012330Z 29005KT 2500 BR FEW100 19/15 Q1009 NOSIG=
202004012300 METAR VIDP 012300Z 30005KT 2800 BR FEW100 19/15 Q1009 NOSIG=
202004012230 METAR VIDP 012230Z 28005KT 2800 BR FEW100 19/15 Q1009 NOSIG=
202004012200 METAR VIDP 012200Z 29005KT 2800 BR FEW100 19/15 Q1009 NOSIG=
202004012130 METAR VIDP 012130Z 29005KT 3000 HZ FEW100 20/14 Q1010 NOSIG=
202004012100 METAR VIDP 012100Z 28005KT 3000 HZ FEW100 21/14 Q1010 NOSIG=
202004012030 METAR VIDP 012030Z 28005KT 3000 HZ FEW100 21/14 Q1010 NOSIG=
202004012000 METAR VIDP 012000Z 27005KT 3000 HZ FEW100 21/14 Q1011 NOSIG=
202004011930 METAR VIDP 011930Z 29005KT 3000 HZ FEW100 22/14 Q1011 NOSIG=
202004011900 METAR VIDP 011900Z 29005KT 3200 HZ FEW100 22/14 Q1011 BECMG VIS 3000 HZ=
202004011830 METAR VIDP 011830Z 29006KT 3500 HZ FEW100 22/14 Q1011 NOSIG=
202004011800 METAR VIDP 011800Z 30007KT 3500 HZ FEW100 23/14 Q1011 NOSIG=
202004011730 METAR VIDP 011730Z 29007KT 3500 HZ FEW100 23/14 Q1011 NOSIG=
202004011700 METAR VIDP 011700Z 29007KT 3500 HZ FEW100 23/14 Q1011 NOSIG=
202004011630 METAR VIDP 011630Z 30006KT 3500 HZ FEW100 24/14 Q1011 NOSIG=
202004011600 METAR VIDP 011600Z 30005KT 3500 HZ FEW100 24/14 Q1011 NOSIG=
202004011530 METAR VIDP 011530Z 30005KT 3500 HZ FEW100 26/14 Q1011 NOSIG=
202004011500 METAR VIDP 011500Z 30005KT 4000 HZ FEW100 26/14 Q1011 NOSIG=
202004011430 METAR VIDP 011430Z 32007KT 4000 HZ FEW100 27/13 Q1010 NOSIG=
202004011400 METAR VIDP 011400Z 31008KT 4000 HZ FEW100 27/13 Q1010 NOSIG=
202004011330 METAR VIDP 011330Z 31010KT 4500 HZ FEW100 28/12 Q1009 NOSIG=
202004011300 METAR VIDP 011300Z 31009KT 4500 HZ FEW100 29/12 Q1009 NOSIG=
202004011230 METAR VIDP 011230Z 31010KT 4500 HZ FEW100 29/12 Q1009 NOSIG=
202004011200 METAR VIDP 011200Z 32009KT 4500 HZ FEW100 30/12 Q1009 NOSIG=
202004011130 METAR VIDP 011130Z 31008KT 5000 HZ FEW100 30/11 Q1009 NOSIG=
202004011100 METAR VIDP 011100Z 30006KT 5000 HZ FEW100 31/12 Q1009 NOSIG=
202004011030 METAR VIDP 011030Z 30006KT 5000 HZ FEW100 31/11 Q1009 NOSIG=
202004011000 METAR VIDP 011000Z 30007KT 5000 HZ FEW100 31/11 Q1009 NOSIG=
202004010930 METAR VIDP 010930Z 32005KT 5000 HZ FEW100 31/11 Q1010 NOSIG=
202004010900 METAR VIDP 010900Z 30005KT 5000 HZ FEW100 31/11 Q1010 NOSIG=
202004010830 METAR VIDP 010830Z 28006KT 5000 HZ FEW100 31/11 Q1010 NOSIG=
202004010800 METAR VIDP 010800Z 28006KT 5000 HZ NSC 30/11 Q1011 NOSIG=
202004010730 METAR VIDP 010730Z 28005KT 4500 HZ NSC 29/12 Q1011 BECMG 5000 HZ=
202004010700 METAR VIDP 010700Z 31003KT 4000 HZ NSC 28/13 Q1012 NOSIG=
202004010630 METAR VIDP 010630Z 31003KT 3500 HZ NSC 27/13 Q1012 NOSIG=
202004010600 METAR VIDP 010600Z 23003KT 2800 HZ NSC 26/13 Q1012 BECMG 3000 HZ=
202004010530 METAR VIDP 010530Z 26003KT 2500 HZ NSC 25/14 Q1012 NOSIG=
202004010500 METAR VIDP 010500Z 27003KT 2000 HZ NSC 24/14 Q1012 NOSIG=
202004010430 METAR VIDP 010430Z 25005KT 1200 R28/P2000 R29/P2000 HZ NSC 22/14 Q1012 BECMG 1500 HZ=
202004010400 METAR VIDP 010400Z 25004KT 1200 R28/P2000 R29/P2000 HZ NSC 22/15 Q1012 NOSIG=
202004010330 METAR VIDP 010330Z 26005KT 1800 R28/P2000 R29/P2000 HZ NSC 21/16 Q1012 BECMG 1500 HZ=
202004010300 METAR VIDP 010300Z 25005KT 2200 BR FEW100 21/17 Q1012 NOSIG=
202004010230 METAR VIDP 010230Z 27004KT 2200 BR FEW100 20/18 Q1012 NOSIG=
202004010200 METAR VIDP 010200Z 26004KT 2200 BR FEW100 19/18 Q1011 NOSIG=
202004010130 METAR VIDP 010130Z 27004KT 2500 BR FEW100 19/18 Q1011 NOSIG=
202004010100 METAR VIDP 010100Z 23004KT 2500 BR SCT100 19/17 Q1010 NOSIG=
202004010030 METAR VIDP 010030Z 23002KT 3000 BR SCT100 19/17 Q1010 NOSIG=
202004010000 METAR VIDP 010000Z VRB02KT 3000 BR SCT100 19/17 Q1010 NOSIG=

###################################
#  short TAF from VIDP
###################################
202004302300 TAF VIDP 302300Z 0100/0109 VRB02KT 2000 BR FEW040 SCT100
                      BECMG 0104/0106 32008KT 3500 HZ SCT100
                      BECMG 0107/0108 5000 HZ=
202004302000 TAF VIDP 302000Z 3021/0106 VRB02KT 2500 HZ BR FEW040 SCT100
                      BECMG 0104/0105 32006KT 3500 HZ SCT100=
202004301700 TAF VIDP 301700Z 3018/0103 VRB02KT 2500 HZ BR FEW040 SCT100=
202004301400 TAF VIDP 301400Z 3015/3024 29008G18KT 3000 HZ -TSRA SCT035 FEW40CB
                       BKN090
                      BECMG 3018/3023 28008KT 2500 HZ SCT035 BKN090=
202004300500 TAF VIDP 300500Z 3006/3015 13006KT 4000 HZ FEW100
                      BECMG 3009/3012 14008G18KT 2500 TSRA FEW040CB
                       BKN090=
202004300200 TAF VIDP 300200Z 3003/3012 12006KT 2500 HZ FEW040 SCT100
                      BECMG 3005/3007 14006KT 4000 HZ SCT100
                      TEMPO 3009/3012 FEW040CB=
202004292300 TAF VIDP 292300Z 3000/3009 12008KT 3000 HZ FEW035 SCT100
                      BECMG 3003/3008 14008G18KT 2500 TSRA FEW040CB
                       BKN090=
202004292000 TAF VIDP 292000Z 2921/3006 12006KT 3000 HZ BR SCT100
                      BECMG 3000/3004 2500 -TSRA SCT030 FEW035CB
                       BKN090
                      BECMG 3004/3006 32008KT 3500 HZ SCT035 SCT100=
202004291400 TAF VIDP 291400Z 2915/2924 14004KT 4000 HZ FEW040 SCT100
                      BECMG 2916/2920 -TSRA SCT030 FEW035CB BKN080=
202004291100 TAF VIDP 291100Z 2912/2921 26006KT 5000 HZ FEW035 SCT100
                      BECMG 2912/2916 -TSRA SCT030 FEW035CB BKN090
                       BECMG 2918/2920 29005KT 3000 HZ BR=
202004290800 TAF VIDP 290800Z 2909/2918 17008KT 6000 FEW100
                      BECMG 2910/2912 16008G18KT 4000 HZ SCT035
                       FEW040CB SCT100
                      BECMG 2914/2916 15006KT 3000 HZ SCT100=
202004290500 TAF VIDP 290500Z 2906/2915 17010KT 5000 HZ FEW100=
202004290200 TAF VIDP 290200Z 2903/2912 15006KT 2500 HZ NSC
                      BECMG 2905/2907 33008KT 5000 HZ SCT00=
202004282300 TAF VIDP 282300Z 2900/2909 VRB02KT 2200 BR FEW100
                      BECMG 2905/2907 33008KT 5000 HZ FEW040 SCT100=
202004282000 TAF VIDP 282000Z 2821/2906 VRB02KT 3500 HZ FEW100
                      BECMG 2900/2902 2200 BR
                      BECMG 2904/2906 4500 HZ=
202004281700 TAF VIDP 281700Z 2818/2903 VRB02KT 3500 HZ SCT100
                      BECMG 2900/2902 2200 BR FEW100=
202004281400 TAF VIDP 281400Z 2815/2824 05004KT 4000 HZ FEW100
                      BECMG 2821/2823 09005KT 2500 HZ -RA FEW040
                       SCT100=
202004281100 TAF VIDP 281100Z 2812/2821 34008KT 4000 HZ SCT040=
202004280800 TAF VIDP 280800Z 2809/2818 11010KT 5000 HZ FEW040
                      BECMG 2812/2815 FEW040CB SCT100
                      BECMG 2815/2817 3500 HZ=
202004280500 TAF VIDP 280500Z 2806/2815 13010KT 5000 HZ FEW040
                      BECMG 2809/2814 FEW040CB SCT100=
202004280200 TAF VIDP 280200Z 2803/2812 09008KT 2500 HZ FEW035 SCT100
                      BECMG 2804/2806 14010G20KT 3500 HZ
                      BECMG 2806/2808 11010KT 5000 HZ SCT035 BKN100
                       BECMG 2809/2812 FEW035CB=
202004272300 TAF VIDP 272300Z 2800/2809 11005KT2200 BR -RA SCT030 BKN090
                      BECMG 2804/2806 14008G18KT 3500 HZ
                      BECMG 2806/2808 11010KT 5000 HZ SCT035 BKN100=
202004272000 TAF VIDP 272000Z 2721/2806 11006KT 3000 HZ FEW035 SCT100
                      BECMG 2800/2802 14005KT 200O BR -RA
                      BECMG 2804/2806 11008G18KT 3500 HZ=
202004271700 TAF VIDP 271700Z 2718/2803 09010KT 3500 HZ FEW035 SCT100
                      BECMG 2721/2723 12006KT 220O BR -RA=
202004271400 TAF VIDP 271400Z 2715/2724 09010KT 4000 HZ FEW100
                      TEMPO 2715/2718 FEW040CB SCT100
                      BECMG 2718/2720 3000 HZ BR SCT100=
202004271100 TAF VIDP 271100Z 2712/2721 09010KT 5000 HZ FEW100
                      BECMG 2715/2718 FEW040CB SCT100
                      BECMG 2718/2720 3000 HZ BR FEW040 SCT100=
202004270800 TAF VIDP 270800Z 2709/2718 23008G18KT 5000 HZ FEW040 SCT100
                      BECMG 2710/2712 26008G18KT 2000 -TSRA FEW035CB
                       BKN080
                      BECMG 2714/2716 28005KT 2500 HZ BR FEW040
                       SCT100=
202004270500 TAF VIDP 270500Z 2706/2715 11008G18KT 4000 HZ -RA SCT035 SCT100
                       BECMG 2709/2715 13010G25KT 1500 -TSRA SQ
                       FEW040CB BKN090=
202004270200 TAF VIDP 270200Z 2703/2712 11010KT 2500 BR FEW100
                      BECMG 2705/2707 4000 HZ FEW035 SCT100
                      TEMPO 2710/2712 FEW040CB=
202004261700 TAF VIDP 261700Z 2618/2703 11006KT 2800 HZ BR FEW035 SCT100=
202004261400 TAF VIDP 261400Z 2615/2624 13008KT 2500 HZ FEW035 SCT100
                      BECMG 2620/2621 09010G25KT 1500 TSRA SCT035
                       FEW035CB OVC090=
202004261100 TAF VIDP 261100Z 2612/2621 02008G18KT 2500 HZ RA SCT030 BKN100
                       BECMG 2620/2621 09010G25KT 1500 TSRA FEW035CB
                       OVC080=
202004250800 TAF VIDP 250800Z 2509/2518 24004KT 5000 HZ SCT035 BKN100
                      BECMG 2515/2517 25015G25KT 2000 -TSRA SCT030
                       FEW035CB OVC090=
202004250500 TAF VIDP 250500Z 2506/2515 18008KT 5000 HZ -RA SCT035 BKN100
                      BECMG 2508/2512 FEW040CB
                      BECMG 2513/2515 25010G25KT 2000 -TSRA SCT030
                       FEW035CB OVC090=
202004250200 TAF VIDP 250200Z 2503/2512 24006KT 3000 HZ SCT035 BKN090
                      BECMG 2505/2507 30008KT 4500 HZ
                      BECMG 2508/2512 24015G25KT 1500 TSRA FEW040CB
                       OVC080=
202004242300 TAF VIDP 242300Z 2500/2509 24006KT 2500 HZ BR FEW040 SCT100
                      TEMPO 2500/2503 FEW040CB
                      BECMG 2503/2505 30008KT 4500 HZ FEW035 SCT090=
202004242000 TAF VIDP 242000Z 2421/2506 24005KT 2500 HZ BR FEW035 SCT100
                      TEMPO 2421/2503 FEW040CB
                      BECMG 2503/2505 30008KT 3500 HZ FEW035 SCT090=
202004241700 TAF VIDP 241700Z 2418/2503 12003KT 3000 HZ BR SCT100=
202004241400 TAF VIDP 241400Z 2415/2424 32005KT 3000 HZ TSRA SCT035 FEW040CB
                       BKN090
                      BECMG 2420/2422 00000KT 2500 -RA BR=
202004241100 TAF VIDP 241100Z 2412/2421 29003KT 4000 HZ FEW040 SCT100
                      BECMG 2416/2418 00000KT 2500 HZ -RA SCT030
                       BKN090
                      BECMG 2416/2418 00000KT 2500 HZ -RA SCT030
                       BKN090=
202004240800 TAF VIDP 240800Z 2409/2418 23008KT 6000 FEW100
                      BECMG 2415/2417 3500 HZ=
202004240500 TAF VIDP 240500Z 2406/2415 20008KT 5000 HZ FEW100=
202004240200 TAF VIDP 240200Z 2403/2412 VRB02KT 2500 HZ FEW100
                      BECMG 2404/2406 23006KT 3500 HZ FEW035 SCT100
                       BECMG 2407/2409 32008KT 5000 HZ -RA SCT035
                       BKN100
                      BECMG 2409/2412 FEW035CB=
202004232300 TAF VIDP 232300Z 2400/2409 VRB02KT 2000 HZ BR FEW035 SCT100
                      BECMG 2404/2406 07006KT 3500 HZ -RA SCT030
                       BKN090
                      BECMG 2407/2409 32008KT 5000 HZ=
202004232000 TAF VIDP 232000Z 2321/2406 12003KT 3000 HZ FEW035 SCT100
                      BECMG 2400/2402 VRB02KT 2000 HZ BR
                      BECMG 2404/2406 07006KT 3500 HZ -RA SCT035
                       BKN100=
202004231700 TAF VIDP 231700Z 2318/2403 11003KT 3500 HZ FEW035 SCT100
                      BECMG 2320/2322 VRB02KT 2500 HZ
                      BECMG 2400/2402 00000KT 2000 HZ BR=
202004231400 TAF VIDP 231400Z 2315/2324 25005KT 3500 HZ SCT035 BKN090
                      BECMG 2320/2322 2500 -RA HZ=
202004231100 TAF VIDP 231100Z 2312/2321 29010G20KT 3500 HZ -TSRA SCT030 FEW035CB
                       OVC090
                      BECMG 2318/2320 18004KT 2500 -RA BR SCT030
                       BKN090=
202004230800 TAF VIDP 230800Z 2309/2318 28015G25KT 4000 TSRA SCT030 FEW035CB
                       BKN090
                      BECMG 2315/2317 18004KT 2500 -RA BR SCT025
                       OVC090=
202004230500 TAF VIDP 230500Z 2306/2315 23008KT 3500 HZ SCT035 BKN100
                      BECMG 2309/2315 23010G25KT 1500 TSRA SCT030
                       FEW035CB OVC090=
202004230200 TAF VIDP 230200Z 2303/2312 09005KT 2500 HZ -RA SCT030 BKN080
                      BECMG 2304/2306 27005KT 4000 HZ -RA
                      BECMG 2309/2312 23010G25KT 1500 TSRA FEW035CB
                       OVC080=
202004222300 TAF VIDP 222300Z 2300/2309 11005KT 2500 HZ -RA SCT035 SCT100
                      BECMG 2304/2306 27005KT 3500 HZ=
202004222000 TAF VIDP 222000Z 2221/2306 00000KT 3000 HZ FEW040 SCT100
                      BECMG 2300/2302 11005KT 2000 HZ -RA SCT035
                       BKN090
                      BECMG 2304/2306 27005KT 3500 HZ -RA=
202004221700 TAF VIDP 221700Z 2218/2303 34005KT 3500 HZ SCT035 BKN100
                      BECMG 2300/2302 11005KT 2000 HZ -RA BKN090=
202004221400 TAF VIDP 221400Z 2215/2224 30008KT 4000 HZ FEW035 SCT100
                      BECMG 2221/2223 09005KT 2500 HZ -RA SCT035
                       BKN090=
202004221100 TAF VIDP 221100Z 2212/2221 32008KT 5000 HZ FEW035 SCT100
                      BECMG 2215/2217 29005KT 3000 HZ
                      BECMG 2215/2221 FEW035CB=
202004220800 TAF VIDP 220800Z 2209/2218 24006KT 5000 HZ FEW035 SCT100
                      BECMG 2212/2215 FEW035CB
                      BECMG 2215/2217 32005KT 3000 HZ=
202004220500 TAF VIDP 220500Z 2206/2215 26005KT 3000 HZ FEW100
                      BECMG 2208/2210 29008G18KT 5000 HZ FEW035
                       SCT100
                      BECMG 2212/2215 FEW035CB=
202004220200 TAF VIDP 220200Z 2203/2212 26004KT 2500 HZ FEW100
                      BECMG 2206/2208 32008KT 4500 HZ FEW035 SCT100
                       TEMPO 2209/2212 FEW040CB=
202004212300 TAF VIDP 212300Z 2200/2209 24005KT 2500 HZ FEW100
                      BECMG 2204/2206 26005KT 3000 HZ FEW035 SCT100
                       BECMG 2208/2209 29008G18KT 5000 HZ SCT035
                       BKN100=
202004212000 TAF VIDP 212000Z 2121/2206 VRB02KT 3000 HZ FEW100
                      BECMG 2200/2202 00000KT 2000 BR HZ
                      BECMG 2204/2206 29008KT 3500 HZ FEW035 SCT100=
202004211700 TAF VIDP 211700Z 2118/2203 00000KT 3000 SCT100
                      BECMG 2120/2122 32005KT 2500 HZ BR FEW035
                       SCT100
                      BECMG 2202/2203 26005KT 3000 HZ BR=
202004211400 TAF VIDP 211400Z 2115/2124 32008KT 3500 HZ FEW035 SCT100
                      BECMG 2121/2123 29005KT 2000 HZ BR=
202004211100 TAF VIDP 211100Z 2112/2121 29010KT 4000 HZ SCT035 BKN100
                      BECMG 2112/2118 34015G25KT 2500 -TSRA SCT030
                       FEW035CB BKN090
                      BECMG 2120/2121 32006KT 2000 HZ BR FEW035
                       SCT100=
202004210800 TAF VIDP 210800Z 2109/2118 28008KT 4000 HZ FEW040 BKN100
                      BECMG 2112/2118 34008G18KT 3500 HZ SCT035
                       FEW040CB BKN100=
202004210500 TAF VIDP 210500Z 2106/2115 24005KT 3000 HZ FEW100
                      BECMG 2108/2110 32008KT 4500 HZ FEW040 SCT100
                       TEMPO 2110/2112 FEW040CB
                      BECMG 2114/2115 34010G20KT 2500 -TSRA SCT035
                       FEW040CB SCT100=
202004210200 TAF VIDP 210200Z 2103/2112 26003KT 2500 HZ FEW100
                      BECMG 2106/2108 32008KT 4500 HZ FEW035 SCT100
                       TEMPO 2109/2112 FEW040CB=
202004202300 TAF VIDP 202300Z 2100/2109 24005KT 2000 BR FEW035 SCT100
                      TEMPO 2100/2103 FEW040CB
                      BECMG 2106/2108 30008KT 4500 HZ FEW100=
202004202000 TAF VIDP 202000Z 2021/2106 24005KT 3000 HZ FEW035 SCT100
                      TEMPO 2023/2102 FEW040CB
                      BECMG 2104/2105 31008KT 3500 HZ SCT100=
202004201700 TAF VIDP 201700Z 2018/2103 05008KT 3000 HZ FEW035 SCT100
                      BECMG 2100/2102 24005KT 1800 BR SCT100=
202004201400 TAF VIDP 201400Z 2015/2024 00000KT 3500 SCT040 BKN100
                      BECMG 2021/2023 24010G20KT 2000 -TSRA FEW040CB=
202004201100 TAF VIDP 201100Z 2012/2021 20006KT 5000 HZ SCT035 BKN100
                      BECMG 2014/2018 24010KT 4000 HZ -RA FEW040CB
                       OVC090
                      BECMG 2020/2021 24010G20KT 2000 -TSRA=
202004200800 TAF VIDP 200800Z 2009/2018 20005KT 5000 HZ -RA SCT035 BKN100
                      BECMG 2012/2018 FEW040CB=
202004200500 TAF VIDP 200500Z 2006/2015 25010KT 2500 HZ SCT035 BKN100
                      BECMG 2008/2010 23005KT 3500 HZ -RA
                      BECMG 2008/2012 FEW040CB=
202004200200 TAF VIDP 200200Z 2003/2012 09003KT 2000 HZ FEW100
                      BECMG 2004/2006 12006KT 3500 HZ FEW035 SCT100
                       BECMG 2008/2010 5000 HZ -RA SCT035 SCT090=
202004192300 TAF VIDP 192300Z 2000/2009 VRB02KT 2000 BR HZ FEW100
                      BECMG 2004/2006 29008KT 3500 HZ FEW035 SCT100
                       BECMG 2008/2009 32010KT 5000 HZ -RA SCT035
                       SCT090=
202004192000 TAF VIDP 192000Z 1921/2006 VRB02KT 3000 HZ FEW100
                      BECMG 2000/2002 00000KT 2000 HZ BR
                      BECMG 2004/2006 29008KT 3500 HZ FEW035 SCT100=
202004191700 TAF VIDP 191700Z 1918/2003 VRB02KT 3500 HZ FEW100
                      BECMG 1921/1923 00000KT 2000 BR HZ=
202004191400 TAF VIDP 191400Z 1915/1924 29006KT 4000 HZ FEW100
                      BECMG 1921/1923 08005KT 2500 BR -RA SCT035
                       BKN090=
202004191100 TAF VIDP 191100Z 1912/1921 29006KT 4000 HZ FEW040 SCT100
                      BECMG 1914/1916 29006KT 3000 HZ FEW035 SCT100
                       BECMG 1918/1920 27005KT 3000 HZ SCT100=
202004190800 TAF VIDP 190800Z 1909/1918 30006KT 4000 HZ FEW040 SCT100
                      BECMG 1911/1913 29006KT 4000 HZ FEW040 SCT100
                       BECMG 1914/1916 28006KT 3000 HZ=
202004190500 TAF VIDP 190500Z 1906/1915 28006KT 3000 HZ FEW040 SCT100
                      BECMG 1908/1912 29008KT 4500 HZ FEW035 SCT100
                       BECMG 1914/1915 33010KT 4000 HZ FEW040 SCT100=
202004190200 TAF VIDP 190200Z 1903/1912 29005KT 3000 HZ FEW040 SCT100
                      BECMG 1906/1908 32008KT 4000 HZ
                      BECMG 1810/1812 29010G20KT -TSRA SCT035 FEW040CB
                       BKN100=
202004182300 TAF VIDP 182300Z 1900/1909 34005KT 3000 TSRA SCT035 FEW040CB BKN100
                       BECMG 1904/1906 34010KT 4000 HZ FEW040 SCT100=
202004182000 TAF VIDP 182000Z 1821/1906 07005KT 3000 HZ SCT035 FEW040CB BKN100
                       BECMG 1901/1903 29008KT 2000 BR HZ
                      BECMG 1904/1906 32010KT 3500 HZ SCT040 SCT100=
202004181700 TAF VIDP 181700Z 1818/1903 05007KT 3000 -TS SCT035 FEW040CB BKN100
                       BECMG 1820/1822 06005KT 2000 -RA BR FEW040
                       SCT100=
202004181100 TAF VIDP 181100Z 1812/1821 27008G18KT 3000 HZ -TSRA SCT035 FEW040CB
                       BKN090
                      BECMG 1816/1820 29010G20KT 2500 TSRA SCT035
                       FEW040CB BKN090=
202004180800 TAF VIDP 180800Z 1809/1818 12008G18KT 6000 SCT035 BKN100
                      BECMG 1809/1812 32015G25KT TS FEW035CB
                      BECMG 1815/1817 05008KT 3500 HZ FEW035 SCT100=
202004180200 TAF VIDP 180200Z 1803/1812 09008KT 3000 HZ FEW100
                      BECMG 1806/1808 34010G25KT 5000 HZ RA SCT035
                       BKN090
                      TEMPO 1808/1812 FEW040CB=
202004172000 TAF VIDP 172000Z 1721/1806 07006KT 2500 HZ RA SCT035 BKN090
                      BECMG 1801/1803 03005KT 1500 BR
                      BECMG 1804/1806 10010KT 3000 HZ SCT040 BKN100=
202004171700 TAF VIDP 171700Z 1718/1803 10008KT 2500 HZ RA SCT035 BKN090
                      BECMG 1801/1803 02004KT 1500 BR -RA=
202004171400 TAF VIDP 171400Z 1715/1724 12005KT 2000 TSRA SCT035 FEW040CB BKN100
                       BECMG 1720/1722 13005KT 2500 -RA BR SCT040
                       BKN090=
202004171100 TAF VIDP 171100Z 1712/1721 18005KT 5000 HZ -RA SCT035 BKN100
                      BECMG 1712/1718 20010G20KT 3000 TSRA FEW040CB
                       OVC090=
202004170800 TAF VIDP 170800Z 1709/1718 05008G18KT 6000 SCT030 BKN100
                      BECMG 1714/1717 26015G25KT 4000 HZ -TSRA
                       FEW035CB=
202004170500 TAF VIDP 170500Z 1706/1715 34008G18KT 4000 HZ -RA SCT030 BKN100
                       BECMG 1709/1712 26015G25KT 3000 HZ TSRA
                       FEW035CB=
202004170200 TAF VIDP 170200Z 1703/1712 32008KT 3000 HZ SCT035 BKN100
                      BECMG 1705/1707 5000 HZ
                      TEMPO 1708/1712 29010G25KT 2000 TSRA SCT030
                       FEW035CB BKN090=
202004162300 TAF VIDP 162300Z 1700/1709 25003KT 2500 HZ SCT040 BKN100
                      BECMG 1705/1707 32010KT 4000 HZ -RA
                      TEMPO 1707/1709 29010G25KT 2000 TSRA SCT035
                       FEW035CB BKN090=
202004162000 TAF VIDP 162000Z 1621/1706 03006KT 3200 HZ SCT040 SCT100
                      BECMG 1700/1702 25003KT 2200 HZ DZ
                      BECMG 1703/1705 31008KT 3200 HZ -RA SCT035
                       BKN090=
202004161100 TAF VIDP 161100Z 1612/1621 32006KT 5000 HZ FEW040 SCT100
                      BECMG 1618/1620 36006KT 3000 HZ FEW100=
202004160800 TAF VIDP 160800Z 1609/1618 32010KT 5000 HZ FEW040 SCT100
                      BECMG 1615/1617 36006KT 3000 HZ FEW100=
202004160500 TAF VIDP 160500Z 1606/1615 29010KT 3000 HZ FEW100
                      BECMG 1608/1610 5000 HZ SCT100=
202004160200 TAF VIDP 160200Z 1603/1612 27005KT 2500 HZ FEW100
                      BECMG 1607/1609 30008G18KT 4500 HZ FEW035
                       SCT100=
202004152300 TAF VIDP 152300Z 1600/1609 02005KT 1500 BR HZ FEW100
                      BECMG 1604/1606 26006KT 3000 HZ FEW035 SCT100
                       BECMG 1608/1609 29008G18KT 4500 HZ SCT035
                       BKN090=
202004152000 TAF VIDP 152000Z 1521/1606 VRB02KT 2500 HZ FEW100
                      BECMG 1600/1602 00000KT 1500 BR FU
                      BECMG 1604/1606 26005KT 3000 HZ FEW035 SCT100=
202004151700 TAF VIDP 151700Z 1518/1603 12003KT 3500 HZ FEW100
                      BECMG 1520/1522 VRB02KT 2500 HZ
                      BECMG 1600/1602 00000KT 1500 BR FU=
202004151400 TAF VIDP 151400Z 1515/1524 32004KT 4000 HZ SCT035 BKN090
                      BECMG 1520/1522 2500 HZ=
202004151100 TAF VIDP 151100Z 1512/1521 30008KT 4000 HZ SCT035 BKN090=
202004150800 TAF VIDP 150800Z 1509/1518 28005KT 3500 HZ SCT035 BKN090
                      BECMG 1515/1517 30008KT 4000 HZ SCT040 BKN100=
202004150500 TAF VIDP 150500Z 1506/1515 24006KT 3000 HZ SCT035 BKN090
                      BECMG 1508/1510 30008KT 4000 HZ SCT040 SCT100=
202004150200 TAF VIDP 150200Z 1503/1512 14003KT 3000 HZ-RA SCT035 BKN090
                      BECMG 1506/1508 32005KT 3500 HZ -TS FEW040CB
                       OVC090=
202004142300 TAF VIDP 142300Z 1500/1509 36004KT 2000 HZ BR FEW040 SCT100
                      BECMG 1505/1507 32008KT 4000 HZ SCT040 SCT100
                       BECMG 1508/1509 5000 HZ SCT100=
202004142000 TAF VIDP 142000Z 1421/1506 00000KT 3000 HZ FEW040 SCT100
                      BECMG 1423/1503 27005KT 2000 HZ BR SCT035
                       FEW040CB BKN090=
202004141700 TAF VIDP 141700Z 1418/1503 14003KT 3000 HZ FEW040 SCT100
                      BECMG 1423/1503 27005KT 2000 HZ BR SCT035
                       FEW040CB BKN090=
202004141100 TAF VIDP 141100Z 1412/1421 20004KT 4000 HZ SCT035 SCT100
                      BECMG 1415/1417 27005KT 3000 HZ -RA SCT040
                       BKN100=
202004140800 TAF VIDP 140800Z 1409/1418 27008KT 4000 HZ -RA SCT035 BKN090
                      BECMG 1415/1417 23005KT 3000 HZ -RA SCT040
                       BKN100=
202004140500 TAF VIDP 140500Z 1406/1415 27005KT 4000 HZ SCT035 BKN090
                      BECMG 1408/1410 20010KT 5000 HZ BKN080=
202004140200 TAF VIDP 140200Z 1403/1412 00000KT 2500 HZ -RA SCT035 BKN090
                      BECMG 1406/1408 29008KT 3500 HZ -RA
                      TEMPO 1408/1412 FEW040CB=
202004132300 TAF VIDP 132300Z 1400/1409 25005KT 2000 -TSRA SCT035 FEW040CB BKN090
                       BECMG 1405/1407 29006KT 3000 BR -RA
                      BECMG 1408/1409 27010KT 5000 HZ SCT040 BKN090=
202004132000 TAF VIDP 132000Z 1321/1406 00000KT 3000 HZ -RA SCT035 SCT100
                      BECMG 1323/1403 25005KT 2000 -TSRA SCT030
                       FEW035CB OVC090=
202004131700 TAF VIDP 131700Z 1318/1403 34003KT 3500 HZ FEW035 SCT100
                      BECMG 1323/1403 25005KT 2000 -TSRA SCT035
                       FEW040CB BKN090=
202004131400 TAF VIDP 131400Z 1315/1324 29004KT 4000 HZ FEW100
                      BECMG 1321/1323 00000KT 2000 HZ SCT100=
202004131100 TAF VIDP 131100Z 1312/1321 29008KT 4000 HZ FEW100
                      BECMG 1315/1317 32005KT 3500 HZ
                      TEMPO 1318/1321 FEW035CB=
202004130800 TAF VIDP 130800Z 1309/1318 32010KT 4000 HZ FEW100
                      BECMG 1315/1317 35004KT 3500 HZ=
202004130500 TAF VIDP 130500Z 1306/1315 24005KT 3000 HZ FEW100
                      BECMG 1308/1310 32008KT 4000 HZ=
202004130200 TAF VIDP 130200Z 1303/1312 23004KT 2000 HZ FEW100
                      BECMG 1304/1.306 29008KT 4000 HZ
                      BECMG 1307/1309 6000 FEW040 SCT100=
202004122300 TAF VIDP 122300Z 1300/1309 23004KT 1800 HZ FEW100
                      BECMG 1303/1305 29008KT 3500 HZ SCT100
                      BECMG 1306/1308 6000 FEW035 BKN100=
202004122000 TAF VIDP 122000Z 1221/1306 00000KT 3000 HZ FEW100
                      BECMG 1300/1302 23004KT 2000 HZ
                      BECMG 1303/1305 29008KT 3000 HZ SCT100=
202004121700 TAF VIDP 121700Z 1218/1303 25003KT 3500 HZ FEW100
                      BECMG 1300/1302 00000KT 2000 HZ=
202004121400 TAF VIDP 121400Z 1215/1224 29005KT 3500 HZ FEW100
                      BECMG 1221/1223 32005KT HZ BR=
202004121100 TAF VIDP 121100Z 1212/1221 27008KT 5000 HZ FEW100
                      BECMG 1216/1218 32010G20KT 3500 HZ=
202004120800 TAF VIDP 120800Z 1209/1218 32008G18KT 5000 HZ SCT100
                      BECMG 1215/1217 32008KT 3000 HZ=
202004120500 TAF VIDP 120500Z 1206/1215 29008G18KT 4000 HZ SCT100
                      BECMG 1208/1210 5000 HZ=
202004120200 TAF VIDP 120200Z 1203/1212 28005KT 2000 HZ FEW100
                      BECMG 1206/1208 32008KT 4000 HZ FEW03 SCT100=
202004112300 TAF VIDP 112300Z 1200/1209 32005KT 1500 HZ BR FEW100
                      BECMG 1204/1206 26008KT 3000 HZ
                      BECMG 1208/1209 32008G18KT 5000 HZ FEW035
                       SCT100=
202004112000 TAF VIDP 112000Z 1121/1206 29006KT 2500 HZ FEW100
                      BECMG 1200/1202 00000KT 1500 BR HZ
                      BECMG 1204/1206 3000 HZ SCT100=
202004111700 TAF VIDP 111700Z 1118/1203 32006KT 3500 HZ FEW100
                      BECMG 1120/1122 29005KT 2500 HZ
                      BECMG 1200/1202 00000KT 1500 BR HZ=
202004111400 TAF VIDP 111400Z 1115/1124 29010KT 3500 HZ FEW100
                      BECMG 1121/1123 28004KT 2500 HZ BR=
202004111100 TAF VIDP 111100Z 1112/1121 32007KT 4000 HZ FEW100
                      BECMG 1116/1118 3000 HZ=
202004110800 TAF VIDP 110800Z 1109/1118 31008KT 4500 HZ NSC
                      BECMG 1115/1117 VRB02KT 3000 HZ=
202004110500 TAF VIDP 110500Z 1106/1115 34010KT 4000 HZ NSC=
202004110200 TAF VIDP 110200Z 1103/1112 00000KT 3000 HZ SCT100
                      BECMG 1105/1107 05007KT 4000 HZ
                      BECMG 1108/1112 5000 HZ=
202004102000 TAF VIDP 102000Z 1021/1106 00000KT 2500 HZ FEW100
                      BECMG 1100/1102 05003KT 2000 FU HZ
                      BECMG 1104/1106 32008KT 3000 HZ SCT100=
202004101700 TAF VIDP 101700Z 1018/1103 32004KT 3000 HZ FEW100
                      BECMG 1100/1102 00000KT 2000 FU HZ=
202004101400 TAF VIDP 101400Z 1015/1024 32004KT 4000 HZ FEW100
                      BECMG 1020/1022 VRB02KT 1500 HZ=
202004100800 TAF VIDP 100800Z 1009/1018 29008KT 4000 HZ SCT100
                      TEMPO 1012/1015 FEW040CB=
202004100500 TAF VIDP 100500Z 1006/1015 32006KT 2500 HZ FEW100
                      BECMG 1008/1010 29006KT 4000 HZ FEW040 SCT100
                       TEMPO 1012/1015 FEW040CB=
202004100200 TAF VIDP 100200Z 1003/1012 24003KT 2000 FU FEW100
                      BECMG 1005/1007 32006KT 3500 HZ
                      TEMPO 1008/1012 FEW040CB=
202004092300 TAF VIDP 092300Z 1000/1009 00000KT 2000 HZ FEW100
                      BECMG 1003/1005 32006KT 3500 HZ FEW040 SCT100=
202004092000 TAF VIDP 092000Z 0921/1006 00000KT 3000 HZ FEW100
                      BECMG 1000/1002 VRB02KT 2000 FU HZ
                      BECMG 1004/1006 32009KT 4000 HZ FEW040 SCT100=
202004091700 TAF VIDP 091700Z 0918/1003 00000KT 3000 HZ SCT100
                      BECMG 1000/1002 VRB02KT 2000 FU HZ=
202004091400 TAF VIDP 091400Z 0915/0924 32006KT 4000 HZ FEW040 SCT100
                      BECMG 0918/0920 29006KT 3000 HZ FEW040 SCT100=
202004091100 TAF VIDP 091100Z 0912/0921 29008KT 5000 HZ SCT100
                      BECMG 0915/0917 32004KT 3000 HZ FEW035
                      BECMG 0920/0921 29006KT 2500 HZ FEW100=
202004090800 TAF VIDP 090800Z 0909/0918 29010KT 5000 HZ SCT100
                      BECMG 0915/0917 30004KT 3000 HZ FEW035=
202004090500 TAF VIDP 090500Z 0906/0915 27005KT 2500 HZ FEW100
                      BECMG 0908/0910 29010KT 5000 HZ SCT100=
202004090200 TAF VIDP 090200Z 0903/0912 25005KT 2000 HZ NSC
                      BECMG 0905/0907 32006KT 4000 HZ
                      BECMG 0908/0910 32006G16KT 6000 FEW100=
202004082000 TAF VIDP 082000Z 0821/0906 34005KT 3200 HZ FEW100
                      BECMG 0900/0902 25005KT 1800 FU
                      BECMG 0904/0906 32008KT 3500 HZ=
202004081100 TAF VIDP 081100Z 0812/0821 29010G20KT 5000 HZ NSC
                      BECMG 0815/0817 26008KT 3500=
202004080800 TAF VIDP 080800Z 0809/0818 29010G20KT 5000 HZ FEW100
                      BECMG 0815/0817 26010KT 3000 HZ=
202004080500 TAF VIDP 080500Z 0806/0815 32010KT 3000 HZ SCT100
                      BECMG 0808/0812 29010G20KT 4000 HZ FEW030
                       SCT100=
202004080200 TAF VIDP 080200Z 0803/0812 25004KT 2500 HZ FEW030 SCT100
                      TEMPO 0803/0812 32010G25KT 1500 -TSRA FEW035CB
                       OVC080=
202004072000 TAF VIDP 072000Z 0721/0806 07004KT 3000 HZ -RA SCT030 BKN100
                      BECMG 0800/0802 26005KT 1200 BR FEW035 SCT100
                       BECMG 0804/0806 29010KT 2500 HZ SCT035 SCT100=
202004071700 TAF VIDP 071700Z 0718/0803 32010KT 3500 HZ -RA SCT030 FEW035CB
                       BKN100
                      BECMG 0720/0722 29008KT 2500 HZ BR FEW035
                       SCT100
                      BECMG 0800/0802 26005KT 1200 BR=
202004071400 TAF VIDP 071400Z 0715/0724 32008G18KT 3500 HZ -RA FEW040 SCT100
                       BECMG 0715/0721 25010G25KT 2000 TS SCT035
                       FEW040CB BKN100=
202004070800 TAF VIDP 070800Z 0709/0718 32008G18KT 4000 HZ FEW030 SCT100
                      BECMG 0713/0716 29008G18KT 3000 HZ=
202004070500 TAF VIDP 070500Z 0706/0715 32008G18KT 2500 HZ FEW030 SCT 100
                      BECMG 0709/0711 29015G25KT 2800 HZ -TSRA
                       SCT030 FEW035CB BKN090=
202004070200 TAF VIDP 070200Z 0703/0712 27005KT 1200 BR FEW100
                      BECMG 0708/0710 32008KT 4000 HZ=
202004062300 TAF VIDP 062300Z 0700/0709 32005KT 2000 HZ FEW100
                      BECMG 0701/0703 02006KT 2000 BR -RA SCT030
                       BKN100
                      BECMG 0704/0706 26008KT 3000 HZ
                      BECMG 0708/0709 27010G20KT 2500 HZ -TSRA
                       FEW035CB=
202004062000 TAF VIDP 062000Z 0621/0706 32006KT 3000 HZ FEW100
                      BECMG 0701/0703 02006KT 2000 BR -RA SCT030
                       BKN100
                      BECMG 0704/0706 26008KT 3000 HZ=
202004061700 TAF VIDP 061700Z 0618/0703 32007KT 3000 HZ NSC
                      BECMG 0701/0703 02006KT 2000 BR -RA SCT030
                       BKN100=
202004061400 TAF VIDP 061400Z 0615/0624 32012KT 3000 HZ FEW030
                      BECMG 0618/0620 28010G20KT 2500 HZ FEW030
                       FEW035CB SCT100=
202004061100 TAF VIDP 061100Z 0612/0621 29010KT 4000 HZ FEW040 SCT100
                      BECMG 0615/0618 28010G20KT 3000 HZ SCT030
                       FEW035CB BKN100=
202004060800 TAF VIDP 060800Z 0609/0618 32008KT 5000 HZ FEW030 SCT100
                      BECMG 0615/0617 36005KT 3000 HZ SCT040 BKN100=
202004060500 TAF VIDP 060500Z 0606/0615 25005KT 2000 FU HZ FEW100
                      BECMG 0608/0610 4000 HZ SCT100=
202004060200 TAF VIDP 060200Z 0603/0612 24004KT 2000 FU FEW100
                      BECMG 0606/0608 32008KT 4000 HZ FEW040 SCT100
                       TEMPO 0608/0612 FEW040CB=
202004052300 TAF VIDP 052300Z 0600/0609 02005KT 3000 BR -RA SCT030 BKN090
                      BECMG 0605/0609 23005KT 2000 -TSRA FEW035CB=
202004050500 TAF VIDP 050500Z 0506/0515 29008KT 3000 HZ FEW030 SCT100
                      TEMPO 0509/0511 29008G18KT 5000 HZ FEW035CB=
202004050200 TAF VIDP 050200Z 0503/0512 29006KT 1500 HZ FEW100
                      BECMG 0506/0508 29008KT 4000 HZ SCT100
                      TEMPO 0509/0512 FEW035CB=
202004042300 TAF VIDP 042300Z 0500/0509 23004KT 1800 HZ FEW100
                      BECMG 0503/0505 29008KT 3500 HZ FEW035 SCT100
                       BECMG 0506/0508 5000 HZ=
202004041700 TAF VIDP 041700Z 0418/0503 00000KT 3500 HZ NSC
                      BECMG 0500/0502 23004KT 2000 HZ FEW100=
202004041400 TAF VIDP 041400Z 0415/0424 29005KT 4000 HZ
                      BECMG 0421/0423 2200 HZ BR=
202004040800 TAF VIDP 040800Z 0409/0418 29010KT 5000 HZ FEW100
                      BECMG 0415/0417 30005KT 3000 HZ=
202004040500 TAF VIDP 040500Z 0406/0415 27008KT 2500 HZ NSC
                      BECMG 0407/0409 5000 HZ=
202004040200 TAF VIDP 040200Z 0403/0412 25004KT 1000 BR SCT100
                      BECMG 0404/0406 27008KT 2500 HZ
                      BECMG 0408/0410 30010KT 5000 HZ=
202004032300 TAF VIDP 032300Z 0400/0409 32003KT 1000 BR FU FEW100
                      BECMG 0404/0406 27008KT 2500 HZ FEW035 SCT100
                       BECMG 0408/0409 32010KT 5000 HZ SCT035 SCT090=
202004032000 TAF VIDP 032000Z 0321/0406 32005KT 3000 HZ SCT100
                      BECMG 0400/0402 VRB02KT 1000 BR FU FEW035
                       BECMG 0404/0406 27008KT 2500 HZ FEW035 SCT100=
202004031700 TAF VIDP 031700Z 0318/0403 33005KT 3500 HZ SCT100
                      BECMG 0320/0322 VRB02KT 2500 HZ FEW100
                      BECMG 0400/0402 32003KT 1000 BR FU FEW035=
202004031400 TAF VIDP 031400Z 0315/0324 30005KT 4000 HZ SCT100
                      BECMG 0321/0323 2000 BR=
202004031100 TAF VIDP 031100Z 0312/0321 30010KT 5000 HZ SCT100
                      BECMG 0315/0317 3000 HZ=
202004030800 TAF VIDP 030800Z 0309/0318 29008KT 5000 HZ FEW100
                      BECMG 0312/0314 28005KT 3500 HZ NSC
                      BECMG 0316/0318 27004KT 2500 HZ NSC=
202004030500 TAF VIDP 030500Z 0306/0315 30008KT 2500 HZ FEW100
                      BECMG 0312/0314 30010KT 5000 HZ FEW100=
202004030200 TAF VIDP 030200Z 0303/0312 25004KT 2500 BR FEW100
                      BECMG 0304/0306 3500 HZ
                      BECMG 03089/0310 5000 HZ=
202004022300 TAF VIDP 022300Z 0300/0309 32005KT 1500 BR FEW100
                      BECMG 0304/0306 32008G18KT 3000 HZ=
202004022000 TAF VIDP 022000Z 0221/0306 32005KT 3000 HZ FEW100
                      BECMG 0300/0302 25004KT 2200 BR NSC
                      BECMG 0305/0306 32010KT 4500 HZ=
202004021700 TAF VIDP 021700Z 0218/0303 32006KT 3500 HZ FEW100
                      BECMG 0300/0302 25004KT 2200 BR NSC=
202004021400 TAF VIDP 021400Z 0215/0224 32008KT 3500 HZ FEW100
                      BECMG 0220/0222 25004KT 2500 HZ NSC=
202004021100 TAF VIDP 021100Z 0212/0221 29010KT 5000 HZ FEW100
                      BECMG 0218/0220 23005KT 3000 HZ=
202004020800 TAF VIDP 020800Z 0209/0218 30012KT 5000 HZ NSC
                      BECMG 0213/0215 28010KT 4000 HZ FEW040=
202004020500 TAF VIDP 020500Z 0206/0215 29008KT 3000 HZ NSC
                      BECMG 0208/0210 29010KT 4000 HZ=
202004011700 TAF VIDP 011700Z 0118/0203 32010KT 3000 HZ BR FEW100
                      BECMG 0201/0203 1500 BR NSC=
202004011400 TAF VIDP 011400Z 0115/0124 31008KT 4000 HZ FEW100
                      BECMG 0120/0122 30004KT 2000 BR=
202004011100 TAF VIDP 011100Z 0112/0121 32006KT 5000 HZ FEW100
                      BECMG 0118/0120 29004KT 3000 HZ=
202004010800 TAF VIDP 010800Z 0109/0118 23006KT 4000 HZ FEW100
                      BECMG 0109/0115 FEW035CB
                      BECMG 0115/0117 3000 HZ FEW040 SCT100=
202004010200 TAF VIDP 010200Z 0103/0112 25005KT 2200 BR FEW100
                      BECMG 0106/0108 32010KT 4000 HZ FEW035=

###################################
#  large TAF from VIDP
###################################
202004302300 TAF VIDP 302300Z 0100/0206 VRB02KT 2000 BR FEW040 SCT100
                      BECMG 0104/0106 32008KT 3500 HZ SCT100
                      BECMG 0107/0109 5000 HZ
                      BECMG 0117/0119 VRB02KT 3000 HZ BR
                      BECMG 0200/0202 15008KT 2000 HZ BR FEW035
                       SCT100
                      BECMG 0204/0205 33006KT 4000 HZ=
202004301700 TAF VIDP 301700Z 3018/0124 VRB02KT 2500 HZ BR FEW040 SCT100
                      BECMG 0104/0106 32008KT 3500 HZ SCT100
                      BECMG 0107/0109 5000 HZ
                      BECMG 0117/0119 VRB02KT 2800 HZ BR=
202004301100 TAF VIDP 301100Z 3012/0118 32006KT 4000 HZ FEW100
                      BECMG 3017/3019 34006KT 3000 HZ FEW030 SCT100
                       BECMG 0102/0104 32004KT 2500 HZ
                      BECMG 0106/0108 5000 HZ FEW100=
202004300500 TAF VIDP 300500Z 3006/0112 13006KT 4000 HZ FEW100
                      BECMG 3009/3012 14008G18KT 2500 TSRA FEW040CB
                       BKN090
                      BECMG 3018/3020 32006KT 3000 HZ BR FEW035
                       SCT100
                      BECMG 0100/0102 VRB02KT 2500 BR
                      BECMG 0104/0106 29008KT 3500 HZ SCT035 SCT100=
202004292300 TAF VIDP 292300Z 3000/0106 12008KT 3000 HZ FEW035 SCT100
                      BECMG 3003/3008 14008G18KT 2500 -TSRA FEW040CB
                       BKN090
                      BECMG 3008/3010 12010KT 5000 HZ SCT035 BKN100
                       BECMG 3010/3015 1500 TSRA FEW035CB OVC080
                       BECMG 3020/3022 32005KT 3000 HZ BR FEW035
                       SCT100
                      BECMG 0100/0102 VRB02KT 2500 BR
                      BECMG 0104/0106 29008KT 3500 HZ SCT035 SCT100=
202004291100 TAF VIDP 291100Z 2912/3018 26006KT 5000 HZ FEW035 SCT100
                      BECMG 2912/2916 -TSRA SCT030 FEW035CB BKN090
                       BECMG 2918/2920 29005KT 3000 HZ BR
                      BECMG 3000/3002 VRB02KT 1500 BR-RA
                      BECMG 3004/3006 29008KT 3500 HZ SCT035 BKN100
                       BECMG 3006/3008 32010KT 5000 HZ
                      BECMG 3010/3015 FEW040CB=
202004290500 TAF VIDP 290500Z 2906/3012 17010KT 5000 HZ FEW100
                      BECMG 2916/2918 10005KT 3500 HZ -RA SCT035
                       SCT100
                      BECMG 3000/3002 VRB02KT 1500 RA BR SCT035
                       BKN090
                      BECMG 3004/3006 4000 HZ RA
                      TEMPO 3010/3012 FEW040CB=
202004282300 TAF VIDP 282300Z 2900/3006 VRB02KT 2200 BR FEW100
                      BECMG 2905/2907 33008KT 5000 HZ FEW040 SCT100
                       BECMG 2917/2919 04005KT 2500 HZ BR FEW100
                       BECMG 3004/3005 15005KT 4000 HZ FEW035 SCT100=
202004281700 TAF VIDP 281700Z 2818/2924 VRB02KT 3500 HZ SCT100
                      BECMG 2900/2902 2200 BR FEW100
                      BECMG 2905/2907 33008KT 5000 HZ FEW040 SCT100
                       BECMG 2917/2919 04005KT 2500 HZ BR FEW100=
202004281100 TAF VIDP 281100Z 2812/2918 34008KT 4000 HZ SCT040
                      BECMG 2821/2823 09005KT 2500 HZ -RA BKN100
                       BECMG 2904/2906 27010KT 5000 HZ FEW100
                      BECMG 2915/2917 32008KT 3000 HZ=
202004280500 TAF VIDP 280500Z 2806/2912 13010KT 5000 HZ FEW040
                      BECMG 2809/2814 FEW040CB SCT100
                      BECMG 2818/2820 34006KT 3000 HZ SCT100
                      BECMG 2904/2906 32008KT 5000 HZ FEW100=
202004272300 TAF VIDP 272300Z 2800/2906 11005KT2200 BR -RA SCT030 BKN090
                      BECMG 2804/2806 14008G18KT 3500 HZ
                      BECMG 2806/2808 11010KT 5000 HZ SCT035 BKN100
                       BECMG 2810/2815 1500 -TSRA FEW035CB OVC080
                       BECMG 2820/2822 32005KT 3000 HZ BR FEW035
                       SCT100
                      BECMG 2900/2902 VRB02KT 2000 BR
                      BECMG 2904/2906 29008KT 3500 HZ SCT035=
202004271700 TAF VIDP 271700Z 2718/2824 09010KT 3500 HZ FEW035 SCT100
                      BECMG 2721/2723 12006KT 220O BR -RA
                      BECMG 2803/2805 11008G18KT 3500 HZ
                      BECMG 2806/2808 14010KT 5000 HZ SCT035 BKN100
                       BECMG 2815/2818 FEW035CB
                      BECMG 2820/2822 32005KT 3000 HZ BR FEW035
                       SCT100=
202004271100 TAF VIDP 271100Z 2712/2721 09010KT 5000 HZ FEW100
                      BECMG 2715/2718 FEW040CB SCT100
                      BECMG 2718/2720 3000 HZ BR FEW040 SCT100=
202004270500 TAF VIDP 270500Z 2706/2812 11008G18KT 4000 HZ -RA SCT035 SCT100
                       BECMG 2709/2715 13010G25KT 1500 -TSRA SQ
                       FEW040CB BKN090
                      BECMG 2718/2720 2500 BR SCT040 BKN100
                      BECMG 2804/2806 09008G18KT 3500 -RA HZ=
202004262300 TAF VIDP 262300Z 2700/2806 11006KT 2500 BR FEW035 SCT100
                      BECMG 2705/2707 4000 HZ
                      TEMPO 2710/2715 FEW040CB
                      BECMG 2717/2719 15008KT 2500 HZ BR
                      TEMPO 2718/2724 17010G25KT 1500 -TSRA FEW040CB
                       OVC080
                      BECMG 2804/2805 3500 HZ SCT100=
202004261700 TAF VIDP 261700Z 2618/2703 11006KT 2800 HZ BR FEW035 SCT100
                      BECMG 2705/2707 4000 HZ
                      TEMPO 2710/2715 FEW040CB
                      BECMG 2717/2719 15008KT 2500 HZ BR
                      TEMPO 2718/2724 170G25KT 1500 -TSRA FEW040CB
                       OVC080=
202004261100 TAF VIDP 261100Z 2612/2718 02008G18KT 2500 HZ RA SCT030 BKN100
                       BECMG 2620/2703 09010G25KT 1500 TSRA FEW035CB
                       OVC080
                      BECMG 2704/2706 13010KT 3500 RA BR SCT035
                       BKN090
                      BECMG 2709/2715 08010G25KT 1500 TSRA FEW040CB
                       OVC090=
202004260500 TAF VIDP 260500Z 2606/2712 15008KT 3500 TSRA SCT035 FEW040CB BKN090
                       BECMG 2609/2615 FEW040CB
                      BECMG 2620/2622 14006KT 3000 HZ -RA FEW040
                       SCT100
                      BECMG 2705/2707 4000 HZ
                      TEMPO 2709/2712 FEW040CB=
202004252300 TAF VIDP 252300Z 2600/2706 14005KT 3000 HZ FEW035 SCT100
                      BECMG 2602/2605 23010G25KT 2000 -TSRA SCT030
                       FEW035CB OVC090
                      TEMPO 2609/2615 FEW035CB
                      BECMG 2618/2620 VRB02KT 3000 HZ -RA FEW040
                       SCT100
                      BECMG 2700/2702 3000 HZ BR SCT100
                      BECMG 2703/2705 4500 BR HZ=
202004251700 TAF VIDP 251700Z 2518/2624 05005KT 3000 HZ SCT100
                      BECMG 2602/2604 11007KT 4000 HZ -RA SCT040
                       SCT100
                      BECMG 2609/2615 FEW040CB
                      BECMG 2618/2620 VRB02KT 3000 HZ -RA FEW040
                       SCT100=
202004251100 TAF VIDP 251100Z 2512/2618 09005KT 5000 HZ SCT040 SCT100
                      BECMG 2515/2523 23015G25KT 2000 -TSRA SCT030
                       FEW035CB OVC090
                      BECMG 2602/2604 15004KT 2500 -RA BR SCT035
                       BKN100
                      BECMG 2608/2614 09010G25KT 3500 -TSRA SCT030
                       FEW035CB BKN090
                      BECMG 2615/2617 32008KT 3500 HZ SCT035 BKN090=
202004250500 TAF VIDP 250500Z 2506/2612 18008KT 5000 HZ -RA SCT035 BKN100
                      BECMG 2508/2512 FEW040CB
                      BECMG 2513/2517 25010G25KT 2000 -TSRA SCT030
                       FEW035CB OVC090
                      BECMG 2520/2522 15004KT 2500 -RA BR SCT035
                       BKN100
                      BECMG 2605/2607 09010G25KT 3500 RA HZ BKN090
                       BECMG 2608/2612 FEW040CB=
202004250200 TAF VIDP 250200Z 2503/2512 24006KT 3000 HZ SCT035 BKN090
                      BECMG 2505/2507 30008KT 4500 HZ
                      BECMG 2508/2512 24015G25KT 1500 TSRA FEW040CB
                       OVC080=
202004242300 TAF VIDP 242300Z 2500/2606 24006KT 2500 HZ BR FEW040 SCT100
                      TEMPO 2500/2503 FEW040CB
                      BECMG 2503/2505 30008KT 4500 HZ FEW035 SCT090
                       TEMPO 2509/2514 FEW040CB
                      BECMG 2513/2515 24005KT 3000 HZ BR SCT035
                       BKN100
                      BECMG 2515/2520 24015G25KT 1500 TSRA FEW040CB
                       OVC080
                      BECMG 2600/2602 11006KT 3000 BR -RA SCT100
                       BECMG 2603/260 4500 BR HZ=
202004241700 TAF VIDP 241700Z 2418/2524 12003KT 3000 HZ BR SCT100
                      BECMG 2503/2505 30008KT 4500 HZ FEW035 SCT100
                       TEMPO 2509/2514 FEW040CB
                      BECMG 2513/2515 24005KT 3000 HZ BR SCT035
                       BKN100
                      BECMG 2515/2520 24015G25KT 1500 TSRA FEW040CB
                       OVC080=
202004241100 TAF VIDP 241100Z 2412/2518 29003KT 4000 HZ FEW040 SCT100
                      BECMG 2416/2418 00000KT 2500 HZ -RA SCT030
                       BKN090
                      BECMG 2416/2418 00000KT 2500 HZ -RA SCT030
                       BKN090
                      BECMG 2502/2506 FEW035CB
                      BECMG 2508/2510 VRB02KT 3500 HZ SCT035 OVC090
                       BECMG 2512/2518 32005KT 2000 TSRA FEW040CB=
202004240500 TAF VIDP 240500Z 2406/2512 20008KT 5000 HZ FEW100
                      BECMG 2418/2420 27005KT 3000 HZ FEW040 SCT100
                       BECMG 2500/2503 2000 -TSRA SCT035 FEW040CB
                       BKN090
                      BECMG 2504/2506 11006KT 4000 HZ SCT040 BKN100
                       BECMG 2509/2512 FEW040CB=
202004232300 TAF VIDP 232300Z 2400/2506 VRB02KT 2000 HZ BR FEW035 SCT100
                      BECMG 2404/2406 07006KT 3500 HZ -RA SCT030
                       BKN090
                      BECMG 2407/2409 32008KT 5000 HZ
                      BECMG 2409/2413 29015G25KT 2000 -TSRA FEW035CB
                       OVC080
                      BECMG 2420/2422 26005KT 3000 HZ FEW035 SCT100
                       BECMG 2423/2503 32015G25KT 1500 -TSRA SCT030
                       FEW035CB BKN090
                      BECMG 2504/2506 29006KT 3500 HZ=
202004231700 TAF VIDP 231700Z 2318/2424 11003KT 3500 HZ FEW035 SCT100
                      BECMG 2320/2322 VRB02KT 2500 HZ
                      BECMG 2400/2402 00000KT 2000 HZ BR
                      BECMG 2404/2406 07006KT 3500 HZ -RA SCT035
                       BKN100
                      BECMG 2407/2409 32008KT 5000 HZ
                      BECMG 2409/2413 29015G25KT 2000 -TSRA FEW035CB
                       OVC080
                      BECMG 2420/2422 26005KT 3000 HZ FEW035 SCT100=
202004231100 TAF VIDP 231100Z 2312/2418 29010G20KT 3500 HZ -TSRA SCT030 FEW035CB
                       OVC090
                      BECMG 2318/2320 18004KT 2500 -RA BR SCT030
                       BKN090
                      BECMG 2403/2405 07005KT 3500 BR HZ
                      BECMG 2406/2408 32008KT 5000 HZ
                      BECMG 2409/2413 28015G25KT 4000 HZ -TSRA
                       FEW035CB
                      BECMG 2415/2417 29008KT 3500 HZ -RA SCT025
                       BKN090=
202004230500 TAF VIDP 230500Z 2306/2412 23008KT 3500 HZ SCT035 BKN100
                      BECMG 2309/2315 23010G25KT 1500 TSRA SCT030
                       FEW035CB OVC090
                      BECMG 2318/2320 18004KT 2500 -RA BR
                      BECMG 2403/2405 10005KT 3500 BR HZ SCT040
                       SCT100
                      BECMG 2406/2408 34008KT 5000 HZ FEW040=
202004222300 TAF VIDP 222300Z 2300/2406 11005KT 2500 HZ -RA SCT035 SCT100
                      BECMG 2304/2306 27005KT 3500 HZ
                      BECMG 2309/2315 22010G25KT 1500 TSRA SCT030
                       FEW035CB BKN090
                      BECMG 2321/2323 27004KT 2000 -RA BR
                      BECMG 2403/2405 3000 BR HZ SCT040 SCT100=
202004221700 TAF VIDP 221700Z 2218/2324 34005KT 3500 HZ SCT035 BKN100
                      BECMG 2300/2302 11005KT 2000 HZ -RA BKN090
                       BECMG 2304/2306 27005KT 3500 HZ
                      BECMG 2309/2315 23010G25KT 1500 DS TSRA SCT030
                       FEW035CB OVC090
                      BECMG 2318/2320 27008KT 2500 -RA BR=
202004221100 TAF VIDP 221100Z 2212/2318 32008KT 5000 HZ FEW035 SCT100
                      BECMG 2215/2217 29005KT 3000 HZ
                      BECMG 2215/2221 FEW035CB
                      BECMG 2300/2302 11005KT 2000 HZ BR
                      BECMG 2305/2307 14008KT 4000 HZ SCT030 BKN100
                       BECMG 2306/2312 32015G25KT 1500 -TSRA FEW035CB
                       OVC080
                      BECMG 2315/2317 26005KT 3000 HZ FEW035 SCT100=
202004220500 TAF VIDP 220500Z 2206/2312 26005KT 3000 HZ FEW100
                      BECMG 2208/2210 29008G18KT 5000 HZ FEW035
                       SCT100
                      BECMG 2212/2215 FEW035CB
                      BECMG 2215/2217 32005KT 3000 HZ
                      BECMG 2300/2302 VRB02KT 2000 HZ
                      BECMG 2305/2307 27008KT 3500 HZ SCT030 BKN100
                       BECMG 2308/2312 32015G25KT 1500 -TSRA FEW035CB
                       OVC080=
202004212300 TAF VIDP 212300Z 2200/2306 24005KT 2500 HZ FEW100
                      BECMG 2204/2206 26005KT 3000 HZ FEW035 SCT100
                       BECMG 2208/2210 29008G18KT 5000 HZ SCT035
                       BKN100
                      BECMG 2215/2217 27006KT 3000 HZ
                      BECMG 2218/2222 FEW040CB
                      BECMG 2302/2306 32010G25KT 1500 -TSRA SCT030
                       FEW035CB BKN090=
202004211700 TAF VIDP 211700Z 2118/2224 00000KT 3000 SCT100
                      BECMG 2120/2122 32005KT 2500 HZ BR FEW035
                       SCT100
                      BECMG 2202/2204 26005KT 3000 HZ BR
                      BECMG 2208/2210 29008G18KT 5000 HZ SCT035
                       BKN100
                      BECMG 2215/2217 27006KT 3000 HZ
                      BECMG 2218/2222 3000 1500 -TSRA FEW035CB
                       BKN090=
202004211100 TAF VIDP 211100Z 2112/2218 29010KT 4000 HZ SCT035 BKN100
                      BECMG 2112/2118 34015G25KT 2500 -TSRA SCT030
                       FEW035CB BKN090
                      BECMG 2120/2122 32006KT 2000 HZ BR FEW035
                       SCT100
                      BECMG 2202/2204 26005KT 3000 HZ BR
                      BECMG 2208/2210 29008G18KT 5000 HZ -RA SCT035
                       BKN100
                      BECMG 2210/2214 FEW035CB=
202004210500 TAF VIDP 210500Z 2106/2212 24005KT 3000 HZ FEW100
                      BECMG 2108/210 32008KT 4500 HZ FEW040 SCT100
                       TEMPO 2110/2112 FEW040CB
                      BECMG 2114/2118 34010G20KT 2500 -TSRA SCT035
                       FEW040CB SCT100
                      BECMG 2120/2123 29005KT 2000 HZ BR FEW040
                       SCT100
                      BECMG 2200/2203 25004KT 2500 HZ BR FEW100
                       BECMG 2204/2206 34005KT 3500 HZ FEW040 SCT100
                       BECMG 2208/2212 4500 HZ FEW100=
202004202300 TAF VIDP 202300Z 2100/2206 24005KT 2000 BR FEW035 SCT100
                      TEMPO 2100/2103 FEW040CB
                      BECMG 2106/2108 30008KT 4500 HZ FEW100
                      BECMG 2117/2119 24005KT 2500 HZ NSC
                      BECMG 2200/2202 1800 HZ
                      BECMG 2204/2205 32008KT 3500 HZ SCT100=
202004201700 TAF VIDP 201700Z 2018/2124 05008KT 3000 HZ FEW035 SCT100
                      BECMG 2100/2102 24005KT 1800 BR SCT100
                      BECMG 2106/2108 30008KT 4500 HZ FEW100
                      BECMG 2117/2119 24005KT 2500 HZ BR NSC=
202004201100 TAF VIDP 201100Z 2012/2118 20006KT 5000 HZ SCT035 BKN100
                      BECMG 2014/2018 24010KT 4000 HZ -RA FEW040CB
                       OVC090
                      BECMG 2020/2024 24010G20KT 2000 -TSRA
                      BECMG 2100/2102 24008KT 1500 BR-RA SCT040
                       BKN100
                      BECMG 2104/2106 29006KT 3000 HZ
                      BECMG 2108/2112 4000 HZ
                      BECMG 2114/2118 32010G20KT -TSRA SCT035 FEW040CB
                       BKN100=
202004200500 TAF VIDP 200500Z 2006/2112 25010KT 2500 HZ SCT035 BKN100
                      BECMG 2008/2010 23005KT 3500 HZ -RA
                      BECMG 2008/2012 FEW040CB
                      BECMG 2022/2103 34010G25KT 1500 -TSRA SCT030
                       FEW035CB OVC080
                      BECMG 2104/2106 VRB02KT 3500 HZ
                      BECMG 2108/2110 34006KT 5000 HZ SCT040 BKN100=
202004192300 TAF VIDP 192300Z 2000/2106 VRB02KT 2000 BR HZ FEW100
                      BECMG 2004/2006 29008KT 3500 HZ FEW035 SCT100
                       BECMG 2008/2010 32010KT 5000 HZ -RA SCT035
                       SCT090
                      BECMG 2015/2017 27006KT 3000 HZ
                      BECMG 2018/2022 1500 -TSRA SCT030 FEW035CB
                       BKN090
                      BECMG 2104/2106 32008KT 3500 HZ FEW035 SCT100=
202004191700 TAF VIDP 191700Z 1918/2024 VRB02KT 3500 HZ FEW100
                      BECMG 1921/1923 00000KT 2000 BR HZ
                      BECMG 2004/2006 29008KT 3500 HZ FEW035 SCT100
                       BECMG 2008/2010 32010KT 5000 HZ -RA SCT035
                       SCT090
                      BECMG 2015/2017 27006KT 3000 HZ
                      BECMG 2018/2022 1500 -TSRA FEW035CB BKN090=
202004191100 TAF VIDP 191100Z 1912/2018 29006KT 4000 HZ FEW040 SCT100
                      BECMG 1914/1916 29006KT 3000 HZ FEW035 SCT100
                       BECMG 1918/1922 27005KT 3000 HZ SCT100
                      BECMG 2000/2002 28004KT 3500 HZ NSC
                      BECMG 2004/2006 29006KT 4000 HZ FEW100
                      BECMG 2008/2012 29010KT 5000 HZ FEW100
                      BECMG 2016/2018 27005KT 3000 HZ NSC=
202004190500 TAF VIDP 190500Z 1906/2012 28006KT 3000 HZ FEW040 SCT100
                      BECMG 1908/1912 29008KT 4500 HZ FEW035 SCT100
                       BECMG 1914/1916 33010KT 4000 HZ FEW040 SCT100
                       BECMG 1920/1922 29006KT 3000 HZ SCT040 BKN100
                       BECMG 2000/2002 24005KT 2000 BR HZ
                      BECMG 2004/2006 29008KT 3000 HZ
                      BECMG 2008/2010 29010KT 4000 HZ FEW100=
202004182300 TAF VIDP 182300Z 1900/2006 34005KT 3000 TSRA SCT035 FEW040CB BKN100
                       BECMG 1904/1906 34010KT 4000 HZ FEW040 SCT100
                       BECMG 1908/1912 29008KT 4500 HZ -RA FEW035
                       SCT100
                      BECMG 1913/1915 33010G20KT 4000 -TSRA SCT035
                       FEW040CB BKN100
                      BECMG 1920/1922 29005KT 3000 HZ SCT040 BKN100
                       BECMG 2000/2002 24005KT 1500 BR HZ
                      BECMG 2004/2006 29008KT 4000 HZ=
202004181700 TAF VIDP 181700Z 1818/1924 05007KT 3000 -TS SCT035 FEW040CB BKN100
                       BECMG 1820/1822 06005KT 2000 -RA BR FEW040
                       SCT100
                      BECMG 1903/1905 03005KT 3000 HZ
                      BECMG 1908/1912 34008KT 5000 HZ FEW035 BKN090
                       BECMG 1912/1915 33010G20KT 3000 -TSRA SCT035
                       FEW040CB BKN100
                      BECMG 1916/1918 29005KT 3500 HZ SCT100
                      BECMG 1921/1923 24005KT 2500 HZ FEW100=
202004181100 TAF VIDP 181100Z 1812/1918 27008G18KT 3000 HZ -TSRA SCT035 FEW040CB
                       BKN090
                      BECMG 1816/1820 29010G20KT 2500 TSRA SCT035
                       FEW040CB BKN090
                      BECMG 1820/1822 06005KT 2000 -RA BR FEW040
                       SCT100
                      BECMG 1903/1905 03005KT 3000 HZ FEW040 SCT100
                       BECMG 1908/1912 34008KT 5000 HZ FEW035 BKN090
                       BECMG 1912/1915 33005KT 3000 HZ NSC
                      BECMG 1915/1917 30005KT 3500 HZ NSC=
202004180500 TAF VIDP 180500Z 1806/1912 09008KT 4000 HZ FEW035 SCT100
                      BECMG 1808/1810 12008G18KT 6000 SCT035 BKN100
                       BECMG 1809/1812 32015G25KT TS FEW035CB
                      BECMG 1815/1817 05008KT 3500 HZ FEW035 SCT100
                       BECMG 1900/1902 VRB02KT 1500 BR HZ
                      BECMG 1904/1906 12006KT 3000 HZ
                      BECMG 1908/1910 32008G18KT 5000 HZ SCT035
                       BKN00=
202004172300 TAF VIDP 172300Z 1800/1906 09006KT 2500 HZ RA SCT035 BKN090
                      TEMPO 1804/1809 32010G20KT 2000 -TSRA SCT035
                       FEW040CB BKN090
                      BECMG 1810/1812 32010G25KT 4000 HZ RA SCT035
                       BKN090
                      TEMPO 1809/1812 FEW040CB
                      BECMG 1815/1817 05008KT 3500 HZ SCT040 BKN100
                       BECMG 1820/1822 02004KT 3000 HZ SCT040 BKN100
                       BECMG 1900/1902 VRB02KT 1500 BR
                      BECMG 1904/1906 34005KT 3000 HZ SCT040 SCT100=
202004171700 TAF VIDP 171700Z 1718/1824 10008KT 2500 HZ RA SCT035 BKN090
                      BECMG 1801/1803 02004KT 1500 BR -RA
                      BECMG 1804/1806 10008G18KT 3000 HZ SCT040
                       SCT100
                      BECMG 1808/1810 34010G25KT 5000 HZ RA SCT035
                       BKN090
                      TEMPO 1808/1812 FEW040CB
                      BECMG 1815/1817 01008KT 3500 BR -RA SCT040
                       BKN100
                      BECMG 1821/1823 VRB02KT 1500 BR=
202004171100 TAF VIDP 171100Z 1712/1818 18005KT 5000 HZ -RA SCT035 BKN100
                      BECMG 1712/1718 20010G20KT 3000 TSRA FEW040CB
                       OVC090
                      BECMG 1720/1722 13005KT 2000 -RA BR
                      BECMG 1803/1805 09008G18KT 3000 HZ SCT040
                       SCT100
                      BECMG 1808/1810 34010G20KT 5000 HZ -RA SCT035
                       BKN090
                      TEMPO 1808/1812 FEW040CB
                      BECMG 1815/1817 01008KT 3500 BR HZ SCT040
                       SCT100=
202004170830 TAF VIDP 1706/1812 34008G18KT 4000 HZ -RA SCT030 BKN100
                      BECMG 1709/1712 26015G25KT 3000 HZ TSRA FEW035CB
                       BECMG 1715/1717 02008G18KT 3000 BR SCT030
                       BKN090
                      BECMG 1720/1722 2500 BR -RA SCT025 BKN090
                       BECMG 1800/1802 VRB02KT 1500 BR
                      BECMG 1804/1806 34008KT 2500 BR
                      BECMG 1808/1812 29010G20KT 3000 BR TSRA FEW035CB=
202004170542 TAF VIDP 1706/1812 34008G18KT 4000 HZ -RA SCT030 BKN100
                      BECMG 1709/1712 26015G25KT 3000 HZ TSRA FEW035CB
                       BECMG 1715/1717 02008G18KT 3000 BR SCT030
                       BKN090
                      BECMG 1720/1722 2500 BR -RA SCT025 BKN090
                       BECMG 1800/1802 VRB02KT 1500 BR
                      BECMG 1804/1806 34008KT 2500 BR
                      BECMG 1808/1812 29010G20KT 3000 BR TSRA FEW035CB=
202004170500 TAF VIDP 1706/1812 34008G18KT 4000 HZ -RA SCT030 BKN100
                      BECMG 1709/1712 26015G25KT 3000 HZ TSRA FEW035CB
                       BECMG 1715/1717 02008G18KT 3000 BR SCT030
                       BKN090
                      BECMG 1720/1722 2500 BR -RA SCT025 BKN090
                       BECMG 1800/1802 VRB02KT 1500 BR
                      BECMG 1804/1806 34008KT 2500 BR
                      BECMG 1808/1812 29010G20KT 3000 BR TSRA FEW035CB=
202004162300 TAF VIDP 162300Z 1700/1806 25003KT 2500 HZ SCT040 BKN100
                      BECMG 1705/1707 32010KT 4000 HZ -RA
                      TEMPO 1707/1714 29010G25KT 2000 TSRA SCT035
                       FEW035CB BKN090
                      BECMG 1720/1722 02004KT 3000 HZ -RA SCT035
                       BKN100
                      BECMG 1800/1802 VRB02KT 1500 BR
                      BECMG 1804/1806 34005KT 3000 HZ SCT040 SCT100=
202004161700 TAF VIDP 161700Z 1618/1724 32003KT 3200 HZ FEW040 SCT100
                      BECMG 1700/1702 25003KT 2200 HZ SCT040 BKN100
                       BECMG 1705/1707 32010KT 4000 HZ
                      TEMPO 1708/1714 29010G25KT 2000 TSRA SCT035
                       FEW035CB BKN090
                      BECMG 1720/1722 2004KT 3000 HZ -RA SCT035
                       BKN090=
202004161100 TAF VIDP 161100Z 1612/1718 32006KT 5000 HZ FEW040 SCT100
                      BECMG 1618/1620 36006KT 3000 HZ FEW100
                      BECMG 1701/1703 27006KT 2000 HZ DZ FEW040
                       SCT100
                      BECMG 1704/1706 34008KT 4000 HZ SCT040 SCT100
                       BECMG 1708/1710 5000 HZ -RA
                      BECMG 1712/1718 FEW040CB BKN100=
202004160500 TAF VIDP 160500Z 1606/1712 29010KT 3000 HZ FEW100
                      BECMG 1608/1610 5000 HZ SCT100
                      BECMG 1615/1617 36006KT 3000 HZ FEW040
                      BECMG 1701/1703 27005KT 2000 HZ DZ
                      BECMG 1704/1706 34006KT 3000 HZ SCT040
                      BECMG 1708/1710 4000 HZ -RA=
202004152300 TAF VIDP 152300Z 1600/1706 02005KT 1500 BR HZ FEW100
                      BECMG 1604/1606 26006KT 3000 HZ FEW035 SCT100
                       BECMG 1608/1610 29008G18KT 4500 HZ SCT035
                       BKN090
                      BECMG 1615/1617 34005KT 3000 HZ FEW035 SCT100
                       BECMG 1621/1623 VRB02KT 2000 HZ
                      BECMG 1704/1706 29008KT 3500 HZ=
202004151700 TAF VIDP 151700Z 1518/1624 12003KT 3500 HZ FEW100
                      BECMG 1520/1522 VRB02KT 2500 HZ
                      BECMG 1600/1602 00000KT 1500 BR FU
                      BECMG 1604/1606 26005KT 3000 HZ FEW035 SCT100
                       BECMG 1608/1610 29008G18KT 4500 HZ SCT035
                       BKN090
                      BECMG 1615/1617 34005KT 3000 HZ FEW035 SCT100
                       BECMG 1620/1622 VRB02KT 2000 HZ=
202004151100 TAF VIDP 151100Z 1512/1618 30008KT 4000 HZ SCT035 BKN090
                      BECMG 1601/1603 36005KT 2000 HZ
                      BECMG 1604/1606 29008G18KT 3000 HZ SCT100
                       BECMG 1608/1610 4000 HZ
                      BECMG 1615/1617 36005KT 3000 HZ BKN100=
202004150500 TAF VIDP 150500Z 1506/1612 24006KT 3000 HZ SCT035 BKN090
                      BECMG 1508/1510 30008KT 4000 HZ SCT040 SCT100
                       BECMG 1516/1518 06005KT 3000 HZ SCT035
                      BECMG 1522/1603 28005KT 1500 HZ BR FEW100
                       BECMG 1604/1606 20006KT 3000 HZ
                      BECMG 1608/1610 29005KT 4000 HZ SCT040 SCT100=
202004142300 TAF VIDP 142300Z 1500/1606 36004KT 2000 HZ BR FEW040 SCT100
                      BECMG 1505/1507 32008KT 4000 HZ SCT040 SCT100
                       BECMG 1508/1510 5000 HZ SCT100
                      BECMG 1515/1517 04005KT 3000 HZ SCT035
                      BECMG 1520/1524 34005KT 2000 HZ BR
                      BECMG 1600/1603 29005KT 1500 HZ BR FEW100=
202004141700 TAF VIDP 141700Z 1418/1524 14003KT 3000 HZ FEW040 SCT100
                      BECMG 1423/1503 27005KT 2000 HZ BR SCT035
                       FEW040CB BKN090
                      BECMG 1505/1507 32008KT 4000 HZ SCT040 SCT100
                       BECMG 1508/1510 5000 HZ SCT100
                      BECMG 1515/1517 04005KT 3000 HZ SCT035
                      BECMG 1520/1524 34005KT 2000 HZ BR=
202004141100 TAF VIDP 141100Z 1412/1518 20004KT 4000 HZ SCT035 SCT100
                      BECMG 1415/1417 27005KT 3000 HZ -RA SCT040
                       BKN100
                      BECMG 1422/1503 29010KT 1500 -TSRA SCT035
                       BKN040CB
                      BECMG 1504/1506 26006KT 2500 BR -RA
                      BECMG 1508/1510 27005KT 4000 HZ SCT040 SCT100
                       BECMG 1515/1517 23005KT 3000 HZ SCT040 BKN100=
202004140500 TAF VIDP 140500Z 1406/1512 27005KT 4000 HZ SCT035 BKN090
                      BECMG 1408/1410 20010KT 5000 HZ BKN080
                      BECMG 1415/1417 23005KT 3000 HZ -RA SCT040
                       BKN100
                      BECMG 1422/1503 29008KT 1500 -TSRA SCT035
                       FEW040CB BKN090
                      BECMG 1504/1506 VRB02KT 2500 BR -RA
                      BECMG 1508/1510 27005KT 4000 HZ SCT040 SCT100=
202004132300 TAF VIDP 132300Z 1400/1506 25005KT 2000 -TSRA SCT035 FEW040CB BKN090
                       BECMG 1405/1407 29006KT 3000 BR -RA
                      BECMG 1408/1410 27010KT 5000 HZ SCT040 BKN090
                       BECMG 1415/1417 25005KT 3000 HZ -RA
                      BECMG 1422/1503 27008KT 2000 -TSRA FEW040CB
                       OVC090=
202004131700 TAF VIDP 131700Z 1318/1424 34003KT 3500 HZ FEW035 SCT100
                      BECMG 1323/1403 25005KT 2000 -TSRA SCT035
                       FEW040CB BKN090
                      BECMG 1405/1407 29006KT 3000 BR -RA SCT040
                       BKN090
                      BECMG 1408/1410 27010KT 5000 HZ
                      BECMG 1415/1417 25005KT 3000 HZ -RA
                      BECMG 1420/1424 25005KT 2000 -TSRA FEW040CB
                       OVC090=
202004131100 TAF VIDP 131100Z 1312/1418 29008KT 4000 HZ FEW100
                      BECMG 1315/1317 32005KT 3500 HZ
                      TEMPO 1318/1321 FEW035CB
                      BECMG 1323/1401 VRB02KT 1500 HZ SCT035 BKN090
                       BECMG 1404/1406 34006KT 3000 HZ
                      BECMG 1408/1410 5000 HZ SCT100
                      BECMG 1415/1417 27004KT 3000 HZ=
202004130500 TAF VIDP 130500Z 1306/1412 24005KT 3000 HZ FEW100
                      BECMG 1308/1310 32008KT 4000 HZ
                      BECMG 1315/1317 35004KT 3500 HZ
                      TEMPO 1318/1320 FEW035CB
                      BECMG 1323/1401 VRB02KT 1500 HZ SCT035 BKN090
                       BECMG 1403/1405 27006KT 3000 HZ
                      BECMG 1408/1410 5000 HZ BKN100=
202004122300 TAF VIDP 122300Z 1300/1406 23004KT 1800 HZ FEW100
                      BECMG 1303/1305 29008KT 3500 HZ SCT100
                      BECMG 1306/1308 6000 FEW035 BKN100
                      BECMG 1314/1316 35004KT 3500 HZ
                      TEMPO 1317/1319 FEW035CB
                      BECMG 1323/1401 VRB02KT 1500 HZ SCT035 BKN090
                       BECMG 1403/1405 27006KT 3000 HZ=
202004121700 TAF VIDP 121700Z 1218/1324 25003KT 3500 HZ FEW100
                      BECMG 1300/1302 00000KT 2000 HZ
                      BECMG 1304/1306 29008KT 4000 HZ SCT100
                      BECMG 1307/1309 6000 FEW035 SCT100
                      BECMG 1314/1316 35004KT 3500 HZ
                      TEMPO 1317/1319 FEW035CB
                      BECMG 1321/1323 VRB02KT 2500 HZ SCT040 BKN100=
202004121100 TAF VIDP 121100Z 1212/1318 27008KT 5000 HZ FEW100
                      BECMG 1216/1218 32010G20KT 3500 HZ
                      BECMG 1301/1303 24005KT 1500 BR HZ
                      BECMG 1304/1306 34006KT 3000 HZ
                      BECMG 1308/1310 29008KT 5000 HZ -RA FEW040
                       SCT100
                      TEMPO 1308/1312 FEW040CB
                      BECMG 1315/1317 32008KT 3000 HZ FEW100=
202004120500 TAF VIDP 120500Z 1206/1312 29008G18KT 4000 HZ SCT100
                      BECMG 1208/1210 5000 HZ
                      BECMG 1215/1217 32008KT 3000 HZ
                      BECMG 1301/1303 23005KT 1500 BR HZ SCT035
                       BKN100
                      BECMG 1304/1306 27010KT 3000 HZ
                      TEMPO 1308/1312 FEW040CB
                      BECMG 1308/1310 29008G18KT 5000 HZ -RA BKN090=
202004112300 TAF VIDP 112300Z 1200/1306 32005KT 1500 HZ BR FEW100
                      BECMG 1204/1206 26008KT 3000 HZ
                      BECMG 1208/1210 32008G18KT 5000 HZ FEW035
                       SCT100
                      BECMG 1218/1220 29006KT 2500 HZ FEW100
                      BECMG 1300/1302 VRB02KT 1500 HZ BR
                      BECMG 1304/1306 32006KT 3000 HZ FEW035 SCT100=
202004111700 TAF VIDP 111700Z 1118/1224 32006KT 3500 HZ FEW100
                      BECMG 1120/1122 29005KT 2500 HZ
                      BECMG 1200/1202 00000KT 1500 BR HZ
                      BECMG 1204/1206 26008KT 3000 HZ
                      BECMG 1208/1210 32008G18KT 5000 HZ FEW035
                       SCT100
                      BECMG 1218/1220 29006KT 2500 HZ FEW100=
202004111100 TAF VIDP 111100Z 1112/1218 32007KT 4000 HZ FEW100
                      BECMG 1116/1118 3000 HZ
                      BECMG 1201/1203 00000KT 1500 BR HZ
                      BECMG 1204/1206 27008KT 3000 HZ
                      BECMG 1208/1210 32008G18KT 5000 HZ SCT100
                       BECMG 1215/1217 27005KT 3000 HZ=
202004110500 TAF VIDP 110500Z 1106/1212 34010KT 4000 HZ NSC
                      BECMG 1115/1117 VRB02KT 3000 HZ
                      BECMG 1200/1202 2000 HZ FEW100
                      BECMG 1203/1205 33008KT 3000 HZ
                      BECMG 1206/1208 34008G18KT 4000 HZ=
202004102300 TAF VIDP 102300Z 1100/1206 VRB02KT 2000 HZ BR FEW100
                      BECMG 1103/1105 32005KT 1500 BR SCT100
                      BECMG 1108/1111 4000 HZ SCT100
                      BECMG 1115/1118 30006KT 3000 HZ FEW040
                      BECMG 1118/1120 32005KT 3500 HZ FEW100
                      BECMG 1200/1202 1200 BR
                      BECMG 1203/1205 29008KT 3000 HZ SCT100=
202004101700 TAF VIDP 101700Z 1018/1124 32004KT 3000 HZ FEW100
                      BECMG 1100/1102 00000KT 2000 FU HZ
                      BECMG 1104/1106 32008KT 3000 HZ SCT100
                      BECMG 1108/1111 29008KT 4500 HZ
                      BECMG 1115/1118 30006KT 3000 HZ FEW030 SCT100
                       BECMG 1118/1120 32005KT 3500 HZ FEW100=
202004101100 TAF VIDP 101100Z 1012/1118 32008KT 5000 HZ SCT100
                      BECMG 1012/1015 FEW040CB
                      BECMG 1018/1020 29006KT 3000 HZ SCT100
                      BECMG 1100/1102 1500 FU
                      BECMG 1104/1106 32008KT 3000 HZ SCT100
                      BECMG 1108/1111 29008KT 4500 HZ
                      BECMG 1115/1118 30006KT 3000 HZ FEW030 SCT100=
202004100500 TAF VIDP 100500Z 1006/1112 32006KT 2500 HZ FEW100
                      BECMG 1008/1010 29006KT 4000 HZ FEW040 SCT100
                       TEMPO 1012/1015 FEW040CB
                      BECMG 1018/1020 VRB02KT 3000 HZ SCT100
                      BECMG 1100/1102 1500 FU
                      BECMG 1104/4406 29006KT 3000 HZ SCT100
                      BECMG 1108/1110 30008KT 4000 HZ SCT100=
202004092300 TAF VIDP 092300Z 1000/1106 00000KT 2000 HZ FEW100
                      BECMG 1003/1005 32006KT 3500 HZ FEW040 SCT100
                       BECMG 1008/1010 5000 HZ
                      TEMPO 1012/1015 FEW040CB
                      BECMG 1018/1020 32005KT 3000 HZ SCT100
                      BECMG 1100/1102 VRB02KT 1500 HZ
                      BECMG 1103/1105 29006KT 3000 HZ SCT100=
202004091700 TAF VIDP 091700Z 0918/1024 00000KT 3000 HZ SCT100
                      BECMG 1000/1002 VRB02KT 2000 FU HZ
                      BECMG 1004/1006 32009KT 4000 HZ FEW040 SCT100
                       BECMG 1008/1010 5000 HZ
                      TEMPO 1012/1015 FEW040CB
                      BECMG 1018/1020 29005KT 3000 HZ SCT100=
202004091100 TAF VIDP 091100Z 0912/1018 29008KT 5000 HZ SCT100
                      BECMG 0915/0917 32004KT 3000 HZ FEW035
                      BECMG 0920/0922 29006KT 2500 HZ FEW100
                      BECMG 1000/1004 05006KT 2000 -TSRA SCT035
                       FEW040CB BKN090
                      BECMG 1004/1006 32010KT 4000 HZ SCT100
                      BECMG 1009/1011 29010KT 4500
                      BECMG 1015/1017 29006KT 3000 FEW030 SCT100=
202004090500 TAF VIDP 090500Z 0906/1012 27005KT 2500 HZ FEW100
                      BECMG 0908/0910 29010KT 5000 HZ SCT100
                      BECMG 0918/0920 32004KT 3000 HZ FEW035
                      BECMG 1000/1004 03006KT 2000 -TSRA FEW040CB
                       BKN090
                      BECMG 1006/1008 30010KT 5000 HZ SCT100=
202004082300 TAF VIDP 082300Z 0900/1006 25004KT 1800 FU FEW100
                      BECMG 0903/0905 32005KT 3500 HZ
                      BECMG 0906/0908 32005G15KT 5000 HZ
                      BECMG 0919/0921 25005KT 3000 HZ FEW040 SCT100
                       BECMG 1000/1002 05004KT 1500 HZ
                      BECMG 1003/1005 29006KT3000 HZ SCT100=
202004081700 TAF VIDP 081700Z 0818/0924 32004KT 3200 HZ FEW100
                      BECMG 0900/0902 25005KT 1800 FU
                      BECMG 0903/0905 32005KT 3500 HZ
                      BECMG 0906/0908 32005G15KT 5000 HZ
                      BECMG 0919/0921 25005KT 3000 HZ FEW040 SCT100=
202004081100 TAF VIDP 081100Z 0812/0918 29010G20KT 5000 HZ NSC
                      BECMG 0815/0817 26008KT 3500
                      BECMG 0820/0822 29006KT 2500 FEW100
                      BECMG 0900/0902 VRB02KT 1500 BR
                      BECMG 0904/0906 29008KT 2500 HZ SCT100
                      BECMG 0909/0911 32010KT 4500
                      BECMG 0915/0917 29006KT 3000 FEW030 SCT100=
202004080500 TAF VIDP 080500Z 0806/0912 32010KT 3000 HZ SCT100
                      BECMG 0808/0812 29010G20KT 4000 HZ FEW030
                       SCT100
                      BECMG 0815/0817 26008KT 3000
                      BECMG 0820/0822 29006KT 2500 SCT100
                      BECMG 0900/0902 VRB002KT 1500 BR
                      BECMG 0904/0906 29008KT 2500 HZ FEW030 SCT100
                       BECMG 0909/0911 32010KT 4500=
202004072300 TAF VIDP 072300Z 0800/0906 32005KT 1200 BR -RA FEW035 SCT100
                      BECMG 0800/0803 FEW035CB
                      BECMG 0804/0806 29008KT 2500 HZ
                      BECMG 0806/0808 32010KT 3000 HZ SCT035 BKN100
                       BECMG 0808/0812 29010G25KT 1500 -TSRA FEW035CB
                       OVC080
                      BECMG 0818/0820 06005KT 2500 HZ
                      BECMG 0901/0903 29005KT 1500 BR FEW035 SCT100=
202004071700 TAF VIDP 071700Z 0718/0824 32010KT 3500 HZ -RA SCT030 FEW035CB
                       BKN100
                      BECMG 0720/0722 29008KT 2500 HZ BR FEW035
                       SCT100
                      BECMG 0800/0802 26005KT 1200 BR
                      BECMG 0805/0807 29010KT 3500 HZ
                      BECMG 0808/0812 32010G20KT 1500 -TSRA FEW035CB
                       BKN080
                      BECMG 0818/0820 27006KT 2500 HZ SCT035 SC100=
202004071100 TAF VIDP 071100Z 0712/0818 26010G20KT 5000 HZ FEW030 SCT100
                      BECMG 0715/0717 28010KT 3000 HZ SCT030 BKN090
                       BECMG 0720/0722 26010KT 2500 HZ
                      BECMG 0800/0802 27008KT 2000 -TSRA SCT030
                       FEW040CB BKN100
                      BECMG 0804/0806 29010KT 3000 HZ FEW030 BKN100
                       BECMG 0807/0811 29010G20KT 2500 HZ ...TSRA
                       SCT030 FEW040CB BKN090
                      BECMG 0815/0817 29010KT 2500 HZ FEW040 SCT100=
202004070500 TAF VIDP 070500Z 0706/0812 32008G18KT 2500 HZ FEW030 SCT 100
                      BECMG 0709/0711 29015G25KT 2800 HZ -TSRA
                       SCT030 FEW035CB BKN090
                      BECMG 0715/0717 32010KT 3000 HZ SCT030 BKN090
                       BECMG 0720/0722 VRB02KT 3000 HZ SCT030 BKN090
                       BECMG 0800/0802 VRB02KT 1500 BR -RA SCT030
                       BKN090
                      BECMG 0804/0806 32010KT 2000 HZ FEW030 SCT100
                       BECMG 0809/0811 29010G20KT 4000 HZ SCT100=
202004062300 TAF VIDP 062300Z 0700/0806 32005KT 2000 HZ FEW100
                      BECMG 0701/0703 02006KT 2000 BR -RA SCT030
                       BKN100
                      BECMG 0704/0706 26008KT 3000 H
                      BECMG 0708/0710 27010G20KT 2500 HZ -TSRA
                       FEW035CB
                      BECMG 0715/0717 28008KT 3000 HZ
                      BECMG 0721/0724 23010KT 1500 BR FEW035 SCT100
                       BECMG 0800/0802 2000 HZ BR FEW100
                      BECMG 0804/0806 32008KT 2500 HZ NSC=
202004061700 TAF VIDP 061700Z 0618/0724 32007KT 3000 HZ NSC
                      BECMG 0701/0703 02006KT 2000 BR -RA SCT030
                       BKN100
                      BECMG 0704/0706 26008KT 3000 HZ
                      BECMG 0708/0710 27010G20KT 2500 HZ -TSRA
                       FEW035CB
                      BECMG 0715/0717 28008KT 3000 HZ
                      BECMG 0721/0724 23010KT 1500 BR FEW035 SCT100=
202004061100 TAF VIDP 061100Z 0612/0718 29010KT 4000 HZ FEW040 SCT100
                      BECMG 0615/0618 28010G20KT 3000 HZ SCT030
                       FEW035CB BKN100
                      BECMG 0701/0703 02006KT 2000 BR -RA SCT030
                       BKN100
                      BECMG 0704/0706 26008KT 3000 HZ
                      BECMG 0708/0710 27010G20KT 2500 HZ -TSRA
                       FEW035CB
                      BECMG 0715/0717 28008KT 3000 HZ=
202004060500 TAF VIDP 060500Z 0606/0712 25005KT 2000 FU HZ FEW100
                      BECMG 0608/0610 4000 HZ SCT100
                      BECMG 0620/0622 32008KT 2000 HZ SCT040
                      BECMG 0701/0703 18005KT 1000 BR RA SCT035
                       BKN090
                      BECMG 0704/0706 29005KT 3000 RA BR
                      BECMG 0708/0712 2000 -TSRA FEW035CB OVC090=
202004052300 TAF VIDP 052300Z 0600/0706 05005KT 2000 HZ FEW100
                      BECMG 0601/0603 1500 BR -RA SCT035 BKN090
                       BECMG 0604/0606 29005KT 2500 BR HZ SCT100
                       BECMG 0608/0610 4000 HZ
                      BECMG 0615/0617 32006KT 3000 HZ SCT035
                      BECMG 0618/0620 26005KT 2500 HZ FEW100
                      BECMG 0700/0702 VRB02KT 1500 BR BKN100
                      BECMG 0704/0706 27006KT 2500 HZ FEW035 SCT100=
202004051700 TAF VIDP 051700Z 0518/0624 05005KT 3000 HZ FEW100
                      BECMG 0601/0603 1000 BR -RA SCT035 BKN090
                       BECMG 0604/0606 27005KT 2500 BR HZ SCT100
                       BECMG 0608/0610 4000 HZ
                      BECMG 0615/0617 32008KT 3000 HZ SCT035
                      BECMG 0621/0623 VRB02KT 1500 BR BKN100=
202004051100 TAF VIDP 051100Z 0512/0618 29005KT 4000 HZ FEW100
                      BECMG 0515/0517 3000 HZ SCT100
                      BECMG 0601/0603 05003KT 1000 BR FEW040 BKN100
                       BECMG 0604/0606 23005KT 2500 HZ
                      BECMG 0608/0610 29010KT 4000 HZ=
202004050500 TAF VIDP 050500Z 0506/0612 29008KT 3000 HZ FEW030 SCT100
                      TEMPO 0509/0511 29008G18KT 5000 HZ FEW035CB
                       BECMG 0518/0520 VRB02KT 3000 HZ SCT035 BKN100
                       BECMG 0600/0602 24004KT 1500 BR FEW040 SCT100
                       BECMG 0604/0606 29008KT 2500 HZ
                      BECMG 0609/0611 32010KT 5000 HZ FEW035CB=
202004042300 TAF VIDP 042300Z 0500/0606 23004KT 1800 HZ FEW100
                      BECMG 0503/0505 29008KT 3500 HZ FEW035 SCT100
                       BECMG 0506/0508 5000 HZ
                      TEMPO 0509/0511 FEW035CB
                      BECMG 0518/0520 VRB02KT 3000 HZ SCT035 BKN100
                       BECMG 0600/0602 25004KT 1500 BR FEW040 SCT100
                       BECMG 0604/0606 32008KT 3000 HZ FEW100=
202004041700 TAF VIDP 041700Z 0418/0524 00000KT 3500 HZ NSC
                      BECMG 0500/0502 23004KT 2000 HZ FEW100
                      BECMG 0505/0507 29008KT 5000 HZ FEW035 SCT100
                       TEMPO 0509/0511 FEW035CB
                      BECMG 0520/0522 VRB02KT 3000 HZ SCT035 BKN100=
202004040500 TAF VIDP 040500Z 0406/0512 27008KT 2500 HZ NSC
                      BECMG 0407/0409 5000 HZ
                      BECMG 0415/0417 29005KT 3000 HZ
                      BECMG 0501/0503 00000KT 1000 BR SCT030
                      BECMG 0504/0506 27006KT 2500 HZ
                      BECMG 0508/0510 5000 HZ=
202004032300 TAF VIDP 032300Z 0400/0506 32003KT 1000 BR FU FEW100
                      BECMG 0404/0406 27008KT 2500 HZ FEW035 SCT100
                       BECMG 0408/0410 32010KT 5000 HZ SCT035 SCT090
                       BECMG 0418/0420 26005KT 3000 HZ FEW100
                      BECMG 0500/0502 VRB02KT 1500 BR FU
                      BECMG 0504/0506 27006KT 2500 HZ FEW035 SCT100=
202004031700 TAF VIDP 031700Z 0318/0424 33005KT 3500 HZ SCT100
                      BECMG 0320/0322 VRB02KT 2500 HZ FEW100
                      BECMG 0400/0402 32003KT 1000 BR FU FEW035
                       BECMG 0404/0406 27008KT 2500 HZ
                      BECMG 0408/0410 32010KT 5000 HZ FEW035 SCT100
                       BECMG 0418/0420 26005KT 3000 HZ FEW100=
202004031100 TAF VIDP 031100Z 0312/0418 30010KT 5000 HZ SCT100
                      BECMG 0315/0317 3000 HZ
                      BECMG 0401/0403 32003KT 0800 MIFG FU FEW040
                       BECMG 0404/0406 27010KT 2500 HZ
                      BECMG 0408/0410 5000 HZ
                      BECMG 0415/0417 29006KT 3000 HZ=
202004030500 TAF VIDP 030500Z 0306/0412 30008KT 2500 HZ FEW100
                      BECMG 0308/0310 30010KT 5000 HZ FEW100
                      BECMG 0314/0316 28005KT 3000 HZ NSC
                      BECMG 0320/0322 27004KT 3000 HZ NSC
                      BECMG 0400/0402 29005KT 2000 HZ BR NSC
                      BECMG 0405/0407 30010KT 5000 HZ=
202004022300 TAF VIDP 022300Z 0300/0406 32005KT 1500 BR FEW100
                      BECMG 0304/0306 32008G18KT 3000 HZ
                      BECMG 0308/0310 5000 HZ
                      BECMG 0315/0317 29010G20KT 3000 HZ
                      BECMG 0401/0403 29010KT 2000 BR
                      BECMG 0404/0406 4000 HZ=
202004021700 TAF VIDP 021700Z 0218/0324 32006KT 3500 HZ FEW100
                      BECMG 0300/0302 25004KT 2200 BR NSC
                      BECMG 0305/0307 32010KT 4000 HZ FEW100
                      BECMG 0320/0322 25004KT 3000 BR NSC=
202004021400 TAF VIDP 021400Z 0215/0224 32008KT 3500 HZ FEW100
                      BECMG 0220/0222 25004KT 2500 HZ NSC=
202004021100 TAF VIDP 021100Z 0212/0318 29010KT 5000 HZ FEW100
                      BECMG 0218/0220 23005KT 3000 HZ
                      BECMG 0300/0302 23005KT 1500 BR NSC
                      BECMG 0304/0306 29008KT 3000 HZ
                      BECMG 0307/0309 5000 HZ
                      BECMG 0315/0317 3500 HZ=
202004020500 TAF VIDP 020500Z 0206/0312 29008KT 3000 HZ NSC
                      BECMG 0208/0210 29010KT 4000 HZ
                      BECMG 0215/0217 27008KT 3000 HZ
                      BECMG 0301/0303 32010KT 1000 BR
                      BECMG 0304/0306 4000 HZ
                      BECMG 0308/0310 32008G18KT 5000 HZ FEW100=
202004012300 TAF VIDP 012300Z 0200/0306 30005KT 1200 BR NSC
                      BECMG 0204/0206 30008G18KT 3000 HZ
                      BECMG 0208/0210 5000 HZ
                      BECMG 0215/0217 27008KT 3000 HZ
                      BECMG 0301/0303 29010G20KT 2000 BR
                      BECMG 0304/0306 5000 HZ=
202004011700 TAF VIDP 011700Z 0118/0224 32010KT 3000 HZ BR FEW100
                      BECMG 0201/0203 1500 BR NSC
                      BECMG 0204/0206 29008G18KT 3000 HZ
                      BECMG 0208/0210 5000 HZ
                      BECMG 0215/0217 27010KT 3000 HZ
                      BECMG 0221/0223 29010G25KT 1500 HZ BR=
202004011100 TAF VIDP 011100Z 0112/0218 32006KT 5000 HZ FEW100
                      BECMG 0118/0120 29004KT 3000 HZ
                      BECMG 0200/0202 VRB02KT 1200 BR NSC
                      BECMG 0204/0206 26005KT 2500 HZ FEW100
                      BECMG 0207/0209 32008KT 5000 HZ FEW035 SCT100
                       BECMG 0215/0217 27005KT 3000 HZ=
202004010500 TAF VIDP 010500Z 0106/0212 27008KT 3000 HZ FEW100
                      BECMG 0109/0115 15010G25KT 2000 -TSRA FEW030
                       FEW0035CB BKN090
                      BECMG 0118/0120 29005KT 2500 BR FEW100
                      BECMG 0200/0202 23004KT 1000 BR NSC
                      BECMG 0204/0206 32006KT 2000 FU FEW100
                      BECMG 0208/0210 27008KT 4000 HZ=

